{"type":"FeatureCollection","name":"bgd-a-023","bbox":[88.4006,20.982,92.256,26.0383],"metadata":{"schemaVersion":"country-points-v162","countryIso3":"BGD","elementId":"A-023","featureCount":56,"sourceRowCount":56,"grouping":"rows with the same coordinate and name are one feature (recordIds, rowCount)","outlineBufferDeg":0.05},"features":[{"type":"Feature","id":"a-023-c121f7a49b","properties":{"elementId":"A-023","featureId":"a-023-c121f7a49b","name":"Amnura","kind":"oil","kindLabel":"석유","sourceYear":"2021","recordIds":["bgd-v162-a-023-entity-00048"],"rowCount":1,"capacityMw":50,"locationBasis":"원천 geolocation_source: WRI","primaryFuel":"Oil","mw":50},"geometry":{"type":"Point","coordinates":[88.4006,24.6301]}},{"type":"Feature","id":"a-023-e1a81b5a2a","properties":{"elementId":"A-023","featureId":"a-023-e1a81b5a2a","name":"Ashuganj (Aggreko)","kind":"gas","kindLabel":"가스","sourceYear":"2021","recordIds":["bgd-v162-a-023-entity-00004"],"rowCount":1,"capacityMw":1649,"locationBasis":"원천 geolocation_source: WRI","primaryFuel":"Gas","mw":1649},"geometry":{"type":"Point","coordinates":[91.0158,24.0426]}},{"type":"Feature","id":"a-023-6e353d882a","properties":{"elementId":"A-023","featureId":"a-023-6e353d882a","name":"Baghabari GT 1","kind":"gas","kindLabel":"가스","sourceYear":"2021","recordIds":["bgd-v162-a-023-entity-00046"],"rowCount":1,"capacityMw":223,"locationBasis":"원천 geolocation_source: WRI","primaryFuel":"Gas","mw":223},"geometry":{"type":"Point","coordinates":[89.5933,24.1361]}},{"type":"Feature","id":"a-023-25ff6bef7d","properties":{"elementId":"A-023","featureId":"a-023-25ff6bef7d","name":"Barabkunda (Regent)","kind":"oil","kindLabel":"석유","sourceYear":"2021","recordIds":["bgd-v162-a-023-entity-00005"],"rowCount":1,"capacityMw":22,"locationBasis":"원천 geolocation_source: WRI","primaryFuel":"Oil","mw":22},"geometry":{"type":"Point","coordinates":[91.6841,22.5713]}},{"type":"Feature","id":"a-023-c66ec9bcdf","properties":{"elementId":"A-023","featureId":"a-023-c66ec9bcdf","name":"Barishal GT-unit-1 2","kind":"gas","kindLabel":"가스","sourceYear":"2021","recordIds":["bgd-v162-a-023-entity-00038"],"rowCount":1,"capacityMw":40,"locationBasis":"원천 geolocation_source: WRI","primaryFuel":"Gas","mw":40},"geometry":{"type":"Point","coordinates":[90.3373,22.6588]}},{"type":"Feature","id":"a-023-1ba47e98e8","properties":{"elementId":"A-023","featureId":"a-023-1ba47e98e8","name":"Barupukuria ST 1","kind":"coal","kindLabel":"석탄","sourceYear":"2021","recordIds":["bgd-v162-a-023-entity-00042"],"rowCount":1,"capacityMw":250,"locationBasis":"원천 geolocation_source: WRI","primaryFuel":"Coal","mw":250},"geometry":{"type":"Point","coordinates":[88.9527,25.5502]}},{"type":"Feature","id":"a-023-df351a3fb4","properties":{"elementId":"A-023","featureId":"a-023-df351a3fb4","name":"Bera Peaking","kind":"oil","kindLabel":"석유","sourceYear":"2021","recordIds":["bgd-v162-a-023-entity-00051"],"rowCount":1,"capacityMw":71,"locationBasis":"원천 geolocation_source: WRI","primaryFuel":"Oil","mw":71},"geometry":{"type":"Point","coordinates":[89.6176,24.0895]}},{"type":"Feature","id":"a-023-823c57b5a6","properties":{"elementId":"A-023","featureId":"a-023-823c57b5a6","name":"Bheramara GT (Unit-1 2 3)","kind":"oil","kindLabel":"석유","sourceYear":"2021","recordIds":["bgd-v162-a-023-entity-00002"],"rowCount":1,"capacityMw":560,"locationBasis":"원천 geolocation_source: WRI","primaryFuel":"Oil","mw":560},"geometry":{"type":"Point","coordinates":[89.0173,24.0487]}},{"type":"Feature","id":"a-023-36f6bc1007","properties":{"elementId":"A-023","featureId":"a-023-36f6bc1007","name":"Bhola CCPP GT-1 2 ST","kind":"gas","kindLabel":"가스","sourceYear":"2021","recordIds":["bgd-v162-a-023-entity-00037"],"rowCount":1,"capacityMw":227,"locationBasis":"원천 geolocation_source: WRI","primaryFuel":"Gas","mw":227},"geometry":{"type":"Point","coordinates":[90.7101,22.4786]}},{"type":"Feature","id":"a-023-4a252b2ceb","properties":{"elementId":"A-023","featureId":"a-023-4a252b2ceb","name":"Bogra GBB","kind":"gas","kindLabel":"가스","sourceYear":"2021","recordIds":["bgd-v162-a-023-entity-00047"],"rowCount":1,"capacityMw":42,"locationBasis":"원천 geolocation_source: WRI","primaryFuel":"Gas","mw":42},"geometry":{"type":"Point","coordinates":[89.3506,24.8408]}},{"type":"Feature","id":"a-023-35a1db078d","properties":{"elementId":"A-023","featureId":"a-023-35a1db078d","name":"CLCPC Keranigonj","kind":"oil","kindLabel":"석유","sourceYear":"2021","recordIds":["bgd-v162-a-023-entity-00016"],"rowCount":1,"capacityMw":100,"locationBasis":"원천 geolocation_source: WRI","primaryFuel":"Oil","mw":100},"geometry":{"type":"Point","coordinates":[90.3473,23.6473]}},{"type":"Feature","id":"a-023-e104c02621","properties":{"elementId":"A-023","featureId":"a-023-e104c02621","name":"Chittagong Roazan","kind":"gas","kindLabel":"가스","sourceYear":"2021","recordIds":["bgd-v162-a-023-entity-00013"],"rowCount":1,"capacityMw":553,"locationBasis":"원천 geolocation_source: WRI","primaryFuel":"Gas","mw":553},"geometry":{"type":"Point","coordinates":[91.9784,22.457]}},{"type":"Feature","id":"a-023-49c72a86bd","properties":{"elementId":"A-023","featureId":"a-023-49c72a86bd","name":"Faridpur","kind":"oil","kindLabel":"석유","sourceYear":"2021","recordIds":["bgd-v162-a-023-entity-00029"],"rowCount":1,"capacityMw":54,"locationBasis":"원천 geolocation_source: WRI","primaryFuel":"Oil","mw":54},"geometry":{"type":"Point","coordinates":[89.7733,23.6183]}},{"type":"Feature","id":"a-023-be9dc86c10","properties":{"elementId":"A-023","featureId":"a-023-be9dc86c10","name":"Fenchuganj (Barakatullah)","kind":"gas","kindLabel":"가스","sourceYear":"2021","recordIds":["bgd-v162-a-023-entity-00054"],"rowCount":1,"capacityMw":296,"locationBasis":"원천 geolocation_source: GEODB","primaryFuel":"Gas","mw":296},"geometry":{"type":"Point","coordinates":[91.9189,24.6863]}},{"type":"Feature","id":"a-023-4a7980e1ec","properties":{"elementId":"A-023","featureId":"a-023-4a7980e1ec","name":"Feni (Doreen)","kind":"gas","kindLabel":"가스","sourceYear":"2021","recordIds":["bgd-v162-a-023-entity-00025"],"rowCount":1,"capacityMw":33,"locationBasis":"원천 geolocation_source: WRI","primaryFuel":"Gas","mw":33},"geometry":{"type":"Point","coordinates":[90.6926,23.9186]}},{"type":"Feature","id":"a-023-323fdf8d5f","properties":{"elementId":"A-023","featureId":"a-023-323fdf8d5f","name":"Ghorasal ST :Unit-3","kind":"gas","kindLabel":"가스","sourceYear":"2021","recordIds":["bgd-v162-a-023-entity-00033"],"rowCount":1,"capacityMw":861,"locationBasis":"원천 geolocation_source: GEODB","primaryFuel":"Gas","mw":861},"geometry":{"type":"Point","coordinates":[90.637,23.9797]}},{"type":"Feature","id":"a-023-e24c257ce4","properties":{"elementId":"A-023","featureId":"a-023-e24c257ce4","name":"Gopalganj Peaking","kind":"oil","kindLabel":"석유","sourceYear":"2021","recordIds":["bgd-v162-a-023-entity-00019"],"rowCount":1,"capacityMw":109,"locationBasis":"원천 geolocation_source: GEODB","primaryFuel":"Oil","mw":109},"geometry":{"type":"Point","coordinates":[90.637,23.9797]}},{"type":"Feature","id":"a-023-0bd89e071e","properties":{"elementId":"A-023","featureId":"a-023-0bd89e071e","name":"Hathazari","kind":"oil","kindLabel":"석유","sourceYear":"2021","recordIds":["bgd-v162-a-023-entity-00015"],"rowCount":1,"capacityMw":98,"locationBasis":"원천 geolocation_source: WRI","primaryFuel":"Oil","mw":98},"geometry":{"type":"Point","coordinates":[91.8051,22.4918]}},{"type":"Feature","id":"a-023-7150495b65","properties":{"elementId":"A-023","featureId":"a-023-7150495b65","name":"Hobiganj (Confidence-EP)","kind":"gas","kindLabel":"가스","sourceYear":"2021","recordIds":["bgd-v162-a-023-entity-00052"],"rowCount":1,"capacityMw":11,"locationBasis":"원천 geolocation_source: WRI","primaryFuel":"Gas","mw":11},"geometry":{"type":"Point","coordinates":[91.379,24.2639]}},{"type":"Feature","id":"a-023-fa2c9e6fcb","properties":{"elementId":"A-023","featureId":"a-023-fa2c9e6fcb","name":"Horippur Power CCPP","kind":"gas","kindLabel":"가스","sourceYear":"2021","recordIds":["bgd-v162-a-023-entity-00034"],"rowCount":1,"capacityMw":946,"locationBasis":"원천 geolocation_source: WRI","primaryFuel":"Gas","mw":946},"geometry":{"type":"Point","coordinates":[90.5314,23.6839]}},{"type":"Feature","id":"a-023-dd86127b53","properties":{"elementId":"A-023","featureId":"a-023-dd86127b53","name":"Jamalpur RPP","kind":"oil","kindLabel":"석유","sourceYear":"2021","recordIds":["bgd-v162-a-023-entity-00040"],"rowCount":1,"capacityMw":95,"locationBasis":"원천 geolocation_source: WRI","primaryFuel":"Oil","mw":95},"geometry":{"type":"Point","coordinates":[89.9607,24.9103]}},{"type":"Feature","id":"a-023-c602e057df","properties":{"elementId":"A-023","featureId":"a-023-c602e057df","name":"Jangalia (Summit)","kind":"gas","kindLabel":"가스","sourceYear":"2021","recordIds":["bgd-v162-a-023-entity-00014"],"rowCount":1,"capacityMw":85,"locationBasis":"원천 geolocation_source: WRI","primaryFuel":"Gas","mw":85},"geometry":{"type":"Point","coordinates":[91.17,23.4289]}},{"type":"Feature","id":"a-023-2cba4ab895","properties":{"elementId":"A-023","featureId":"a-023-2cba4ab895","name":"Jhulda","kind":"oil","kindLabel":"석유","sourceYear":"2021","recordIds":["bgd-v162-a-023-entity-00003"],"rowCount":1,"capacityMw":100,"locationBasis":"원천 geolocation_source: WRI","primaryFuel":"Oil","mw":100},"geometry":{"type":"Point","coordinates":[91.8062,22.2972]}},{"type":"Feature","id":"a-023-41c62e1470","properties":{"elementId":"A-023","featureId":"a-023-41c62e1470","name":"Kaptai Hydro:Unit-1 2 3 4 5","kind":"hydro","kindLabel":"수력","sourceYear":"2021","recordIds":["bgd-v162-a-023-entity-00006"],"rowCount":1,"capacityMw":230,"locationBasis":"원천 geolocation_source: GEODB","primaryFuel":"Hydro","mw":230},"geometry":{"type":"Point","coordinates":[92.216,22.495]}},{"type":"Feature","id":"a-023-6dd0b306c1","properties":{"elementId":"A-023","featureId":"a-023-6dd0b306c1","name":"Karanigonj (Powerpac)","kind":"oil","kindLabel":"석유","sourceYear":"2021","recordIds":["bgd-v162-a-023-entity-00017"],"rowCount":1,"capacityMw":100,"locationBasis":"원천 geolocation_source: WRI","primaryFuel":"Oil","mw":100},"geometry":{"type":"Point","coordinates":[90.4295,23.6783]}},{"type":"Feature","id":"a-023-1ea4828445","properties":{"elementId":"A-023","featureId":"a-023-1ea4828445","name":"Katakhali (Peaking)","kind":"oil","kindLabel":"석유","sourceYear":"2021","recordIds":["bgd-v162-a-023-entity-00044"],"rowCount":1,"capacityMw":100,"locationBasis":"원천 geolocation_source: WRI","primaryFuel":"Oil","mw":100},"geometry":{"type":"Point","coordinates":[88.6763,24.366]}},{"type":"Feature","id":"a-023-95ffcdf2c5","properties":{"elementId":"A-023","featureId":"a-023-95ffcdf2c5","name":"Kathpotti 52 mw","kind":"oil","kindLabel":"석유","sourceYear":"2021","recordIds":["bgd-v162-a-023-entity-00028"],"rowCount":1,"capacityMw":52,"locationBasis":"원천 geolocation_source: WRI","primaryFuel":"Oil","mw":52},"geometry":{"type":"Point","coordinates":[90.4804,23.5699]}},{"type":"Feature","id":"a-023-cb1ab155ec","properties":{"elementId":"A-023","featureId":"a-023-cb1ab155ec","name":"Khulna (KPCL-2)","kind":"gas","kindLabel":"가스","sourceYear":"2021","recordIds":["bgd-v162-a-023-entity-00001"],"rowCount":1,"capacityMw":510,"locationBasis":"원천 geolocation_source: WRI","primaryFuel":"Gas","mw":510},"geometry":{"type":"Point","coordinates":[89.5357,22.8646]}},{"type":"Feature","id":"a-023-fa893c5831","properties":{"elementId":"A-023","featureId":"a-023-fa893c5831","name":"Kodda Gajipur","kind":"oil","kindLabel":"석유","sourceYear":"2021","recordIds":["bgd-v162-a-023-entity-00020"],"rowCount":1,"capacityMw":149,"locationBasis":"원천 geolocation_source: WRI","primaryFuel":"Oil","mw":149},"geometry":{"type":"Point","coordinates":[90.3429,23.9904]}},{"type":"Feature","id":"a-023-206b5300f6","properties":{"elementId":"A-023","featureId":"a-023-206b5300f6","name":"Madanganj (Summit)","kind":"oil","kindLabel":"석유","sourceYear":"2021","recordIds":["bgd-v162-a-023-entity-00021"],"rowCount":1,"capacityMw":157,"locationBasis":"원천 geolocation_source: WRI","primaryFuel":"Oil","mw":157},"geometry":{"type":"Point","coordinates":[90.5153,23.59]}},{"type":"Feature","id":"a-023-7ce3755272","properties":{"elementId":"A-023","featureId":"a-023-7ce3755272","name":"Meghnaghat CCPP","kind":"gas","kindLabel":"가스","sourceYear":"2021","recordIds":["bgd-v162-a-023-entity-00032"],"rowCount":1,"capacityMw":855,"locationBasis":"원천 geolocation_source: WRI","primaryFuel":"Gas","mw":855},"geometry":{"type":"Point","coordinates":[90.6007,23.6112]}},{"type":"Feature","id":"a-023-defb664c36","properties":{"elementId":"A-023","featureId":"a-023-defb664c36","name":"Mymensingh","kind":"gas","kindLabel":"가스","sourceYear":"2021","recordIds":["bgd-v162-a-023-entity-00039"],"rowCount":1,"capacityMw":210,"locationBasis":"원천 geolocation_source: WRI","primaryFuel":"Gas","mw":210},"geometry":{"type":"Point","coordinates":[90.4193,24.7611]}},{"type":"Feature","id":"a-023-9fe184a1f7","properties":{"elementId":"A-023","featureId":"a-023-9fe184a1f7","name":"Narshingdi (Doreen)","kind":"oil","kindLabel":"석유","sourceYear":"2021","recordIds":["bgd-v162-a-023-entity-00023"],"rowCount":1,"capacityMw":22,"locationBasis":"원천 geolocation_source: WRI","primaryFuel":"Oil","mw":22},"geometry":{"type":"Point","coordinates":[90.6926,23.9186]}},{"type":"Feature","id":"a-023-943bb40d32","properties":{"elementId":"A-023","featureId":"a-023-943bb40d32","name":"Noapara (khanjahan ali)","kind":"oil","kindLabel":"석유","sourceYear":"2021","recordIds":["bgd-v162-a-023-entity-00010"],"rowCount":1,"capacityMw":40,"locationBasis":"원천 geolocation_source: WRI","primaryFuel":"Oil","mw":40},"geometry":{"type":"Point","coordinates":[91.7812,22.3602]}},{"type":"Feature","id":"a-023-16a942f5d2","properties":{"elementId":"A-023","featureId":"a-023-16a942f5d2","name":"Northen 55 MW","kind":"oil","kindLabel":"석유","sourceYear":"2021","recordIds":["bgd-v162-a-023-entity-00030"],"rowCount":1,"capacityMw":55,"locationBasis":"원천 geolocation_source: WRI","primaryFuel":"Oil","mw":55},"geometry":{"type":"Point","coordinates":[90.2433,23.8094]}},{"type":"Feature","id":"a-023-ab018005e9","properties":{"elementId":"A-023","featureId":"a-023-ab018005e9","name":"Pagla (DPA)","kind":"oil","kindLabel":"석유","sourceYear":"2021","recordIds":["bgd-v162-a-023-entity-00027"],"rowCount":1,"capacityMw":50,"locationBasis":"원천 geolocation_source: WRI","primaryFuel":"Oil","mw":50},"geometry":{"type":"Point","coordinates":[90.4584,23.6584]}},{"type":"Feature","id":"a-023-b6b7132905","properties":{"elementId":"A-023","featureId":"a-023-b6b7132905","name":"Patenga 50 MW","kind":"oil","kindLabel":"석유","sourceYear":"2021","recordIds":["bgd-v162-a-023-entity-00011"],"rowCount":1,"capacityMw":50,"locationBasis":"원천 geolocation_source: WRI","primaryFuel":"Oil","mw":50},"geometry":{"type":"Point","coordinates":[91.8129,22.2385]}},{"type":"Feature","id":"a-023-38ad5f429e","properties":{"elementId":"A-023","featureId":"a-023-38ad5f429e","name":"Rangpur GT","kind":"oil","kindLabel":"석유","sourceYear":"2021","recordIds":["bgd-v162-a-023-entity-00041"],"rowCount":1,"capacityMw":20,"locationBasis":"원천 geolocation_source: WRI","primaryFuel":"Oil","mw":20},"geometry":{"type":"Point","coordinates":[89.2432,25.7233]}},{"type":"Feature","id":"a-023-18d8820093","properties":{"elementId":"A-023","featureId":"a-023-18d8820093","name":"Santahar Peaking","kind":"oil","kindLabel":"석유","sourceYear":"2021","recordIds":["bgd-v162-a-023-entity-00049"],"rowCount":1,"capacityMw":50,"locationBasis":"원천 geolocation_source: WRI","primaryFuel":"Oil","mw":50},"geometry":{"type":"Point","coordinates":[88.9839,24.7972]}},{"type":"Feature","id":"a-023-09f52b44ec","properties":{"elementId":"A-023","featureId":"a-023-09f52b44ec","name":"Shahjibazar 330 MW","kind":"gas","kindLabel":"가스","sourceYear":"2021","recordIds":["bgd-v162-a-023-entity-00056"],"rowCount":1,"capacityMw":536,"locationBasis":"원천 geolocation_source: WRI","primaryFuel":"Gas","mw":536},"geometry":{"type":"Point","coordinates":[91.3751,24.2532]}},{"type":"Feature","id":"a-023-5698609677","properties":{"elementId":"A-023","featureId":"a-023-5698609677","name":"Shiddirganj ST","kind":"gas","kindLabel":"가스","sourceYear":"2021","recordIds":["bgd-v162-a-023-entity-00022"],"rowCount":1,"capacityMw":210,"locationBasis":"원천 geolocation_source: WRI","primaryFuel":"Gas","mw":210},"geometry":{"type":"Point","coordinates":[90.517,23.6846]}},{"type":"Feature","id":"a-023-34ceb7897d","properties":{"elementId":"A-023","featureId":"a-023-34ceb7897d","name":"Shikalbaha Peaking (GT)","kind":"oil","kindLabel":"석유","sourceYear":"2021","recordIds":["bgd-v162-a-023-entity-00008"],"rowCount":1,"capacityMw":261,"locationBasis":"원천 geolocation_source: WRI","primaryFuel":"Oil","mw":261},"geometry":{"type":"Point","coordinates":[91.8651,22.3227]}},{"type":"Feature","id":"a-023-5200ba5798","properties":{"elementId":"A-023","featureId":"a-023-5200ba5798","name":"Siddhirganj (Dutch Bangla)","kind":"gas","kindLabel":"가스","sourceYear":"2021","recordIds":["bgd-v162-a-023-entity-00050"],"rowCount":1,"capacityMw":520,"locationBasis":"원천 geolocation_source: GEODB","primaryFuel":"Gas","mw":520},"geometry":{"type":"Point","coordinates":[89.7436,24.3884]}},{"type":"Feature","id":"a-023-ced37d8b0a","properties":{"elementId":"A-023","featureId":"a-023-ced37d8b0a","name":"Siddirgonj (Desh)","kind":"oil","kindLabel":"석유","sourceYear":"2021","recordIds":["bgd-v162-a-023-entity-00035"],"rowCount":1,"capacityMw":96,"locationBasis":"원천 geolocation_source: GEODB","primaryFuel":"Oil","mw":96},"geometry":{"type":"Point","coordinates":[90.5252,23.6825]}},{"type":"Feature","id":"a-023-d2e9438386","properties":{"elementId":"A-023","featureId":"a-023-d2e9438386","name":"Summit Barisal 110MW","kind":"gas","kindLabel":"가스","sourceYear":"2021","recordIds":["bgd-v162-a-023-entity-00036"],"rowCount":1,"capacityMw":110,"locationBasis":"원천 geolocation_source: WRI","primaryFuel":"Gas","mw":110},"geometry":{"type":"Point","coordinates":[90.3364,22.659]}},{"type":"Feature","id":"a-023-22e753d5a9","properties":{"elementId":"A-023","featureId":"a-023-22e753d5a9","name":"Summit Bibiana-2","kind":"gas","kindLabel":"가스","sourceYear":"2021","recordIds":["bgd-v162-a-023-entity-00055"],"rowCount":1,"capacityMw":341,"locationBasis":"원천 geolocation_source: WRI","primaryFuel":"Gas","mw":341},"geometry":{"type":"Point","coordinates":[91.6587,24.6358]}},{"type":"Feature","id":"a-023-fb231a1240","properties":{"elementId":"A-023","featureId":"a-023-fb231a1240","name":"Summit Power (Madhabdi+Ashulia)","kind":"gas","kindLabel":"가스","sourceYear":"2021","recordIds":["bgd-v162-a-023-entity-00031"],"rowCount":1,"capacityMw":80,"locationBasis":"원천 geolocation_source: WRI","primaryFuel":"Gas","mw":80},"geometry":{"type":"Point","coordinates":[90.0323,23.8901]}},{"type":"Feature","id":"a-023-44beffe1a0","properties":{"elementId":"A-023","featureId":"a-023-44beffe1a0","name":"Summit Power Comilla","kind":"gas","kindLabel":"가스","sourceYear":"2021","recordIds":["bgd-v162-a-023-entity-00007"],"rowCount":1,"capacityMw":25,"locationBasis":"원천 제공 좌표(geolocation_source 미기재)","primaryFuel":"Gas","mw":25},"geometry":{"type":"Point","coordinates":[91.1869,23.44]}},{"type":"Feature","id":"a-023-04753b8779","properties":{"elementId":"A-023","featureId":"a-023-04753b8779","name":"Summit Power Maona","kind":"gas","kindLabel":"가스","sourceYear":"2021","recordIds":["bgd-v162-a-023-entity-00026"],"rowCount":1,"capacityMw":33,"locationBasis":"원천 제공 좌표(geolocation_source 미기재)","primaryFuel":"Gas","mw":33},"geometry":{"type":"Point","coordinates":[90.4201,24.2276]}},{"type":"Feature","id":"a-023-73305a44a8","properties":{"elementId":"A-023","featureId":"a-023-73305a44a8","name":"Summit Power Rupgonj","kind":"gas","kindLabel":"가스","sourceYear":"2021","recordIds":["bgd-v162-a-023-entity-00024"],"rowCount":1,"capacityMw":33,"locationBasis":"원천 geolocation_source: WRI","primaryFuel":"Gas","mw":33},"geometry":{"type":"Point","coordinates":[90.5496,23.755]}},{"type":"Feature","id":"a-023-ea1e80a5e6","properties":{"elementId":"A-023","featureId":"a-023-ea1e80a5e6","name":"Sylhet (Energyprima)","kind":"gas","kindLabel":"가스","sourceYear":"2021","recordIds":["bgd-v162-a-023-entity-00053"],"rowCount":1,"capacityMw":222,"locationBasis":"원천 geolocation_source: WRI","primaryFuel":"Gas","mw":222},"geometry":{"type":"Point","coordinates":[91.83,24.9096]}},{"type":"Feature","id":"a-023-2e7fb8cbc4","properties":{"elementId":"A-023","featureId":"a-023-2e7fb8cbc4","name":"Teknaf","kind":"solar","kindLabel":"태양광","sourceYear":"2021","recordIds":["bgd-v162-a-023-entity-00009"],"rowCount":1,"capacityMw":28,"locationBasis":"원천 geolocation_source: Wiki-Solar","primaryFuel":"Solar","mw":28},"geometry":{"type":"Point","coordinates":[92.256,20.982]}},{"type":"Feature","id":"a-023-1915dd4f5b","properties":{"elementId":"A-023","featureId":"a-023-1915dd4f5b","name":"Thakurgaon (RZ)","kind":"oil","kindLabel":"석유","sourceYear":"2021","recordIds":["bgd-v162-a-023-entity-00043"],"rowCount":1,"capacityMw":47,"locationBasis":"원천 geolocation_source: WRI","primaryFuel":"Oil","mw":47},"geometry":{"type":"Point","coordinates":[88.4256,26.0383]}},{"type":"Feature","id":"a-023-33fe6c3de6","properties":{"elementId":"A-023","featureId":"a-023-33fe6c3de6","name":"Titas(Dautkandi)","kind":"oil","kindLabel":"석유","sourceYear":"2021","recordIds":["bgd-v162-a-023-entity-00012"],"rowCount":1,"capacityMw":52,"locationBasis":"원천 geolocation_source: WRI","primaryFuel":"Oil","mw":52},"geometry":{"type":"Point","coordinates":[90.7779,23.5461]}},{"type":"Feature","id":"a-023-147ed6f6f3","properties":{"elementId":"A-023","featureId":"a-023-147ed6f6f3","name":"Tongi GT","kind":"gas","kindLabel":"가스","sourceYear":"2021","recordIds":["bgd-v162-a-023-entity-00018"],"rowCount":1,"capacityMw":105,"locationBasis":"원천 geolocation_source: WRI","primaryFuel":"Gas","mw":105},"geometry":{"type":"Point","coordinates":[90.4123,23.897]}},{"type":"Feature","id":"a-023-b8ee1b415b","properties":{"elementId":"A-023","featureId":"a-023-b8ee1b415b","name":"Ullapara (Summit)","kind":"gas","kindLabel":"가스","sourceYear":"2021","recordIds":["bgd-v162-a-023-entity-00045"],"rowCount":1,"capacityMw":11,"locationBasis":"원천 geolocation_source: WRI","primaryFuel":"Gas","mw":11},"geometry":{"type":"Point","coordinates":[89.5512,24.3071]}}]}
