{"type":"FeatureCollection","name":"bgd-b-008","bbox":[89.466667,21.783333,91.05,22.216667],"metadata":{"schemaVersion":"country-points-v162","countryIso3":"BGD","elementId":"B-008","featureCount":3,"sourceRowCount":945,"grouping":"rows with the same coordinate and name are one feature (recordIds, rowCount)","outlineBufferDeg":0.05},"features":[{"type":"Feature","id":"b-008-38512d3f96","properties":{"elementId":"B-008","featureId":"b-008-38512d3f96","name":"CHARCHANGA","sourceYear":"2100","recordIds":["bgd-v162-b-008-entity-00001","bgd-v162-b-008-entity-00002","bgd-v162-b-008-entity-00003","bgd-v162-b-008-entity-00004","bgd-v162-b-008-entity-00005","bgd-v162-b-008-entity-00006","bgd-v162-b-008-entity-00007","bgd-v162-b-008-entity-00008","bgd-v162-b-008-entity-00009","bgd-v162-b-008-entity-00010","bgd-v162-b-008-entity-00011","bgd-v162-b-008-entity-00012","bgd-v162-b-008-entity-00013","bgd-v162-b-008-entity-00014","bgd-v162-b-008-entity-00015","bgd-v162-b-008-entity-00016","bgd-v162-b-008-entity-00017","bgd-v162-b-008-entity-00018","bgd-v162-b-008-entity-00019","bgd-v162-b-008-entity-00020","bgd-v162-b-008-entity-00021","bgd-v162-b-008-entity-00022","bgd-v162-b-008-entity-00023","bgd-v162-b-008-entity-00024","bgd-v162-b-008-entity-00025","bgd-v162-b-008-entity-00026","bgd-v162-b-008-entity-00027","bgd-v162-b-008-entity-00028","bgd-v162-b-008-entity-00029","bgd-v162-b-008-entity-00030","bgd-v162-b-008-entity-00031","bgd-v162-b-008-entity-00032","bgd-v162-b-008-entity-00033","bgd-v162-b-008-entity-00034","bgd-v162-b-008-entity-00035","bgd-v162-b-008-entity-00036","bgd-v162-b-008-entity-00037","bgd-v162-b-008-entity-00038","bgd-v162-b-008-entity-00039","bgd-v162-b-008-entity-00040","bgd-v162-b-008-entity-00041","bgd-v162-b-008-entity-00042","bgd-v162-b-008-entity-00043","bgd-v162-b-008-entity-00044","bgd-v162-b-008-entity-00045","bgd-v162-b-008-entity-00046","bgd-v162-b-008-entity-00047","bgd-v162-b-008-entity-00048","bgd-v162-b-008-entity-00049","bgd-v162-b-008-entity-00050","bgd-v162-b-008-entity-00051","bgd-v162-b-008-entity-00052","bgd-v162-b-008-entity-00053","bgd-v162-b-008-entity-00054","bgd-v162-b-008-entity-00055","bgd-v162-b-008-entity-00056","bgd-v162-b-008-entity-00057","bgd-v162-b-008-entity-00058","bgd-v162-b-008-entity-00059","bgd-v162-b-008-entity-00060","bgd-v162-b-008-entity-00061","bgd-v162-b-008-entity-00062","bgd-v162-b-008-entity-00063","bgd-v162-b-008-entity-00064","bgd-v162-b-008-entity-00065","bgd-v162-b-008-entity-00066","bgd-v162-b-008-entity-00067","bgd-v162-b-008-entity-00068","bgd-v162-b-008-entity-00069","bgd-v162-b-008-entity-00070","bgd-v162-b-008-entity-00071","bgd-v162-b-008-entity-00072","bgd-v162-b-008-entity-00073","bgd-v162-b-008-entity-00074","bgd-v162-b-008-entity-00075","bgd-v162-b-008-entity-00076","bgd-v162-b-008-entity-00077","bgd-v162-b-008-entity-00078","bgd-v162-b-008-entity-00079","bgd-v162-b-008-entity-00080","bgd-v162-b-008-entity-00081","bgd-v162-b-008-entity-00082","bgd-v162-b-008-entity-00083","bgd-v162-b-008-entity-00084","bgd-v162-b-008-entity-00085","bgd-v162-b-008-entity-00086","bgd-v162-b-008-entity-00087","bgd-v162-b-008-entity-00088","bgd-v162-b-008-entity-00089","bgd-v162-b-008-entity-00090","bgd-v162-b-008-entity-00091","bgd-v162-b-008-entity-00092","bgd-v162-b-008-entity-00093","bgd-v162-b-008-entity-00094","bgd-v162-b-008-entity-00095","bgd-v162-b-008-entity-00096","bgd-v162-b-008-entity-00097","bgd-v162-b-008-entity-00098","bgd-v162-b-008-entity-00099","bgd-v162-b-008-entity-00100","bgd-v162-b-008-entity-00101","bgd-v162-b-008-entity-00102","bgd-v162-b-008-entity-00103","bgd-v162-b-008-entity-00104","bgd-v162-b-008-entity-00105","bgd-v162-b-008-entity-00106","bgd-v162-b-008-entity-00107","bgd-v162-b-008-entity-00108","bgd-v162-b-008-entity-00109","bgd-v162-b-008-entity-00110","bgd-v162-b-008-entity-00111","bgd-v162-b-008-entity-00112","bgd-v162-b-008-entity-00113","bgd-v162-b-008-entity-00114","bgd-v162-b-008-entity-00115","bgd-v162-b-008-entity-00116","bgd-v162-b-008-entity-00117","bgd-v162-b-008-entity-00118","bgd-v162-b-008-entity-00119","bgd-v162-b-008-entity-00120","bgd-v162-b-008-entity-00121","bgd-v162-b-008-entity-00122","bgd-v162-b-008-entity-00123","bgd-v162-b-008-entity-00124","bgd-v162-b-008-entity-00125","bgd-v162-b-008-entity-00126","bgd-v162-b-008-entity-00127","bgd-v162-b-008-entity-00128","bgd-v162-b-008-entity-00129","bgd-v162-b-008-entity-00130","bgd-v162-b-008-entity-00131","bgd-v162-b-008-entity-00132","bgd-v162-b-008-entity-00133","bgd-v162-b-008-entity-00134","bgd-v162-b-008-entity-00135","bgd-v162-b-008-entity-00136","bgd-v162-b-008-entity-00137","bgd-v162-b-008-entity-00138","bgd-v162-b-008-entity-00139","bgd-v162-b-008-entity-00140","bgd-v162-b-008-entity-00141","bgd-v162-b-008-entity-00142","bgd-v162-b-008-entity-00143","bgd-v162-b-008-entity-00144","bgd-v162-b-008-entity-00145","bgd-v162-b-008-entity-00146","bgd-v162-b-008-entity-00147","bgd-v162-b-008-entity-00148","bgd-v162-b-008-entity-00149","bgd-v162-b-008-entity-00150","bgd-v162-b-008-entity-00151","bgd-v162-b-008-entity-00152","bgd-v162-b-008-entity-00153","bgd-v162-b-008-entity-00154","bgd-v162-b-008-entity-00155","bgd-v162-b-008-entity-00156","bgd-v162-b-008-entity-00157","bgd-v162-b-008-entity-00158","bgd-v162-b-008-entity-00159","bgd-v162-b-008-entity-00160","bgd-v162-b-008-entity-00161","bgd-v162-b-008-entity-00162","bgd-v162-b-008-entity-00163","bgd-v162-b-008-entity-00164","bgd-v162-b-008-entity-00165","bgd-v162-b-008-entity-00166","bgd-v162-b-008-entity-00167","bgd-v162-b-008-entity-00168","bgd-v162-b-008-entity-00169","bgd-v162-b-008-entity-00170","bgd-v162-b-008-entity-00171","bgd-v162-b-008-entity-00172","bgd-v162-b-008-entity-00173","bgd-v162-b-008-entity-00174","bgd-v162-b-008-entity-00175","bgd-v162-b-008-entity-00176","bgd-v162-b-008-entity-00177","bgd-v162-b-008-entity-00178","bgd-v162-b-008-entity-00179","bgd-v162-b-008-entity-00180","bgd-v162-b-008-entity-00181","bgd-v162-b-008-entity-00182","bgd-v162-b-008-entity-00183","bgd-v162-b-008-entity-00184","bgd-v162-b-008-entity-00185","bgd-v162-b-008-entity-00186","bgd-v162-b-008-entity-00187","bgd-v162-b-008-entity-00188","bgd-v162-b-008-entity-00189","bgd-v162-b-008-entity-00190","bgd-v162-b-008-entity-00191","bgd-v162-b-008-entity-00192","bgd-v162-b-008-entity-00193","bgd-v162-b-008-entity-00194","bgd-v162-b-008-entity-00195","bgd-v162-b-008-entity-00196","bgd-v162-b-008-entity-00197","bgd-v162-b-008-entity-00198","bgd-v162-b-008-entity-00199","bgd-v162-b-008-entity-00200","bgd-v162-b-008-entity-00201","bgd-v162-b-008-entity-00202","bgd-v162-b-008-entity-00203","bgd-v162-b-008-entity-00204","bgd-v162-b-008-entity-00205","bgd-v162-b-008-entity-00206","bgd-v162-b-008-entity-00207","bgd-v162-b-008-entity-00208","bgd-v162-b-008-entity-00209","bgd-v162-b-008-entity-00210","bgd-v162-b-008-entity-00211","bgd-v162-b-008-entity-00212","bgd-v162-b-008-entity-00213","bgd-v162-b-008-entity-00214","bgd-v162-b-008-entity-00215","bgd-v162-b-008-entity-00216","bgd-v162-b-008-entity-00217","bgd-v162-b-008-entity-00218","bgd-v162-b-008-entity-00219","bgd-v162-b-008-entity-00220","bgd-v162-b-008-entity-00221","bgd-v162-b-008-entity-00222","bgd-v162-b-008-entity-00223","bgd-v162-b-008-entity-00224","bgd-v162-b-008-entity-00225","bgd-v162-b-008-entity-00226","bgd-v162-b-008-entity-00227","bgd-v162-b-008-entity-00228","bgd-v162-b-008-entity-00229","bgd-v162-b-008-entity-00230","bgd-v162-b-008-entity-00231","bgd-v162-b-008-entity-00232","bgd-v162-b-008-entity-00233","bgd-v162-b-008-entity-00234","bgd-v162-b-008-entity-00235","bgd-v162-b-008-entity-00236","bgd-v162-b-008-entity-00237","bgd-v162-b-008-entity-00238","bgd-v162-b-008-entity-00239","bgd-v162-b-008-entity-00240","bgd-v162-b-008-entity-00241","bgd-v162-b-008-entity-00242","bgd-v162-b-008-entity-00243","bgd-v162-b-008-entity-00244","bgd-v162-b-008-entity-00245","bgd-v162-b-008-entity-00246","bgd-v162-b-008-entity-00247","bgd-v162-b-008-entity-00248","bgd-v162-b-008-entity-00249","bgd-v162-b-008-entity-00250","bgd-v162-b-008-entity-00251","bgd-v162-b-008-entity-00252","bgd-v162-b-008-entity-00253","bgd-v162-b-008-entity-00254","bgd-v162-b-008-entity-00255","bgd-v162-b-008-entity-00256","bgd-v162-b-008-entity-00257","bgd-v162-b-008-entity-00258","bgd-v162-b-008-entity-00259","bgd-v162-b-008-entity-00260","bgd-v162-b-008-entity-00261","bgd-v162-b-008-entity-00262","bgd-v162-b-008-entity-00263","bgd-v162-b-008-entity-00264","bgd-v162-b-008-entity-00265","bgd-v162-b-008-entity-00266","bgd-v162-b-008-entity-00267","bgd-v162-b-008-entity-00268","bgd-v162-b-008-entity-00269","bgd-v162-b-008-entity-00270","bgd-v162-b-008-entity-00271","bgd-v162-b-008-entity-00272","bgd-v162-b-008-entity-00273","bgd-v162-b-008-entity-00274","bgd-v162-b-008-entity-00275","bgd-v162-b-008-entity-00276","bgd-v162-b-008-entity-00277","bgd-v162-b-008-entity-00278","bgd-v162-b-008-entity-00279","bgd-v162-b-008-entity-00280","bgd-v162-b-008-entity-00281","bgd-v162-b-008-entity-00282","bgd-v162-b-008-entity-00283","bgd-v162-b-008-entity-00284","bgd-v162-b-008-entity-00285","bgd-v162-b-008-entity-00286","bgd-v162-b-008-entity-00287","bgd-v162-b-008-entity-00288","bgd-v162-b-008-entity-00289","bgd-v162-b-008-entity-00290","bgd-v162-b-008-entity-00291","bgd-v162-b-008-entity-00292","bgd-v162-b-008-entity-00293","bgd-v162-b-008-entity-00294","bgd-v162-b-008-entity-00295","bgd-v162-b-008-entity-00296","bgd-v162-b-008-entity-00297","bgd-v162-b-008-entity-00298","bgd-v162-b-008-entity-00299","bgd-v162-b-008-entity-00300","bgd-v162-b-008-entity-00301","bgd-v162-b-008-entity-00302","bgd-v162-b-008-entity-00303","bgd-v162-b-008-entity-00304","bgd-v162-b-008-entity-00305","bgd-v162-b-008-entity-00306","bgd-v162-b-008-entity-00307","bgd-v162-b-008-entity-00308","bgd-v162-b-008-entity-00309","bgd-v162-b-008-entity-00310","bgd-v162-b-008-entity-00311","bgd-v162-b-008-entity-00312","bgd-v162-b-008-entity-00313","bgd-v162-b-008-entity-00314","bgd-v162-b-008-entity-00315"],"rowCount":315,"division":"치타공 관구(Chittagong Division)","coordinateSource":"PSMSL 관측소 원장"},"geometry":{"type":"Point","coordinates":[91.05,22.216667]}},{"type":"Feature","id":"b-008-f358d2138d","properties":{"elementId":"B-008","featureId":"b-008-f358d2138d","name":"HIRON POINT","sourceYear":"2100","recordIds":["bgd-v162-b-008-entity-00631","bgd-v162-b-008-entity-00632","bgd-v162-b-008-entity-00633","bgd-v162-b-008-entity-00634","bgd-v162-b-008-entity-00635","bgd-v162-b-008-entity-00636","bgd-v162-b-008-entity-00637","bgd-v162-b-008-entity-00638","bgd-v162-b-008-entity-00639","bgd-v162-b-008-entity-00640","bgd-v162-b-008-entity-00641","bgd-v162-b-008-entity-00642","bgd-v162-b-008-entity-00643","bgd-v162-b-008-entity-00644","bgd-v162-b-008-entity-00645","bgd-v162-b-008-entity-00646","bgd-v162-b-008-entity-00647","bgd-v162-b-008-entity-00648","bgd-v162-b-008-entity-00649","bgd-v162-b-008-entity-00650","bgd-v162-b-008-entity-00651","bgd-v162-b-008-entity-00652","bgd-v162-b-008-entity-00653","bgd-v162-b-008-entity-00654","bgd-v162-b-008-entity-00655","bgd-v162-b-008-entity-00656","bgd-v162-b-008-entity-00657","bgd-v162-b-008-entity-00658","bgd-v162-b-008-entity-00659","bgd-v162-b-008-entity-00660","bgd-v162-b-008-entity-00661","bgd-v162-b-008-entity-00662","bgd-v162-b-008-entity-00663","bgd-v162-b-008-entity-00664","bgd-v162-b-008-entity-00665","bgd-v162-b-008-entity-00666","bgd-v162-b-008-entity-00667","bgd-v162-b-008-entity-00668","bgd-v162-b-008-entity-00669","bgd-v162-b-008-entity-00670","bgd-v162-b-008-entity-00671","bgd-v162-b-008-entity-00672","bgd-v162-b-008-entity-00673","bgd-v162-b-008-entity-00674","bgd-v162-b-008-entity-00675","bgd-v162-b-008-entity-00676","bgd-v162-b-008-entity-00677","bgd-v162-b-008-entity-00678","bgd-v162-b-008-entity-00679","bgd-v162-b-008-entity-00680","bgd-v162-b-008-entity-00681","bgd-v162-b-008-entity-00682","bgd-v162-b-008-entity-00683","bgd-v162-b-008-entity-00684","bgd-v162-b-008-entity-00685","bgd-v162-b-008-entity-00686","bgd-v162-b-008-entity-00687","bgd-v162-b-008-entity-00688","bgd-v162-b-008-entity-00689","bgd-v162-b-008-entity-00690","bgd-v162-b-008-entity-00691","bgd-v162-b-008-entity-00692","bgd-v162-b-008-entity-00693","bgd-v162-b-008-entity-00694","bgd-v162-b-008-entity-00695","bgd-v162-b-008-entity-00696","bgd-v162-b-008-entity-00697","bgd-v162-b-008-entity-00698","bgd-v162-b-008-entity-00699","bgd-v162-b-008-entity-00700","bgd-v162-b-008-entity-00701","bgd-v162-b-008-entity-00702","bgd-v162-b-008-entity-00703","bgd-v162-b-008-entity-00704","bgd-v162-b-008-entity-00705","bgd-v162-b-008-entity-00706","bgd-v162-b-008-entity-00707","bgd-v162-b-008-entity-00708","bgd-v162-b-008-entity-00709","bgd-v162-b-008-entity-00710","bgd-v162-b-008-entity-00711","bgd-v162-b-008-entity-00712","bgd-v162-b-008-entity-00713","bgd-v162-b-008-entity-00714","bgd-v162-b-008-entity-00715","bgd-v162-b-008-entity-00716","bgd-v162-b-008-entity-00717","bgd-v162-b-008-entity-00718","bgd-v162-b-008-entity-00719","bgd-v162-b-008-entity-00720","bgd-v162-b-008-entity-00721","bgd-v162-b-008-entity-00722","bgd-v162-b-008-entity-00723","bgd-v162-b-008-entity-00724","bgd-v162-b-008-entity-00725","bgd-v162-b-008-entity-00726","bgd-v162-b-008-entity-00727","bgd-v162-b-008-entity-00728","bgd-v162-b-008-entity-00729","bgd-v162-b-008-entity-00730","bgd-v162-b-008-entity-00731","bgd-v162-b-008-entity-00732","bgd-v162-b-008-entity-00733","bgd-v162-b-008-entity-00734","bgd-v162-b-008-entity-00735","bgd-v162-b-008-entity-00736","bgd-v162-b-008-entity-00737","bgd-v162-b-008-entity-00738","bgd-v162-b-008-entity-00739","bgd-v162-b-008-entity-00740","bgd-v162-b-008-entity-00741","bgd-v162-b-008-entity-00742","bgd-v162-b-008-entity-00743","bgd-v162-b-008-entity-00744","bgd-v162-b-008-entity-00745","bgd-v162-b-008-entity-00746","bgd-v162-b-008-entity-00747","bgd-v162-b-008-entity-00748","bgd-v162-b-008-entity-00749","bgd-v162-b-008-entity-00750","bgd-v162-b-008-entity-00751","bgd-v162-b-008-entity-00752","bgd-v162-b-008-entity-00753","bgd-v162-b-008-entity-00754","bgd-v162-b-008-entity-00755","bgd-v162-b-008-entity-00756","bgd-v162-b-008-entity-00757","bgd-v162-b-008-entity-00758","bgd-v162-b-008-entity-00759","bgd-v162-b-008-entity-00760","bgd-v162-b-008-entity-00761","bgd-v162-b-008-entity-00762","bgd-v162-b-008-entity-00763","bgd-v162-b-008-entity-00764","bgd-v162-b-008-entity-00765","bgd-v162-b-008-entity-00766","bgd-v162-b-008-entity-00767","bgd-v162-b-008-entity-00768","bgd-v162-b-008-entity-00769","bgd-v162-b-008-entity-00770","bgd-v162-b-008-entity-00771","bgd-v162-b-008-entity-00772","bgd-v162-b-008-entity-00773","bgd-v162-b-008-entity-00774","bgd-v162-b-008-entity-00775","bgd-v162-b-008-entity-00776","bgd-v162-b-008-entity-00777","bgd-v162-b-008-entity-00778","bgd-v162-b-008-entity-00779","bgd-v162-b-008-entity-00780","bgd-v162-b-008-entity-00781","bgd-v162-b-008-entity-00782","bgd-v162-b-008-entity-00783","bgd-v162-b-008-entity-00784","bgd-v162-b-008-entity-00785","bgd-v162-b-008-entity-00786","bgd-v162-b-008-entity-00787","bgd-v162-b-008-entity-00788","bgd-v162-b-008-entity-00789","bgd-v162-b-008-entity-00790","bgd-v162-b-008-entity-00791","bgd-v162-b-008-entity-00792","bgd-v162-b-008-entity-00793","bgd-v162-b-008-entity-00794","bgd-v162-b-008-entity-00795","bgd-v162-b-008-entity-00796","bgd-v162-b-008-entity-00797","bgd-v162-b-008-entity-00798","bgd-v162-b-008-entity-00799","bgd-v162-b-008-entity-00800","bgd-v162-b-008-entity-00801","bgd-v162-b-008-entity-00802","bgd-v162-b-008-entity-00803","bgd-v162-b-008-entity-00804","bgd-v162-b-008-entity-00805","bgd-v162-b-008-entity-00806","bgd-v162-b-008-entity-00807","bgd-v162-b-008-entity-00808","bgd-v162-b-008-entity-00809","bgd-v162-b-008-entity-00810","bgd-v162-b-008-entity-00811","bgd-v162-b-008-entity-00812","bgd-v162-b-008-entity-00813","bgd-v162-b-008-entity-00814","bgd-v162-b-008-entity-00815","bgd-v162-b-008-entity-00816","bgd-v162-b-008-entity-00817","bgd-v162-b-008-entity-00818","bgd-v162-b-008-entity-00819","bgd-v162-b-008-entity-00820","bgd-v162-b-008-entity-00821","bgd-v162-b-008-entity-00822","bgd-v162-b-008-entity-00823","bgd-v162-b-008-entity-00824","bgd-v162-b-008-entity-00825","bgd-v162-b-008-entity-00826","bgd-v162-b-008-entity-00827","bgd-v162-b-008-entity-00828","bgd-v162-b-008-entity-00829","bgd-v162-b-008-entity-00830","bgd-v162-b-008-entity-00831","bgd-v162-b-008-entity-00832","bgd-v162-b-008-entity-00833","bgd-v162-b-008-entity-00834","bgd-v162-b-008-entity-00835","bgd-v162-b-008-entity-00836","bgd-v162-b-008-entity-00837","bgd-v162-b-008-entity-00838","bgd-v162-b-008-entity-00839","bgd-v162-b-008-entity-00840","bgd-v162-b-008-entity-00841","bgd-v162-b-008-entity-00842","bgd-v162-b-008-entity-00843","bgd-v162-b-008-entity-00844","bgd-v162-b-008-entity-00845","bgd-v162-b-008-entity-00846","bgd-v162-b-008-entity-00847","bgd-v162-b-008-entity-00848","bgd-v162-b-008-entity-00849","bgd-v162-b-008-entity-00850","bgd-v162-b-008-entity-00851","bgd-v162-b-008-entity-00852","bgd-v162-b-008-entity-00853","bgd-v162-b-008-entity-00854","bgd-v162-b-008-entity-00855","bgd-v162-b-008-entity-00856","bgd-v162-b-008-entity-00857","bgd-v162-b-008-entity-00858","bgd-v162-b-008-entity-00859","bgd-v162-b-008-entity-00860","bgd-v162-b-008-entity-00861","bgd-v162-b-008-entity-00862","bgd-v162-b-008-entity-00863","bgd-v162-b-008-entity-00864","bgd-v162-b-008-entity-00865","bgd-v162-b-008-entity-00866","bgd-v162-b-008-entity-00867","bgd-v162-b-008-entity-00868","bgd-v162-b-008-entity-00869","bgd-v162-b-008-entity-00870","bgd-v162-b-008-entity-00871","bgd-v162-b-008-entity-00872","bgd-v162-b-008-entity-00873","bgd-v162-b-008-entity-00874","bgd-v162-b-008-entity-00875","bgd-v162-b-008-entity-00876","bgd-v162-b-008-entity-00877","bgd-v162-b-008-entity-00878","bgd-v162-b-008-entity-00879","bgd-v162-b-008-entity-00880","bgd-v162-b-008-entity-00881","bgd-v162-b-008-entity-00882","bgd-v162-b-008-entity-00883","bgd-v162-b-008-entity-00884","bgd-v162-b-008-entity-00885","bgd-v162-b-008-entity-00886","bgd-v162-b-008-entity-00887","bgd-v162-b-008-entity-00888","bgd-v162-b-008-entity-00889","bgd-v162-b-008-entity-00890","bgd-v162-b-008-entity-00891","bgd-v162-b-008-entity-00892","bgd-v162-b-008-entity-00893","bgd-v162-b-008-entity-00894","bgd-v162-b-008-entity-00895","bgd-v162-b-008-entity-00896","bgd-v162-b-008-entity-00897","bgd-v162-b-008-entity-00898","bgd-v162-b-008-entity-00899","bgd-v162-b-008-entity-00900","bgd-v162-b-008-entity-00901","bgd-v162-b-008-entity-00902","bgd-v162-b-008-entity-00903","bgd-v162-b-008-entity-00904","bgd-v162-b-008-entity-00905","bgd-v162-b-008-entity-00906","bgd-v162-b-008-entity-00907","bgd-v162-b-008-entity-00908","bgd-v162-b-008-entity-00909","bgd-v162-b-008-entity-00910","bgd-v162-b-008-entity-00911","bgd-v162-b-008-entity-00912","bgd-v162-b-008-entity-00913","bgd-v162-b-008-entity-00914","bgd-v162-b-008-entity-00915","bgd-v162-b-008-entity-00916","bgd-v162-b-008-entity-00917","bgd-v162-b-008-entity-00918","bgd-v162-b-008-entity-00919","bgd-v162-b-008-entity-00920","bgd-v162-b-008-entity-00921","bgd-v162-b-008-entity-00922","bgd-v162-b-008-entity-00923","bgd-v162-b-008-entity-00924","bgd-v162-b-008-entity-00925","bgd-v162-b-008-entity-00926","bgd-v162-b-008-entity-00927","bgd-v162-b-008-entity-00928","bgd-v162-b-008-entity-00929","bgd-v162-b-008-entity-00930","bgd-v162-b-008-entity-00931","bgd-v162-b-008-entity-00932","bgd-v162-b-008-entity-00933","bgd-v162-b-008-entity-00934","bgd-v162-b-008-entity-00935","bgd-v162-b-008-entity-00936","bgd-v162-b-008-entity-00937","bgd-v162-b-008-entity-00938","bgd-v162-b-008-entity-00939","bgd-v162-b-008-entity-00940","bgd-v162-b-008-entity-00941","bgd-v162-b-008-entity-00942","bgd-v162-b-008-entity-00943","bgd-v162-b-008-entity-00944","bgd-v162-b-008-entity-00945"],"rowCount":315,"division":"쿨나 관구(Khulna Division)","coordinateSource":"PSMSL 관측소 원장"},"geometry":{"type":"Point","coordinates":[89.466667,21.783333]}},{"type":"Feature","id":"b-008-03c522e58d","properties":{"elementId":"B-008","featureId":"b-008-03c522e58d","name":"KHEPUPARA","sourceYear":"2100","recordIds":["bgd-v162-b-008-entity-00946","bgd-v162-b-008-entity-00947","bgd-v162-b-008-entity-00948","bgd-v162-b-008-entity-00949","bgd-v162-b-008-entity-00950","bgd-v162-b-008-entity-00951","bgd-v162-b-008-entity-00952","bgd-v162-b-008-entity-00953","bgd-v162-b-008-entity-00954","bgd-v162-b-008-entity-00955","bgd-v162-b-008-entity-00956","bgd-v162-b-008-entity-00957","bgd-v162-b-008-entity-00958","bgd-v162-b-008-entity-00959","bgd-v162-b-008-entity-00960","bgd-v162-b-008-entity-00961","bgd-v162-b-008-entity-00962","bgd-v162-b-008-entity-00963","bgd-v162-b-008-entity-00964","bgd-v162-b-008-entity-00965","bgd-v162-b-008-entity-00966","bgd-v162-b-008-entity-00967","bgd-v162-b-008-entity-00968","bgd-v162-b-008-entity-00969","bgd-v162-b-008-entity-00970","bgd-v162-b-008-entity-00971","bgd-v162-b-008-entity-00972","bgd-v162-b-008-entity-00973","bgd-v162-b-008-entity-00974","bgd-v162-b-008-entity-00975","bgd-v162-b-008-entity-00976","bgd-v162-b-008-entity-00977","bgd-v162-b-008-entity-00978","bgd-v162-b-008-entity-00979","bgd-v162-b-008-entity-00980","bgd-v162-b-008-entity-00981","bgd-v162-b-008-entity-00982","bgd-v162-b-008-entity-00983","bgd-v162-b-008-entity-00984","bgd-v162-b-008-entity-00985","bgd-v162-b-008-entity-00986","bgd-v162-b-008-entity-00987","bgd-v162-b-008-entity-00988","bgd-v162-b-008-entity-00989","bgd-v162-b-008-entity-00990","bgd-v162-b-008-entity-00991","bgd-v162-b-008-entity-00992","bgd-v162-b-008-entity-00993","bgd-v162-b-008-entity-00994","bgd-v162-b-008-entity-00995","bgd-v162-b-008-entity-00996","bgd-v162-b-008-entity-00997","bgd-v162-b-008-entity-00998","bgd-v162-b-008-entity-00999","bgd-v162-b-008-entity-01000","bgd-v162-b-008-entity-01001","bgd-v162-b-008-entity-01002","bgd-v162-b-008-entity-01003","bgd-v162-b-008-entity-01004","bgd-v162-b-008-entity-01005","bgd-v162-b-008-entity-01006","bgd-v162-b-008-entity-01007","bgd-v162-b-008-entity-01008","bgd-v162-b-008-entity-01009","bgd-v162-b-008-entity-01010","bgd-v162-b-008-entity-01011","bgd-v162-b-008-entity-01012","bgd-v162-b-008-entity-01013","bgd-v162-b-008-entity-01014","bgd-v162-b-008-entity-01015","bgd-v162-b-008-entity-01016","bgd-v162-b-008-entity-01017","bgd-v162-b-008-entity-01018","bgd-v162-b-008-entity-01019","bgd-v162-b-008-entity-01020","bgd-v162-b-008-entity-01021","bgd-v162-b-008-entity-01022","bgd-v162-b-008-entity-01023","bgd-v162-b-008-entity-01024","bgd-v162-b-008-entity-01025","bgd-v162-b-008-entity-01026","bgd-v162-b-008-entity-01027","bgd-v162-b-008-entity-01028","bgd-v162-b-008-entity-01029","bgd-v162-b-008-entity-01030","bgd-v162-b-008-entity-01031","bgd-v162-b-008-entity-01032","bgd-v162-b-008-entity-01033","bgd-v162-b-008-entity-01034","bgd-v162-b-008-entity-01035","bgd-v162-b-008-entity-01036","bgd-v162-b-008-entity-01037","bgd-v162-b-008-entity-01038","bgd-v162-b-008-entity-01039","bgd-v162-b-008-entity-01040","bgd-v162-b-008-entity-01041","bgd-v162-b-008-entity-01042","bgd-v162-b-008-entity-01043","bgd-v162-b-008-entity-01044","bgd-v162-b-008-entity-01045","bgd-v162-b-008-entity-01046","bgd-v162-b-008-entity-01047","bgd-v162-b-008-entity-01048","bgd-v162-b-008-entity-01049","bgd-v162-b-008-entity-01050","bgd-v162-b-008-entity-01051","bgd-v162-b-008-entity-01052","bgd-v162-b-008-entity-01053","bgd-v162-b-008-entity-01054","bgd-v162-b-008-entity-01055","bgd-v162-b-008-entity-01056","bgd-v162-b-008-entity-01057","bgd-v162-b-008-entity-01058","bgd-v162-b-008-entity-01059","bgd-v162-b-008-entity-01060","bgd-v162-b-008-entity-01061","bgd-v162-b-008-entity-01062","bgd-v162-b-008-entity-01063","bgd-v162-b-008-entity-01064","bgd-v162-b-008-entity-01065","bgd-v162-b-008-entity-01066","bgd-v162-b-008-entity-01067","bgd-v162-b-008-entity-01068","bgd-v162-b-008-entity-01069","bgd-v162-b-008-entity-01070","bgd-v162-b-008-entity-01071","bgd-v162-b-008-entity-01072","bgd-v162-b-008-entity-01073","bgd-v162-b-008-entity-01074","bgd-v162-b-008-entity-01075","bgd-v162-b-008-entity-01076","bgd-v162-b-008-entity-01077","bgd-v162-b-008-entity-01078","bgd-v162-b-008-entity-01079","bgd-v162-b-008-entity-01080","bgd-v162-b-008-entity-01081","bgd-v162-b-008-entity-01082","bgd-v162-b-008-entity-01083","bgd-v162-b-008-entity-01084","bgd-v162-b-008-entity-01085","bgd-v162-b-008-entity-01086","bgd-v162-b-008-entity-01087","bgd-v162-b-008-entity-01088","bgd-v162-b-008-entity-01089","bgd-v162-b-008-entity-01090","bgd-v162-b-008-entity-01091","bgd-v162-b-008-entity-01092","bgd-v162-b-008-entity-01093","bgd-v162-b-008-entity-01094","bgd-v162-b-008-entity-01095","bgd-v162-b-008-entity-01096","bgd-v162-b-008-entity-01097","bgd-v162-b-008-entity-01098","bgd-v162-b-008-entity-01099","bgd-v162-b-008-entity-01100","bgd-v162-b-008-entity-01101","bgd-v162-b-008-entity-01102","bgd-v162-b-008-entity-01103","bgd-v162-b-008-entity-01104","bgd-v162-b-008-entity-01105","bgd-v162-b-008-entity-01106","bgd-v162-b-008-entity-01107","bgd-v162-b-008-entity-01108","bgd-v162-b-008-entity-01109","bgd-v162-b-008-entity-01110","bgd-v162-b-008-entity-01111","bgd-v162-b-008-entity-01112","bgd-v162-b-008-entity-01113","bgd-v162-b-008-entity-01114","bgd-v162-b-008-entity-01115","bgd-v162-b-008-entity-01116","bgd-v162-b-008-entity-01117","bgd-v162-b-008-entity-01118","bgd-v162-b-008-entity-01119","bgd-v162-b-008-entity-01120","bgd-v162-b-008-entity-01121","bgd-v162-b-008-entity-01122","bgd-v162-b-008-entity-01123","bgd-v162-b-008-entity-01124","bgd-v162-b-008-entity-01125","bgd-v162-b-008-entity-01126","bgd-v162-b-008-entity-01127","bgd-v162-b-008-entity-01128","bgd-v162-b-008-entity-01129","bgd-v162-b-008-entity-01130","bgd-v162-b-008-entity-01131","bgd-v162-b-008-entity-01132","bgd-v162-b-008-entity-01133","bgd-v162-b-008-entity-01134","bgd-v162-b-008-entity-01135","bgd-v162-b-008-entity-01136","bgd-v162-b-008-entity-01137","bgd-v162-b-008-entity-01138","bgd-v162-b-008-entity-01139","bgd-v162-b-008-entity-01140","bgd-v162-b-008-entity-01141","bgd-v162-b-008-entity-01142","bgd-v162-b-008-entity-01143","bgd-v162-b-008-entity-01144","bgd-v162-b-008-entity-01145","bgd-v162-b-008-entity-01146","bgd-v162-b-008-entity-01147","bgd-v162-b-008-entity-01148","bgd-v162-b-008-entity-01149","bgd-v162-b-008-entity-01150","bgd-v162-b-008-entity-01151","bgd-v162-b-008-entity-01152","bgd-v162-b-008-entity-01153","bgd-v162-b-008-entity-01154","bgd-v162-b-008-entity-01155","bgd-v162-b-008-entity-01156","bgd-v162-b-008-entity-01157","bgd-v162-b-008-entity-01158","bgd-v162-b-008-entity-01159","bgd-v162-b-008-entity-01160","bgd-v162-b-008-entity-01161","bgd-v162-b-008-entity-01162","bgd-v162-b-008-entity-01163","bgd-v162-b-008-entity-01164","bgd-v162-b-008-entity-01165","bgd-v162-b-008-entity-01166","bgd-v162-b-008-entity-01167","bgd-v162-b-008-entity-01168","bgd-v162-b-008-entity-01169","bgd-v162-b-008-entity-01170","bgd-v162-b-008-entity-01171","bgd-v162-b-008-entity-01172","bgd-v162-b-008-entity-01173","bgd-v162-b-008-entity-01174","bgd-v162-b-008-entity-01175","bgd-v162-b-008-entity-01176","bgd-v162-b-008-entity-01177","bgd-v162-b-008-entity-01178","bgd-v162-b-008-entity-01179","bgd-v162-b-008-entity-01180","bgd-v162-b-008-entity-01181","bgd-v162-b-008-entity-01182","bgd-v162-b-008-entity-01183","bgd-v162-b-008-entity-01184","bgd-v162-b-008-entity-01185","bgd-v162-b-008-entity-01186","bgd-v162-b-008-entity-01187","bgd-v162-b-008-entity-01188","bgd-v162-b-008-entity-01189","bgd-v162-b-008-entity-01190","bgd-v162-b-008-entity-01191","bgd-v162-b-008-entity-01192","bgd-v162-b-008-entity-01193","bgd-v162-b-008-entity-01194","bgd-v162-b-008-entity-01195","bgd-v162-b-008-entity-01196","bgd-v162-b-008-entity-01197","bgd-v162-b-008-entity-01198","bgd-v162-b-008-entity-01199","bgd-v162-b-008-entity-01200","bgd-v162-b-008-entity-01201","bgd-v162-b-008-entity-01202","bgd-v162-b-008-entity-01203","bgd-v162-b-008-entity-01204","bgd-v162-b-008-entity-01205","bgd-v162-b-008-entity-01206","bgd-v162-b-008-entity-01207","bgd-v162-b-008-entity-01208","bgd-v162-b-008-entity-01209","bgd-v162-b-008-entity-01210","bgd-v162-b-008-entity-01211","bgd-v162-b-008-entity-01212","bgd-v162-b-008-entity-01213","bgd-v162-b-008-entity-01214","bgd-v162-b-008-entity-01215","bgd-v162-b-008-entity-01216","bgd-v162-b-008-entity-01217","bgd-v162-b-008-entity-01218","bgd-v162-b-008-entity-01219","bgd-v162-b-008-entity-01220","bgd-v162-b-008-entity-01221","bgd-v162-b-008-entity-01222","bgd-v162-b-008-entity-01223","bgd-v162-b-008-entity-01224","bgd-v162-b-008-entity-01225","bgd-v162-b-008-entity-01226","bgd-v162-b-008-entity-01227","bgd-v162-b-008-entity-01228","bgd-v162-b-008-entity-01229","bgd-v162-b-008-entity-01230","bgd-v162-b-008-entity-01231","bgd-v162-b-008-entity-01232","bgd-v162-b-008-entity-01233","bgd-v162-b-008-entity-01234","bgd-v162-b-008-entity-01235","bgd-v162-b-008-entity-01236","bgd-v162-b-008-entity-01237","bgd-v162-b-008-entity-01238","bgd-v162-b-008-entity-01239","bgd-v162-b-008-entity-01240","bgd-v162-b-008-entity-01241","bgd-v162-b-008-entity-01242","bgd-v162-b-008-entity-01243","bgd-v162-b-008-entity-01244","bgd-v162-b-008-entity-01245","bgd-v162-b-008-entity-01246","bgd-v162-b-008-entity-01247","bgd-v162-b-008-entity-01248","bgd-v162-b-008-entity-01249","bgd-v162-b-008-entity-01250","bgd-v162-b-008-entity-01251","bgd-v162-b-008-entity-01252","bgd-v162-b-008-entity-01253","bgd-v162-b-008-entity-01254","bgd-v162-b-008-entity-01255","bgd-v162-b-008-entity-01256","bgd-v162-b-008-entity-01257","bgd-v162-b-008-entity-01258","bgd-v162-b-008-entity-01259","bgd-v162-b-008-entity-01260"],"rowCount":315,"division":"쿨나 관구(Khulna Division)","coordinateSource":"PSMSL 관측소 원장"},"geometry":{"type":"Point","coordinates":[89.833333,21.833333]}}]}
