{"type":"FeatureCollection","name":"bgd-b-012","bbox":[89.05,21.544,92.306,25.26],"metadata":{"schemaVersion":"country-points-v162","countryIso3":"BGD","elementId":"B-012","featureCount":14,"sourceRowCount":14,"grouping":"rows with the same coordinate and name are one feature (recordIds, rowCount)","outlineBufferDeg":0.05},"features":[{"type":"Feature","id":"b-012-379a07a476","properties":{"elementId":"B-012","featureId":"b-012-379a07a476","name":"1988-0079-BGD","kind":"k-9019f4","kindLabel":"지진","sourceYear":"2024","recordIds":["bgd-v162-b-012-entity-00111"],"rowCount":1,"startDate":"1988-02-06","disasterSubtype":"Ground movement","deaths":2,"affectedPeople":100,"endDate":"1988-02-06","affectedRegions":"Syhlet","coordinateBasis":"EM-DAT 원본 좌표"},"geometry":{"type":"Point","coordinates":[91.57,24.688]}},{"type":"Feature","id":"b-012-73dd286b04","properties":{"elementId":"B-012","featureId":"b-012-73dd286b04","name":"1989-0071-BGD","kind":"k-9019f4","kindLabel":"지진","sourceYear":"2024","recordIds":["bgd-v162-b-012-entity-00119"],"rowCount":1,"startDate":"1989-06-12","disasterSubtype":"Ground movement","deaths":1,"affectedPeople":100,"endDate":"1989-06-12","affectedRegions":"Banaripara area","coordinateBasis":"EM-DAT 원본 좌표"},"geometry":{"type":"Point","coordinates":[89.763,21.861]}},{"type":"Feature","id":"b-012-11b014ed3c","properties":{"elementId":"B-012","featureId":"b-012-11b014ed3c","name":"1999-0228-BGD","kind":"k-9019f4","kindLabel":"지진","sourceYear":"2024","recordIds":["bgd-v162-b-012-entity-00209"],"rowCount":1,"startDate":"1999-07-22","disasterSubtype":"Ground movement","deaths":6,"affectedPeople":15200,"endDate":"1999-07-22","affectedRegions":"Maheshkhali Isl. Level 1 = Chittagong Div","coordinateBasis":"EM-DAT 원본 좌표"},"geometry":{"type":"Point","coordinates":[91.895,21.544]}},{"type":"Feature","id":"b-012-e99963d7eb","properties":{"elementId":"B-012","featureId":"b-012-e99963d7eb","name":"2003-0452-BGD","kind":"k-9019f4","kindLabel":"지진","sourceYear":"2024","recordIds":["bgd-v162-b-012-entity-00250"],"rowCount":1,"startDate":"2003-07-26","disasterSubtype":"Ground movement","deaths":2,"affectedPeople":2525,"endDate":"2003-07-26","affectedRegions":"Chittagong, Cox's Bazar, Rangamati districts (Chittagong province)","coordinateBasis":"EM-DAT 원본 좌표"},"geometry":{"type":"Point","coordinates":[92.306,22.854]}},{"type":"Feature","id":"b-012-743628ca0e","properties":{"elementId":"B-012","featureId":"b-012-743628ca0e","name":"2006-0502-BGD","kind":"k-123ee6","kindLabel":"홍수","sourceYear":"2024","recordIds":["bgd-v162-b-012-entity-00277"],"rowCount":1,"startDate":"2006-08-24","disasterSubtype":"Riverine flood","affectedPeople":135775,"endDate":"2006-09-20","affectedRegions":"Jessore, Khulna, Satkhira districts (Khulna province)","coordinateBasis":"EM-DAT 원본 좌표"},"geometry":{"type":"Point","coordinates":[89.27,23.23]}},{"type":"Feature","id":"b-012-ca96a2adf9","properties":{"elementId":"B-012","featureId":"b-012-ca96a2adf9","name":"2007-0161-BGD","kind":"k-123ee6","kindLabel":"홍수","sourceYear":"2024","recordIds":["bgd-v162-b-012-entity-00283"],"rowCount":1,"startDate":"2007-06-11","disasterSubtype":"Riverine flood","deaths":120,"affectedPeople":80060,"damageUsd2024":21181,"endDate":"2007-06-12","affectedRegions":"Chittagong district (Chittagong province)","coordinateBasis":"EM-DAT 원본 좌표"},"geometry":{"type":"Point","coordinates":[91.95,22.4]}},{"type":"Feature","id":"b-012-6c87dfb711","properties":{"elementId":"B-012","featureId":"b-012-6c87dfb711","name":"2007-0311-BGD","kind":"k-123ee6","kindLabel":"홍수","sourceYear":"2024","recordIds":["bgd-v162-b-012-entity-00285"],"rowCount":1,"startDate":"2007-07-21","disasterSubtype":"Riverine flood","deaths":1110,"affectedPeople":13771380,"damageUsd2024":151290,"endDate":"2007-08-03","affectedRegions":"Goalanda village (Goalandaghat area, Rajbari district, Dhaka province), Aricha port (Shibalaya area, Manikganj district, Dhaka province), Bhagyakul village (Sreenagar area, Munshiganj district, Dhaka province), Bandarban, Feni, Comilla districts (Chittagong province), Sirajganj district (Rajshahi province), Rangpur province","coordinateBasis":"EM-DAT 원본 좌표"},"geometry":{"type":"Point","coordinates":[91.23,23.92]}},{"type":"Feature","id":"b-012-117a3a5125","properties":{"elementId":"B-012","featureId":"b-012-117a3a5125","name":"2007-0556-BGD","kind":"k-822ed0","kindLabel":"폭풍·태풍","sourceYear":"2024","recordIds":["bgd-v162-b-012-entity-00288"],"rowCount":1,"startDate":"2007-11-15","disasterSubtype":"Tropical cyclone","deaths":4234,"affectedPeople":8978541,"damageUsd2024":3479676,"endDate":"2007-11-19","affectedRegions":"Bagerhat, Khulna, Satkhira districts (Khulna province), Patuakhali, Barguna, Pirojpur, Barisal, Jhalokati, Bhola districts (Barisal province), Madaripur, Gopalganj, Shariatpur districts (Dhaka province)","coordinateBasis":"EM-DAT 원본 좌표"},"geometry":{"type":"Point","coordinates":[90.15,22.61]}},{"type":"Feature","id":"b-012-e0f234066f","properties":{"elementId":"B-012","featureId":"b-012-e0f234066f","name":"2009-0294-BGD","kind":"k-123ee6","kindLabel":"홍수","sourceYear":"2024","recordIds":["bgd-v162-b-012-entity-00296"],"rowCount":1,"startDate":"2009-07-03","disasterSubtype":"Riverine flood","deaths":6,"affectedPeople":500000,"endDate":"2009-07-06","affectedRegions":"Habiganj district (Sylhet province)","coordinateBasis":"EM-DAT 원본 좌표"},"geometry":{"type":"Point","coordinates":[89.09,25.26]}},{"type":"Feature","id":"b-012-771024d608","properties":{"elementId":"B-012","featureId":"b-012-771024d608","name":"2010-0676-BGD","kind":"k-123ee6","kindLabel":"홍수","sourceYear":"2024","recordIds":["bgd-v162-b-012-entity-00304"],"rowCount":1,"startDate":"2010-10-01","disasterSubtype":"Riverine flood","deaths":15,"affectedPeople":500000,"endDate":"2010-10-12","affectedRegions":"Chittagong, Cox's Bazar, Feni, Lakshmipur, Noakhali districts (Chittagong province), Bagerhat, Khulna, Satkhira districts (Khulna province), Barisal province","coordinateBasis":"EM-DAT 원본 좌표"},"geometry":{"type":"Point","coordinates":[91.03,24.21]}},{"type":"Feature","id":"b-012-bdeb452d5b","properties":{"elementId":"B-012","featureId":"b-012-bdeb452d5b","name":"2011-0262-BGD","kind":"k-123ee6","kindLabel":"홍수","sourceYear":"2024","recordIds":["bgd-v162-b-012-entity-00307"],"rowCount":1,"startDate":"2011-07-21","disasterSubtype":"Flash flood","deaths":10,"affectedPeople":1570559,"endDate":"2011-07-29","affectedRegions":"Cox's Bazar, Chittagong, Bandarban districts (Chittagong province), Satkhira, Jessore, Narail, Bagerhat, Chuadanga, Kushtia districts (Khulna province), Bogra, Sirajganj, Pabna, Naogaon districts (Rajshahi province), Lalmonirhat, Thakurgaon, Kurigram, Gaibandha districts (Rangpur province), Sherpur, Netrakona, Rajbari, Manikganj districts (Dhaka province)","coordinateBasis":"EM-DAT 원본 좌표"},"geometry":{"type":"Point","coordinates":[89.05,22.564]}},{"type":"Feature","id":"b-012-75fc9c6211","properties":{"elementId":"B-012","featureId":"b-012-75fc9c6211","name":"2012-0175-BGD","kind":"k-123ee6","kindLabel":"홍수","sourceYear":"2024","recordIds":["bgd-v162-b-012-entity-00312"],"rowCount":1,"startDate":"2012-06-24","disasterSubtype":"Riverine flood","deaths":139,"affectedPeople":5148475,"endDate":"2012-07-02","affectedRegions":"Chittagong, Bandarban, Cox's Bazar districts (Chittagong province), Sylhet district (Sylhet province)","coordinateBasis":"EM-DAT 원본 좌표"},"geometry":{"type":"Point","coordinates":[92.1,22.172]}},{"type":"Feature","id":"b-012-66755314b3","properties":{"elementId":"B-012","featureId":"b-012-66755314b3","name":"2016-0288-BGD","kind":"k-123ee6","kindLabel":"홍수","sourceYear":"2024","recordIds":["bgd-v162-b-012-entity-00334"],"rowCount":1,"startDate":"2016-07-19","disasterSubtype":"Riverine flood","deaths":106,"affectedPeople":1900000,"damageUsd2024":196050,"endDate":"2016-08-02","affectedRegions":"Kurigram, Bogra, Sirajganj, Gaibandha, Tangail, Jamalpur, Nilphamari, Lalmonirhat, Sunamganj, Faridpur, Kustia,Madaripur, Manikganj, Rajbari, Rangpur, Sariatpur districts","coordinateBasis":"EM-DAT 원본 좌표"},"geometry":{"type":"Point","coordinates":[90.04,24.095]}},{"type":"Feature","id":"b-012-d44eb4f006","properties":{"elementId":"B-012","featureId":"b-012-d44eb4f006","name":"2018-0158-BGD","kind":"k-123ee6","kindLabel":"홍수","sourceYear":"2024","recordIds":["bgd-v162-b-012-entity-00343"],"rowCount":1,"startDate":"2018-05-20","disasterSubtype":"Flood (General)","deaths":21,"affectedPeople":14000,"endDate":"2018-05-22","coordinateBasis":"EM-DAT 원본 좌표"},"geometry":{"type":"Point","coordinates":[92.13,23.226]}}]}
