{"type":"FeatureCollection","name":"bgd-b-028","bbox":[89.025,21.675,92.025,25.025],"metadata":{"schemaVersion":"country-points-v162","countryIso3":"BGD","elementId":"B-028","featureCount":61,"sourceRowCount":61,"grouping":"rows with the same coordinate and name are one feature (recordIds, rowCount)","outlineBufferDeg":0.05},"features":[{"type":"Feature","id":"b-028-93e231f086","properties":{"elementId":"B-028","featureId":"b-028-93e231f086","name":"Bahadurabad (Brahmaputra (Jamuna) River)","kind":"river-station","kindLabel":"관측소 인근 하천 격자점","sourceYear":"2024","recordIds":["bgd-v162-b-028-entity-00067"],"rowCount":1,"indicator":"하천 유량 — m³/s 기준 — 브라마푸트라(자무나)강(Bahadurabad) 1997–2024 연평균 [GloFAS v4 재해석 모델값]","value":20846.5,"valueUnit":"m³/s","valueNature":"모델(GloFAS 재분석)","division":"Mymensingh(Jamalpur)"},"geometry":{"type":"Point","coordinates":[89.675,25.025]}},{"type":"Feature","id":"b-028-064216ddf7","properties":{"elementId":"B-028","featureId":"b-028-064216ddf7","name":"Bhairab Bazar (Meghna River)","kind":"river-station","kindLabel":"관측소 인근 하천 격자점","sourceYear":"2024","recordIds":["bgd-v162-b-028-entity-00069"],"rowCount":1,"indicator":"하천 유량 — m³/s 기준 — 메그나강(Bhairab Bazar) 1997–2024 연평균 [GloFAS v4 재해석 모델값]","value":3851.6,"valueUnit":"m³/s","valueNature":"모델(GloFAS 재분석)","division":"Dhaka(Kishoreganj)"},"geometry":{"type":"Point","coordinates":[90.875,23.925]}},{"type":"Feature","id":"b-028-dab7007b69","properties":{"elementId":"B-028","featureId":"b-028-dab7007b69","name":"Hardinge Bridge (Ganges (Padma) River)","kind":"river-station","kindLabel":"관측소 인근 하천 격자점","sourceYear":"2024","recordIds":["bgd-v162-b-028-entity-00068"],"rowCount":1,"indicator":"하천 유량 — m³/s 기준 — 갠지스(파드마)강(Hardinge Bridge) 1997–2024 연평균 [GloFAS v4 재해석 모델값]","value":12255,"valueUnit":"m³/s","valueNature":"모델(GloFAS 재분석)","division":"Rajshahi(Pabna)·Khulna(Kushtia) 경계"},"geometry":{"type":"Point","coordinates":[89.225,23.925]}},{"type":"Feature","id":"b-028-59c68b6c82","properties":{"elementId":"B-028","featureId":"b-028-59c68b6c82","name":"HydroBASINS MAIN_BAS 4080025050","kind":"basin-outlet","kindLabel":"유역 출구 격자점","sourceYear":"2024","recordIds":["bgd-v162-b-028-entity-00005"],"rowCount":1,"indicator":"하천 유량 — m³/s 기준 — 유역 출구 1997–2024 연평균 [GloFAS v4 격자 집계]","value":76.5,"valueUnit":"m³/s","valueNature":"모델(GloFAS 재분석)","division":"Chittagong"},"geometry":{"type":"Point","coordinates":[91.975,21.675]}},{"type":"Feature","id":"b-028-daaefe4905","properties":{"elementId":"B-028","featureId":"b-028-daaefe4905","name":"HydroBASINS MAIN_BAS 4080025190","kind":"basin-outlet","kindLabel":"유역 출구 격자점","sourceYear":"2024","recordIds":["bgd-v162-b-028-entity-00004"],"rowCount":1,"indicator":"하천 유량 — m³/s 기준 — 유역 출구 1997–2024 연평균 [GloFAS v4 격자 집계]","value":61.5,"valueUnit":"m³/s","valueNature":"모델(GloFAS 재분석)","division":"Chittagong"},"geometry":{"type":"Point","coordinates":[92.025,21.775]}},{"type":"Feature","id":"b-028-ec7b5dfa8f","properties":{"elementId":"B-028","featureId":"b-028-ec7b5dfa8f","name":"HydroBASINS MAIN_BAS 4080025200","kind":"basin-outlet","kindLabel":"유역 출구 격자점","sourceYear":"2024","recordIds":["bgd-v162-b-028-entity-00002"],"rowCount":1,"indicator":"하천 유량 — m³/s 기준 — 유역 출구 1997–2024 연평균 [GloFAS v4 격자 집계]","value":11.8,"valueUnit":"m³/s","valueNature":"모델(GloFAS 재분석)","division":"Chittagong"},"geometry":{"type":"Point","coordinates":[91.925,21.725]}},{"type":"Feature","id":"b-028-cf01f500a8","properties":{"elementId":"B-028","featureId":"b-028-cf01f500a8","name":"HydroBASINS MAIN_BAS 4080025220","kind":"basin-outlet","kindLabel":"유역 출구 격자점","sourceYear":"2024","recordIds":["bgd-v162-b-028-entity-00003"],"rowCount":1,"indicator":"하천 유량 — m³/s 기준 — 유역 출구 1997–2024 연평균 [GloFAS v4 격자 집계]","value":128.9,"valueUnit":"m³/s","valueNature":"모델(GloFAS 재분석)","division":"Chittagong"},"geometry":{"type":"Point","coordinates":[91.925,22.125]}},{"type":"Feature","id":"b-028-eeae1141dc","properties":{"elementId":"B-028","featureId":"b-028-eeae1141dc","name":"HydroBASINS MAIN_BAS 4080025230","kind":"basin-outlet","kindLabel":"유역 출구 격자점","sourceYear":"2024","recordIds":["bgd-v162-b-028-entity-00001"],"rowCount":1,"indicator":"하천 유량 — m³/s 기준 — 유역 출구 1997–2024 연평균 [GloFAS v4 격자 집계]","value":1.5,"valueUnit":"m³/s","valueNature":"모델(GloFAS 재분석)","division":"Chittagong"},"geometry":{"type":"Point","coordinates":[91.875,22.225]}},{"type":"Feature","id":"b-028-a953a8bb2a","properties":{"elementId":"B-028","featureId":"b-028-a953a8bb2a","name":"HydroBASINS MAIN_BAS 4080025260","kind":"basin-outlet","kindLabel":"유역 출구 격자점","sourceYear":"2024","recordIds":["bgd-v162-b-028-entity-00006"],"rowCount":1,"indicator":"하천 유량 — m³/s 기준 — 유역 출구 1997–2024 연평균 [GloFAS v4 격자 집계]","value":478.3,"valueUnit":"m³/s","valueNature":"모델(GloFAS 재분석)","division":"Chittagong"},"geometry":{"type":"Point","coordinates":[91.825,22.325]}},{"type":"Feature","id":"b-028-ba17179090","properties":{"elementId":"B-028","featureId":"b-028-ba17179090","name":"HydroBASINS MAIN_BAS 4080025270","kind":"basin-outlet","kindLabel":"유역 출구 격자점","sourceYear":"2024","recordIds":["bgd-v162-b-028-entity-00010"],"rowCount":1,"indicator":"하천 유량 — m³/s 기준 — 유역 출구 1997–2024 연평균 [GloFAS v4 격자 집계]","value":6.3,"valueUnit":"m³/s","valueNature":"모델(GloFAS 재분석)","division":"Chittagong"},"geometry":{"type":"Point","coordinates":[91.675,22.575]}},{"type":"Feature","id":"b-028-25649caf30","properties":{"elementId":"B-028","featureId":"b-028-25649caf30","name":"HydroBASINS MAIN_BAS 4080025290","kind":"basin-outlet","kindLabel":"유역 출구 격자점","sourceYear":"2024","recordIds":["bgd-v162-b-028-entity-00011"],"rowCount":1,"indicator":"하천 유량 — m³/s 기준 — 유역 출구 1997–2024 연평균 [GloFAS v4 격자 집계]","value":7,"valueUnit":"m³/s","valueNature":"모델(GloFAS 재분석)","division":"Chittagong"},"geometry":{"type":"Point","coordinates":[91.575,22.675]}},{"type":"Feature","id":"b-028-ab0c1f219a","properties":{"elementId":"B-028","featureId":"b-028-ab0c1f219a","name":"HydroBASINS MAIN_BAS 4080025300","kind":"basin-outlet","kindLabel":"유역 출구 격자점","sourceYear":"2024","recordIds":["bgd-v162-b-028-entity-00009"],"rowCount":1,"indicator":"하천 유량 — m³/s 기준 — 유역 출구 1997–2024 연평균 [GloFAS v4 격자 집계]","value":5,"valueUnit":"m³/s","valueNature":"모델(GloFAS 재분석)","division":"Chittagong"},"geometry":{"type":"Point","coordinates":[91.525,22.775]}},{"type":"Feature","id":"b-028-1fff6ab716","properties":{"elementId":"B-028","featureId":"b-028-1fff6ab716","name":"HydroBASINS MAIN_BAS 4080025310","kind":"basin-outlet","kindLabel":"유역 출구 격자점","sourceYear":"2024","recordIds":["bgd-v162-b-028-entity-00008"],"rowCount":1,"indicator":"하천 유량 — m³/s 기준 — 유역 출구 1997–2024 연평균 [GloFAS v4 격자 집계]","value":120.8,"valueUnit":"m³/s","valueNature":"모델(GloFAS 재분석)","division":"Chittagong"},"geometry":{"type":"Point","coordinates":[91.475,22.825]}},{"type":"Feature","id":"b-028-b48a4b5ede","properties":{"elementId":"B-028","featureId":"b-028-b48a4b5ede","name":"HydroBASINS MAIN_BAS 4080025320","kind":"basin-outlet","kindLabel":"유역 출구 격자점","sourceYear":"2024","recordIds":["bgd-v162-b-028-entity-00007"],"rowCount":1,"indicator":"하천 유량 — m³/s 기준 — 유역 출구 1997–2024 연평균 [GloFAS v4 격자 집계]","value":1,"valueUnit":"m³/s","valueNature":"모델(GloFAS 재분석)","division":"Chittagong"},"geometry":{"type":"Point","coordinates":[91.425,22.775]}},{"type":"Feature","id":"b-028-bed5bcd23e","properties":{"elementId":"B-028","featureId":"b-028-bed5bcd23e","name":"HydroBASINS MAIN_BAS 4080025330","kind":"basin-outlet","kindLabel":"유역 출구 격자점","sourceYear":"2024","recordIds":["bgd-v162-b-028-entity-00012"],"rowCount":1,"indicator":"하천 유량 — m³/s 기준 — 유역 출구 1997–2024 연평균 [GloFAS v4 격자 집계]","value":60.9,"valueUnit":"m³/s","valueNature":"모델(GloFAS 재분석)","division":"Chittagong"},"geometry":{"type":"Point","coordinates":[91.125,23.475]}},{"type":"Feature","id":"b-028-db5b662b9b","properties":{"elementId":"B-028","featureId":"b-028-db5b662b9b","name":"HydroBASINS MAIN_BAS 4080025340","kind":"basin-outlet","kindLabel":"유역 출구 격자점","sourceYear":"2024","recordIds":["bgd-v162-b-028-entity-00020"],"rowCount":1,"indicator":"하천 유량 — m³/s 기준 — 유역 출구 1997–2024 연평균 [GloFAS v4 격자 집계]","value":7.8,"valueUnit":"m³/s","valueNature":"모델(GloFAS 재분석)","division":"Chittagong"},"geometry":{"type":"Point","coordinates":[91.225,22.725]}},{"type":"Feature","id":"b-028-b8047f36dc","properties":{"elementId":"B-028","featureId":"b-028-b8047f36dc","name":"HydroBASINS MAIN_BAS 4080025370","kind":"basin-outlet","kindLabel":"유역 출구 격자점","sourceYear":"2024","recordIds":["bgd-v162-b-028-entity-00016"],"rowCount":1,"indicator":"하천 유량 — m³/s 기준 — 유역 출구 1997–2024 연평균 [GloFAS v4 격자 집계]","value":32.5,"valueUnit":"m³/s","valueNature":"모델(GloFAS 재분석)","division":"Chittagong"},"geometry":{"type":"Point","coordinates":[90.975,22.675]}},{"type":"Feature","id":"b-028-b9a802d5ac","properties":{"elementId":"B-028","featureId":"b-028-b9a802d5ac","name":"HydroBASINS MAIN_BAS 4080025380","kind":"basin-outlet","kindLabel":"유역 출구 격자점","sourceYear":"2024","recordIds":["bgd-v162-b-028-entity-00015"],"rowCount":1,"indicator":"하천 유량 — m³/s 기준 — 유역 출구 1997–2024 연평균 [GloFAS v4 격자 집계]","value":2.7,"valueUnit":"m³/s","valueNature":"모델(GloFAS 재분석)","division":"Chittagong"},"geometry":{"type":"Point","coordinates":[91.175,22.525]}},{"type":"Feature","id":"b-028-e0170fd5fe","properties":{"elementId":"B-028","featureId":"b-028-e0170fd5fe","name":"HydroBASINS MAIN_BAS 4080025390","kind":"basin-outlet","kindLabel":"유역 출구 격자점","sourceYear":"2024","recordIds":["bgd-v162-b-028-entity-00018"],"rowCount":1,"indicator":"하천 유량 — m³/s 기준 — 유역 출구 1997–2024 연평균 [GloFAS v4 격자 집계]","value":4.6,"valueUnit":"m³/s","valueNature":"모델(GloFAS 재분석)","division":"Chittagong"},"geometry":{"type":"Point","coordinates":[91.075,22.625]}},{"type":"Feature","id":"b-028-73ecf9517f","properties":{"elementId":"B-028","featureId":"b-028-73ecf9517f","name":"HydroBASINS MAIN_BAS 4080025400","kind":"basin-outlet","kindLabel":"유역 출구 격자점","sourceYear":"2024","recordIds":["bgd-v162-b-028-entity-00014"],"rowCount":1,"indicator":"하천 유량 — m³/s 기준 — 유역 출구 1997–2024 연평균 [GloFAS v4 격자 집계]","value":1.6,"valueUnit":"m³/s","valueNature":"모델(GloFAS 재분석)","division":"Chittagong"},"geometry":{"type":"Point","coordinates":[90.925,22.625]}},{"type":"Feature","id":"b-028-a9210b633c","properties":{"elementId":"B-028","featureId":"b-028-a9210b633c","name":"HydroBASINS MAIN_BAS 4080025410","kind":"basin-outlet","kindLabel":"유역 출구 격자점","sourceYear":"2024","recordIds":["bgd-v162-b-028-entity-00021"],"rowCount":1,"indicator":"하천 유량 — m³/s 기준 — 유역 출구 1997–2024 연평균 [GloFAS v4 격자 집계]","value":8.8,"valueUnit":"m³/s","valueNature":"모델(GloFAS 재분석)","division":"Chittagong"},"geometry":{"type":"Point","coordinates":[90.975,22.875]}},{"type":"Feature","id":"b-028-f84c10741b","properties":{"elementId":"B-028","featureId":"b-028-f84c10741b","name":"HydroBASINS MAIN_BAS 4080025420","kind":"basin-outlet","kindLabel":"유역 출구 격자점","sourceYear":"2024","recordIds":["bgd-v162-b-028-entity-00013"],"rowCount":1,"indicator":"하천 유량 — m³/s 기준 — 유역 출구 1997–2024 연평균 [GloFAS v4 격자 집계]","value":1.2,"valueUnit":"m³/s","valueNature":"모델(GloFAS 재분석)","division":"Chittagong"},"geometry":{"type":"Point","coordinates":[90.825,22.925]}},{"type":"Feature","id":"b-028-be9ecac80c","properties":{"elementId":"B-028","featureId":"b-028-be9ecac80c","name":"HydroBASINS MAIN_BAS 4080025430","kind":"basin-outlet","kindLabel":"유역 출구 격자점","sourceYear":"2024","recordIds":["bgd-v162-b-028-entity-00017"],"rowCount":1,"indicator":"하천 유량 — m³/s 기준 — 유역 출구 1997–2024 연평균 [GloFAS v4 격자 집계]","value":4.3,"valueUnit":"m³/s","valueNature":"모델(GloFAS 재분석)","division":"Chittagong"},"geometry":{"type":"Point","coordinates":[90.725,22.925]}},{"type":"Feature","id":"b-028-855322e590","properties":{"elementId":"B-028","featureId":"b-028-855322e590","name":"HydroBASINS MAIN_BAS 4080025440","kind":"basin-outlet","kindLabel":"유역 출구 격자점","sourceYear":"2024","recordIds":["bgd-v162-b-028-entity-00019"],"rowCount":1,"indicator":"하천 유량 — m³/s 기준 — 유역 출구 1997–2024 연평균 [GloFAS v4 격자 집계]","value":5.7,"valueUnit":"m³/s","valueNature":"모델(GloFAS 재분석)","division":"Chittagong"},"geometry":{"type":"Point","coordinates":[90.725,23.075]}},{"type":"Feature","id":"b-028-e29ae7a6f2","properties":{"elementId":"B-028","featureId":"b-028-e29ae7a6f2","name":"HydroBASINS MAIN_BAS 4080025450","kind":"basin-outlet","kindLabel":"유역 출구 격자점","sourceYear":"2024","recordIds":["bgd-v162-b-028-entity-00022"],"rowCount":1,"indicator":"하천 유량 — m³/s 기준 — 유역 출구 1997–2024 연평균 [GloFAS v4 격자 집계]","value":34340.5,"valueUnit":"m³/s","valueNature":"모델(GloFAS 재분석)","division":"Chittagong"},"geometry":{"type":"Point","coordinates":[90.625,23.275]}},{"type":"Feature","id":"b-028-c068f28663","properties":{"elementId":"B-028","featureId":"b-028-c068f28663","name":"HydroBASINS MAIN_BAS 4080025470","kind":"basin-outlet","kindLabel":"유역 출구 격자점","sourceYear":"2024","recordIds":["bgd-v162-b-028-entity-00028"],"rowCount":1,"indicator":"하천 유량 — m³/s 기준 — 유역 출구 1997–2024 연평균 [GloFAS v4 격자 집계]","value":2.2,"valueUnit":"m³/s","valueNature":"모델(GloFAS 재분석)","division":"Dhaka"},"geometry":{"type":"Point","coordinates":[90.525,23.175]}},{"type":"Feature","id":"b-028-25eecbe618","properties":{"elementId":"B-028","featureId":"b-028-25eecbe618","name":"HydroBASINS MAIN_BAS 4080025480","kind":"basin-outlet","kindLabel":"유역 출구 격자점","sourceYear":"2024","recordIds":["bgd-v162-b-028-entity-00030"],"rowCount":1,"indicator":"하천 유량 — m³/s 기준 — 유역 출구 1997–2024 연평균 [GloFAS v4 격자 집계]","value":23.9,"valueUnit":"m³/s","valueNature":"모델(GloFAS 재분석)","division":"Barisal"},"geometry":{"type":"Point","coordinates":[90.525,23.075]}},{"type":"Feature","id":"b-028-f4ccd246df","properties":{"elementId":"B-028","featureId":"b-028-f4ccd246df","name":"HydroBASINS MAIN_BAS 4080025510","kind":"basin-outlet","kindLabel":"유역 출구 격자점","sourceYear":"2024","recordIds":["bgd-v162-b-028-entity-00023"],"rowCount":1,"indicator":"하천 유량 — m³/s 기준 — 유역 출구 1997–2024 연평균 [GloFAS v4 격자 집계]","value":1.4,"valueUnit":"m³/s","valueNature":"모델(GloFAS 재분석)","division":"Barisal"},"geometry":{"type":"Point","coordinates":[90.775,22.325]}},{"type":"Feature","id":"b-028-a3160a1050","properties":{"elementId":"B-028","featureId":"b-028-a3160a1050","name":"HydroBASINS MAIN_BAS 4080025520","kind":"basin-outlet","kindLabel":"유역 출구 격자점","sourceYear":"2024","recordIds":["bgd-v162-b-028-entity-00025"],"rowCount":1,"indicator":"하천 유량 — m³/s 기준 — 유역 출구 1997–2024 연평균 [GloFAS v4 격자 집계]","value":10.4,"valueUnit":"m³/s","valueNature":"모델(GloFAS 재분석)","division":"Barisal"},"geometry":{"type":"Point","coordinates":[90.725,22.075]}},{"type":"Feature","id":"b-028-dcbbc1db90","properties":{"elementId":"B-028","featureId":"b-028-dcbbc1db90","name":"HydroBASINS MAIN_BAS 4080025560","kind":"basin-outlet","kindLabel":"유역 출구 격자점","sourceYear":"2024","recordIds":["bgd-v162-b-028-entity-00024"],"rowCount":1,"indicator":"하천 유량 — m³/s 기준 — 유역 출구 1997–2024 연평균 [GloFAS v4 격자 집계]","value":1.9,"valueUnit":"m³/s","valueNature":"모델(GloFAS 재분석)","division":"Barisal"},"geometry":{"type":"Point","coordinates":[90.675,22.125]}},{"type":"Feature","id":"b-028-64cd34a147","properties":{"elementId":"B-028","featureId":"b-028-64cd34a147","name":"HydroBASINS MAIN_BAS 4080025570","kind":"basin-outlet","kindLabel":"유역 출구 격자점","sourceYear":"2024","recordIds":["bgd-v162-b-028-entity-00035"],"rowCount":1,"indicator":"하천 유량 — m³/s 기준 — 유역 출구 1997–2024 연평균 [GloFAS v4 격자 집계]","value":8,"valueUnit":"m³/s","valueNature":"모델(GloFAS 재분석)","division":"Barisal"},"geometry":{"type":"Point","coordinates":[90.725,22.175]}},{"type":"Feature","id":"b-028-1568b8814b","properties":{"elementId":"B-028","featureId":"b-028-1568b8814b","name":"HydroBASINS MAIN_BAS 4080025600","kind":"basin-outlet","kindLabel":"유역 출구 격자점","sourceYear":"2024","recordIds":["bgd-v162-b-028-entity-00031"],"rowCount":1,"indicator":"하천 유량 — m³/s 기준 — 유역 출구 1997–2024 연평균 [GloFAS v4 격자 집계]","value":3.6,"valueUnit":"m³/s","valueNature":"모델(GloFAS 재분석)","division":"Barisal"},"geometry":{"type":"Point","coordinates":[90.725,22.475]}},{"type":"Feature","id":"b-028-58e3484d5b","properties":{"elementId":"B-028","featureId":"b-028-58e3484d5b","name":"HydroBASINS MAIN_BAS 4080025610","kind":"basin-outlet","kindLabel":"유역 출구 격자점","sourceYear":"2024","recordIds":["bgd-v162-b-028-entity-00032"],"rowCount":1,"indicator":"하천 유량 — m³/s 기준 — 유역 출구 1997–2024 연평균 [GloFAS v4 격자 집계]","value":4.4,"valueUnit":"m³/s","valueNature":"모델(GloFAS 재분석)","division":"Barisal"},"geometry":{"type":"Point","coordinates":[90.625,22.625]}},{"type":"Feature","id":"b-028-62b25e078c","properties":{"elementId":"B-028","featureId":"b-028-62b25e078c","name":"HydroBASINS MAIN_BAS 4080025620","kind":"basin-outlet","kindLabel":"유역 출구 격자점","sourceYear":"2024","recordIds":["bgd-v162-b-028-entity-00029"],"rowCount":1,"indicator":"하천 유량 — m³/s 기준 — 유역 출구 1997–2024 연평균 [GloFAS v4 격자 집계]","value":22.5,"valueUnit":"m³/s","valueNature":"모델(GloFAS 재분석)","division":"Dhaka"},"geometry":{"type":"Point","coordinates":[90.475,23.025]}},{"type":"Feature","id":"b-028-1c8502ed67","properties":{"elementId":"B-028","featureId":"b-028-1c8502ed67","name":"HydroBASINS MAIN_BAS 4080025630","kind":"basin-outlet","kindLabel":"유역 출구 격자점","sourceYear":"2024","recordIds":["bgd-v162-b-028-entity-00026"],"rowCount":1,"indicator":"하천 유량 — m³/s 기준 — 유역 출구 1997–2024 연평균 [GloFAS v4 격자 집계]","value":12.6,"valueUnit":"m³/s","valueNature":"모델(GloFAS 재분석)","division":"Barisal"},"geometry":{"type":"Point","coordinates":[90.475,22.725]}},{"type":"Feature","id":"b-028-51a9c7dda0","properties":{"elementId":"B-028","featureId":"b-028-51a9c7dda0","name":"HydroBASINS MAIN_BAS 4080025700","kind":"basin-outlet","kindLabel":"유역 출구 격자점","sourceYear":"2024","recordIds":["bgd-v162-b-028-entity-00036"],"rowCount":1,"indicator":"하천 유량 — m³/s 기준 — 유역 출구 1997–2024 연평균 [GloFAS v4 격자 집계]","value":9.1,"valueUnit":"m³/s","valueNature":"모델(GloFAS 재분석)","division":"Barisal"},"geometry":{"type":"Point","coordinates":[90.425,22.225]}},{"type":"Feature","id":"b-028-006c173856","properties":{"elementId":"B-028","featureId":"b-028-006c173856","name":"HydroBASINS MAIN_BAS 4080025710","kind":"basin-outlet","kindLabel":"유역 출구 격자점","sourceYear":"2024","recordIds":["bgd-v162-b-028-entity-00034"],"rowCount":1,"indicator":"하천 유량 — m³/s 기준 — 유역 출구 1997–2024 연평균 [GloFAS v4 격자 집계]","value":46.4,"valueUnit":"m³/s","valueNature":"모델(GloFAS 재분석)","division":"Barisal"},"geometry":{"type":"Point","coordinates":[90.075,22.175]}},{"type":"Feature","id":"b-028-e4a763ff5a","properties":{"elementId":"B-028","featureId":"b-028-e4a763ff5a","name":"HydroBASINS MAIN_BAS 4080025800","kind":"basin-outlet","kindLabel":"유역 출구 격자점","sourceYear":"2024","recordIds":["bgd-v162-b-028-entity-00037"],"rowCount":1,"indicator":"하천 유량 — m³/s 기준 — 유역 출구 1997–2024 연평균 [GloFAS v4 격자 집계]","value":9.2,"valueUnit":"m³/s","valueNature":"모델(GloFAS 재분석)","division":"Barisal"},"geometry":{"type":"Point","coordinates":[90.225,22.625]}},{"type":"Feature","id":"b-028-c135788c0c","properties":{"elementId":"B-028","featureId":"b-028-c135788c0c","name":"HydroBASINS MAIN_BAS 4080025810","kind":"basin-outlet","kindLabel":"유역 출구 격자점","sourceYear":"2024","recordIds":["bgd-v162-b-028-entity-00033"],"rowCount":1,"indicator":"하천 유량 — m³/s 기준 — 유역 출구 1997–2024 연평균 [GloFAS v4 격자 집계]","value":42.5,"valueUnit":"m³/s","valueNature":"모델(GloFAS 재분석)","division":"Barisal"},"geometry":{"type":"Point","coordinates":[90.025,22.225]}},{"type":"Feature","id":"b-028-93deed0e42","properties":{"elementId":"B-028","featureId":"b-028-93deed0e42","name":"HydroBASINS MAIN_BAS 4080025850","kind":"basin-outlet","kindLabel":"유역 출구 격자점","sourceYear":"2024","recordIds":["bgd-v162-b-028-entity-00027"],"rowCount":1,"indicator":"하천 유량 — m³/s 기준 — 유역 출구 1997–2024 연평균 [GloFAS v4 격자 집계]","value":15.9,"valueUnit":"m³/s","valueNature":"모델(GloFAS 재분석)","division":"Barisal"},"geometry":{"type":"Point","coordinates":[90.175,22.775]}},{"type":"Feature","id":"b-028-e6877cfe94","properties":{"elementId":"B-028","featureId":"b-028-e6877cfe94","name":"HydroBASINS MAIN_BAS 4080025870","kind":"basin-outlet","kindLabel":"유역 출구 격자점","sourceYear":"2024","recordIds":["bgd-v162-b-028-entity-00038"],"rowCount":1,"indicator":"하천 유량 — m³/s 기준 — 유역 출구 1997–2024 연평균 [GloFAS v4 격자 집계]","value":89.3,"valueUnit":"m³/s","valueNature":"모델(GloFAS 재분석)","division":"Khulna"},"geometry":{"type":"Point","coordinates":[89.825,22.925]}},{"type":"Feature","id":"b-028-417f2e3b67","properties":{"elementId":"B-028","featureId":"b-028-417f2e3b67","name":"HydroBASINS MAIN_BAS 4080025880","kind":"basin-outlet","kindLabel":"유역 출구 격자점","sourceYear":"2024","recordIds":["bgd-v162-b-028-entity-00045"],"rowCount":1,"indicator":"하천 유량 — m³/s 기준 — 유역 출구 1997–2024 연평균 [GloFAS v4 격자 집계]","value":7.5,"valueUnit":"m³/s","valueNature":"모델(GloFAS 재분석)","division":"Barisal"},"geometry":{"type":"Point","coordinates":[89.975,22.525]}},{"type":"Feature","id":"b-028-08f3389d02","properties":{"elementId":"B-028","featureId":"b-028-08f3389d02","name":"HydroBASINS MAIN_BAS 4080025920","kind":"basin-outlet","kindLabel":"유역 출구 격자점","sourceYear":"2024","recordIds":["bgd-v162-b-028-entity-00040"],"rowCount":1,"indicator":"하천 유량 — m³/s 기준 — 유역 출구 1997–2024 연평균 [GloFAS v4 격자 집계]","value":18,"valueUnit":"m³/s","valueNature":"모델(GloFAS 재분석)","division":"Khulna"},"geometry":{"type":"Point","coordinates":[89.775,22.575]}},{"type":"Feature","id":"b-028-b414b8cd8b","properties":{"elementId":"B-028","featureId":"b-028-b414b8cd8b","name":"HydroBASINS MAIN_BAS 4080025930","kind":"basin-outlet","kindLabel":"유역 출구 격자점","sourceYear":"2024","recordIds":["bgd-v162-b-028-entity-00039"],"rowCount":1,"indicator":"하천 유량 — m³/s 기준 — 유역 출구 1997–2024 연평균 [GloFAS v4 격자 집계]","value":1.2,"valueUnit":"m³/s","valueNature":"모델(GloFAS 재분석)","division":"Khulna"},"geometry":{"type":"Point","coordinates":[89.825,22.325]}},{"type":"Feature","id":"b-028-4403066c36","properties":{"elementId":"B-028","featureId":"b-028-4403066c36","name":"HydroBASINS MAIN_BAS 4080025940","kind":"basin-outlet","kindLabel":"유역 출구 격자점","sourceYear":"2024","recordIds":["bgd-v162-b-028-entity-00044"],"rowCount":1,"indicator":"하천 유량 — m³/s 기준 — 유역 출구 1997–2024 연평균 [GloFAS v4 격자 집계]","value":6.9,"valueUnit":"m³/s","valueNature":"모델(GloFAS 재분석)","division":"Khulna"},"geometry":{"type":"Point","coordinates":[89.775,22.275]}},{"type":"Feature","id":"b-028-c97c90e3dd","properties":{"elementId":"B-028","featureId":"b-028-c97c90e3dd","name":"HydroBASINS MAIN_BAS 4080025950","kind":"basin-outlet","kindLabel":"유역 출구 격자점","sourceYear":"2024","recordIds":["bgd-v162-b-028-entity-00043"],"rowCount":1,"indicator":"하천 유량 — m³/s 기준 — 유역 출구 1997–2024 연평균 [GloFAS v4 격자 집계]","value":4,"valueUnit":"m³/s","valueNature":"모델(GloFAS 재분석)","division":"Khulna"},"geometry":{"type":"Point","coordinates":[89.775,21.875]}},{"type":"Feature","id":"b-028-e3aec12f12","properties":{"elementId":"B-028","featureId":"b-028-e3aec12f12","name":"HydroBASINS MAIN_BAS 4080025960","kind":"basin-outlet","kindLabel":"유역 출구 격자점","sourceYear":"2024","recordIds":["bgd-v162-b-028-entity-00047"],"rowCount":1,"indicator":"하천 유량 — m³/s 기준 — 유역 출구 1997–2024 연평균 [GloFAS v4 격자 집계]","value":7.8,"valueUnit":"m³/s","valueNature":"모델(GloFAS 재분석)","division":"Khulna"},"geometry":{"type":"Point","coordinates":[89.775,22.075]}},{"type":"Feature","id":"b-028-ff6ca7059d","properties":{"elementId":"B-028","featureId":"b-028-ff6ca7059d","name":"HydroBASINS MAIN_BAS 4080025970","kind":"basin-outlet","kindLabel":"유역 출구 격자점","sourceYear":"2024","recordIds":["bgd-v162-b-028-entity-00046"],"rowCount":1,"indicator":"하천 유량 — m³/s 기준 — 유역 출구 1997–2024 연평균 [GloFAS v4 격자 집계]","value":7.5,"valueUnit":"m³/s","valueNature":"모델(GloFAS 재분석)","division":"Khulna"},"geometry":{"type":"Point","coordinates":[89.575,21.925]}},{"type":"Feature","id":"b-028-d827e6a4d2","properties":{"elementId":"B-028","featureId":"b-028-d827e6a4d2","name":"HydroBASINS MAIN_BAS 4080026020","kind":"basin-outlet","kindLabel":"유역 출구 격자점","sourceYear":"2024","recordIds":["bgd-v162-b-028-entity-00042"],"rowCount":1,"indicator":"하천 유량 — m³/s 기준 — 유역 출구 1997–2024 연평균 [GloFAS v4 격자 집계]","value":3.6,"valueUnit":"m³/s","valueNature":"모델(GloFAS 재분석)","division":"Khulna"},"geometry":{"type":"Point","coordinates":[89.675,22.575]}},{"type":"Feature","id":"b-028-370b7a5f65","properties":{"elementId":"B-028","featureId":"b-028-370b7a5f65","name":"HydroBASINS MAIN_BAS 4080026030","kind":"basin-outlet","kindLabel":"유역 출구 격자점","sourceYear":"2024","recordIds":["bgd-v162-b-028-entity-00041"],"rowCount":1,"indicator":"하천 유량 — m³/s 기준 — 유역 출구 1997–2024 연평균 [GloFAS v4 격자 집계]","value":3.5,"valueUnit":"m³/s","valueNature":"모델(GloFAS 재분석)","division":"Khulna"},"geometry":{"type":"Point","coordinates":[89.575,22.625]}},{"type":"Feature","id":"b-028-0ebd0b7873","properties":{"elementId":"B-028","featureId":"b-028-0ebd0b7873","name":"HydroBASINS MAIN_BAS 4080026040","kind":"basin-outlet","kindLabel":"유역 출구 격자점","sourceYear":"2024","recordIds":["bgd-v162-b-028-entity-00048"],"rowCount":1,"indicator":"하천 유량 — m³/s 기준 — 유역 출구 1997–2024 연평균 [GloFAS v4 격자 집계]","value":195.6,"valueUnit":"m³/s","valueNature":"모델(GloFAS 재분석)","division":"Khulna"},"geometry":{"type":"Point","coordinates":[89.575,22.775]}},{"type":"Feature","id":"b-028-da9e1db653","properties":{"elementId":"B-028","featureId":"b-028-da9e1db653","name":"HydroBASINS MAIN_BAS 4080026050","kind":"basin-outlet","kindLabel":"유역 출구 격자점","sourceYear":"2024","recordIds":["bgd-v162-b-028-entity-00049"],"rowCount":1,"indicator":"하천 유량 — m³/s 기준 — 유역 출구 1997–2024 연평균 [GloFAS v4 격자 집계]","value":24.8,"valueUnit":"m³/s","valueNature":"모델(GloFAS 재분석)","division":"Khulna"},"geometry":{"type":"Point","coordinates":[89.475,22.775]}},{"type":"Feature","id":"b-028-28e6415016","properties":{"elementId":"B-028","featureId":"b-028-28e6415016","name":"HydroBASINS MAIN_BAS 4080026090","kind":"basin-outlet","kindLabel":"유역 출구 격자점","sourceYear":"2024","recordIds":["bgd-v162-b-028-entity-00050"],"rowCount":1,"indicator":"하천 유량 — m³/s 기준 — 유역 출구 1997–2024 연평균 [GloFAS v4 격자 집계]","value":65.1,"valueUnit":"m³/s","valueNature":"모델(GloFAS 재분석)","division":"Khulna"},"geometry":{"type":"Point","coordinates":[89.375,22.575]}},{"type":"Feature","id":"b-028-2553fe08a3","properties":{"elementId":"B-028","featureId":"b-028-2553fe08a3","name":"HydroBASINS MAIN_BAS 4080026100","kind":"basin-outlet","kindLabel":"유역 출구 격자점","sourceYear":"2024","recordIds":["bgd-v162-b-028-entity-00055"],"rowCount":1,"indicator":"하천 유량 — m³/s 기준 — 유역 출구 1997–2024 연평균 [GloFAS v4 격자 집계]","value":6.1,"valueUnit":"m³/s","valueNature":"모델(GloFAS 재분석)","division":"Khulna"},"geometry":{"type":"Point","coordinates":[89.325,22.275]}},{"type":"Feature","id":"b-028-c0abb049e8","properties":{"elementId":"B-028","featureId":"b-028-c0abb049e8","name":"HydroBASINS MAIN_BAS 4080026150","kind":"basin-outlet","kindLabel":"유역 출구 격자점","sourceYear":"2024","recordIds":["bgd-v162-b-028-entity-00052"],"rowCount":1,"indicator":"하천 유량 — m³/s 기준 — 유역 출구 1997–2024 연평균 [GloFAS v4 격자 집계]","value":3,"valueUnit":"m³/s","valueNature":"모델(GloFAS 재분석)","division":"Khulna"},"geometry":{"type":"Point","coordinates":[89.275,22.375]}},{"type":"Feature","id":"b-028-8b59f6a2b8","properties":{"elementId":"B-028","featureId":"b-028-8b59f6a2b8","name":"HydroBASINS MAIN_BAS 4080026170","kind":"basin-outlet","kindLabel":"유역 출구 격자점","sourceYear":"2024","recordIds":["bgd-v162-b-028-entity-00053"],"rowCount":1,"indicator":"하천 유량 — m³/s 기준 — 유역 출구 1997–2024 연평균 [GloFAS v4 격자 집계]","value":3,"valueUnit":"m³/s","valueNature":"모델(GloFAS 재분석)","division":"Khulna"},"geometry":{"type":"Point","coordinates":[89.125,22.475]}},{"type":"Feature","id":"b-028-7203e57dc9","properties":{"elementId":"B-028","featureId":"b-028-7203e57dc9","name":"HydroBASINS MAIN_BAS 4080026180","kind":"basin-outlet","kindLabel":"유역 출구 격자점","sourceYear":"2024","recordIds":["bgd-v162-b-028-entity-00051"],"rowCount":1,"indicator":"하천 유량 — m³/s 기준 — 유역 출구 1997–2024 연평균 [GloFAS v4 격자 집계]","value":2.3,"valueUnit":"m³/s","valueNature":"모델(GloFAS 재분석)","division":"Khulna"},"geometry":{"type":"Point","coordinates":[89.175,22.325]}},{"type":"Feature","id":"b-028-9d021bdb56","properties":{"elementId":"B-028","featureId":"b-028-9d021bdb56","name":"HydroBASINS MAIN_BAS 4080026190","kind":"basin-outlet","kindLabel":"유역 출구 격자점","sourceYear":"2024","recordIds":["bgd-v162-b-028-entity-00054"],"rowCount":1,"indicator":"하천 유량 — m³/s 기준 — 유역 출구 1997–2024 연평균 [GloFAS v4 격자 집계]","value":3.1,"valueUnit":"m³/s","valueNature":"모델(GloFAS 재분석)","division":"Khulna"},"geometry":{"type":"Point","coordinates":[89.175,22.275]}},{"type":"Feature","id":"b-028-29d39cd938","properties":{"elementId":"B-028","featureId":"b-028-29d39cd938","name":"HydroBASINS MAIN_BAS 4080026200","kind":"basin-outlet","kindLabel":"유역 출구 격자점","sourceYear":"2024","recordIds":["bgd-v162-b-028-entity-00056"],"rowCount":1,"indicator":"하천 유량 — m³/s 기준 — 유역 출구 1997–2024 연평균 [GloFAS v4 격자 집계]","value":6.3,"valueUnit":"m³/s","valueNature":"모델(GloFAS 재분석)","division":"Khulna"},"geometry":{"type":"Point","coordinates":[89.175,21.825]}},{"type":"Feature","id":"b-028-a67764e2df","properties":{"elementId":"B-028","featureId":"b-028-a67764e2df","name":"HydroBASINS MAIN_BAS 4080026250","kind":"basin-outlet","kindLabel":"유역 출구 격자점","sourceYear":"2024","recordIds":["bgd-v162-b-028-entity-00057"],"rowCount":1,"indicator":"하천 유량 — m³/s 기준 — 유역 출구 1997–2024 연평균 [GloFAS v4 격자 집계]","value":58.2,"valueUnit":"m³/s","valueNature":"모델(GloFAS 재분석)","division":"Khulna"},"geometry":{"type":"Point","coordinates":[89.025,22.425]}},{"type":"Feature","id":"b-028-e21b3c9afc","properties":{"elementId":"B-028","featureId":"b-028-e21b3c9afc","name":"HydroBASINS MAIN_BAS 4080026280","kind":"basin-outlet","kindLabel":"유역 출구 격자점","sourceYear":"2024","recordIds":["bgd-v162-b-028-entity-00058"],"rowCount":1,"indicator":"하천 유량 — m³/s 기준 — 유역 출구 1997–2024 연평균 [GloFAS v4 격자 집계]","value":15.9,"valueUnit":"m³/s","valueNature":"모델(GloFAS 재분석)","division":"Khulna"},"geometry":{"type":"Point","coordinates":[89.075,21.775]}}]}
