{"type":"FeatureCollection","name":"bgd-b-023","bbox":[89.225,23.925,90.875,25.025],"metadata":{"schemaVersion":"country-points-v162","countryIso3":"BGD","elementId":"B-023","featureCount":3,"sourceRowCount":558,"grouping":"rows with the same coordinate and name are one feature (recordIds, rowCount)","outlineBufferDeg":0.05},"features":[{"type":"Feature","id":"b-023-48a1ae8bc7","properties":{"elementId":"B-023","featureId":"b-023-48a1ae8bc7","name":"Bahadurabad","sourceYear":"2024","recordIds":["bgd-v162-b-023-entity-00001","bgd-v162-b-023-entity-00002","bgd-v162-b-023-entity-00003","bgd-v162-b-023-entity-00004","bgd-v162-b-023-entity-00005","bgd-v162-b-023-entity-00006","bgd-v162-b-023-entity-00007","bgd-v162-b-023-entity-00008","bgd-v162-b-023-entity-00009","bgd-v162-b-023-entity-00010","bgd-v162-b-023-entity-00011","bgd-v162-b-023-entity-00012","bgd-v162-b-023-entity-00013","bgd-v162-b-023-entity-00014","bgd-v162-b-023-entity-00015","bgd-v162-b-023-entity-00016","bgd-v162-b-023-entity-00017","bgd-v162-b-023-entity-00018","bgd-v162-b-023-entity-00019","bgd-v162-b-023-entity-00020","bgd-v162-b-023-entity-00021","bgd-v162-b-023-entity-00022","bgd-v162-b-023-entity-00023","bgd-v162-b-023-entity-00024","bgd-v162-b-023-entity-00025","bgd-v162-b-023-entity-00026","bgd-v162-b-023-entity-00027","bgd-v162-b-023-entity-00028","bgd-v162-b-023-entity-00029","bgd-v162-b-023-entity-00030","bgd-v162-b-023-entity-00031","bgd-v162-b-023-entity-00032","bgd-v162-b-023-entity-00033","bgd-v162-b-023-entity-00034","bgd-v162-b-023-entity-00035","bgd-v162-b-023-entity-00036","bgd-v162-b-023-entity-00037","bgd-v162-b-023-entity-00038","bgd-v162-b-023-entity-00039","bgd-v162-b-023-entity-00040","bgd-v162-b-023-entity-00041","bgd-v162-b-023-entity-00042","bgd-v162-b-023-entity-00043","bgd-v162-b-023-entity-00044","bgd-v162-b-023-entity-00045","bgd-v162-b-023-entity-00046","bgd-v162-b-023-entity-00047","bgd-v162-b-023-entity-00048","bgd-v162-b-023-entity-00049","bgd-v162-b-023-entity-00050","bgd-v162-b-023-entity-00051","bgd-v162-b-023-entity-00052","bgd-v162-b-023-entity-00053","bgd-v162-b-023-entity-00054","bgd-v162-b-023-entity-00055","bgd-v162-b-023-entity-00056","bgd-v162-b-023-entity-00057","bgd-v162-b-023-entity-00058","bgd-v162-b-023-entity-00059","bgd-v162-b-023-entity-00060","bgd-v162-b-023-entity-00061","bgd-v162-b-023-entity-00062","bgd-v162-b-023-entity-00063","bgd-v162-b-023-entity-00064","bgd-v162-b-023-entity-00065","bgd-v162-b-023-entity-00066","bgd-v162-b-023-entity-00067","bgd-v162-b-023-entity-00068","bgd-v162-b-023-entity-00069","bgd-v162-b-023-entity-00070","bgd-v162-b-023-entity-00071","bgd-v162-b-023-entity-00072","bgd-v162-b-023-entity-00073","bgd-v162-b-023-entity-00074","bgd-v162-b-023-entity-00075","bgd-v162-b-023-entity-00076","bgd-v162-b-023-entity-00077","bgd-v162-b-023-entity-00078","bgd-v162-b-023-entity-00079","bgd-v162-b-023-entity-00080","bgd-v162-b-023-entity-00081","bgd-v162-b-023-entity-00082","bgd-v162-b-023-entity-00083","bgd-v162-b-023-entity-00084","bgd-v162-b-023-entity-00085","bgd-v162-b-023-entity-00086","bgd-v162-b-023-entity-00087","bgd-v162-b-023-entity-00088","bgd-v162-b-023-entity-00089","bgd-v162-b-023-entity-00090","bgd-v162-b-023-entity-00091","bgd-v162-b-023-entity-00092","bgd-v162-b-023-entity-00093","bgd-v162-b-023-entity-00094","bgd-v162-b-023-entity-00095","bgd-v162-b-023-entity-00096","bgd-v162-b-023-entity-00097","bgd-v162-b-023-entity-00098","bgd-v162-b-023-entity-00099","bgd-v162-b-023-entity-00100","bgd-v162-b-023-entity-00101","bgd-v162-b-023-entity-00102","bgd-v162-b-023-entity-00103","bgd-v162-b-023-entity-00104","bgd-v162-b-023-entity-00105","bgd-v162-b-023-entity-00106","bgd-v162-b-023-entity-00107","bgd-v162-b-023-entity-00108","bgd-v162-b-023-entity-00109","bgd-v162-b-023-entity-00110","bgd-v162-b-023-entity-00111","bgd-v162-b-023-entity-00112","bgd-v162-b-023-entity-00113","bgd-v162-b-023-entity-00114","bgd-v162-b-023-entity-00115","bgd-v162-b-023-entity-00116","bgd-v162-b-023-entity-00117","bgd-v162-b-023-entity-00118","bgd-v162-b-023-entity-00119","bgd-v162-b-023-entity-00120","bgd-v162-b-023-entity-00121","bgd-v162-b-023-entity-00122","bgd-v162-b-023-entity-00123","bgd-v162-b-023-entity-00124","bgd-v162-b-023-entity-00125","bgd-v162-b-023-entity-00126","bgd-v162-b-023-entity-00127","bgd-v162-b-023-entity-00128","bgd-v162-b-023-entity-00129","bgd-v162-b-023-entity-00130","bgd-v162-b-023-entity-00131","bgd-v162-b-023-entity-00132","bgd-v162-b-023-entity-00133","bgd-v162-b-023-entity-00134","bgd-v162-b-023-entity-00135","bgd-v162-b-023-entity-00136","bgd-v162-b-023-entity-00137","bgd-v162-b-023-entity-00138","bgd-v162-b-023-entity-00139","bgd-v162-b-023-entity-00140","bgd-v162-b-023-entity-00141","bgd-v162-b-023-entity-00142","bgd-v162-b-023-entity-00143","bgd-v162-b-023-entity-00144","bgd-v162-b-023-entity-00145","bgd-v162-b-023-entity-00146","bgd-v162-b-023-entity-00147","bgd-v162-b-023-entity-00148","bgd-v162-b-023-entity-00149","bgd-v162-b-023-entity-00150","bgd-v162-b-023-entity-00151","bgd-v162-b-023-entity-00152","bgd-v162-b-023-entity-00153","bgd-v162-b-023-entity-00154","bgd-v162-b-023-entity-00155","bgd-v162-b-023-entity-00156","bgd-v162-b-023-entity-00157","bgd-v162-b-023-entity-00158","bgd-v162-b-023-entity-00159","bgd-v162-b-023-entity-00160","bgd-v162-b-023-entity-00161","bgd-v162-b-023-entity-00162","bgd-v162-b-023-entity-00163","bgd-v162-b-023-entity-00164","bgd-v162-b-023-entity-00165","bgd-v162-b-023-entity-00166","bgd-v162-b-023-entity-00167","bgd-v162-b-023-entity-00168","bgd-v162-b-023-entity-00169","bgd-v162-b-023-entity-00170","bgd-v162-b-023-entity-00171","bgd-v162-b-023-entity-00172","bgd-v162-b-023-entity-00173","bgd-v162-b-023-entity-00174","bgd-v162-b-023-entity-00175","bgd-v162-b-023-entity-00176","bgd-v162-b-023-entity-00177","bgd-v162-b-023-entity-00178","bgd-v162-b-023-entity-00179","bgd-v162-b-023-entity-00180","bgd-v162-b-023-entity-00181","bgd-v162-b-023-entity-00182","bgd-v162-b-023-entity-00183","bgd-v162-b-023-entity-00184","bgd-v162-b-023-entity-00185","bgd-v162-b-023-entity-00186"],"rowCount":186,"location":"브라마푸트라(자무나) 본류 · BWDB 상설 수문관측소 (Brahmaputra (Jamuna) River)"},"geometry":{"type":"Point","coordinates":[89.675,25.025]}},{"type":"Feature","id":"b-023-6100d468c8","properties":{"elementId":"B-023","featureId":"b-023-6100d468c8","name":"Bhairab Bazar","sourceYear":"2024","recordIds":["bgd-v162-b-023-entity-00373","bgd-v162-b-023-entity-00374","bgd-v162-b-023-entity-00375","bgd-v162-b-023-entity-00376","bgd-v162-b-023-entity-00377","bgd-v162-b-023-entity-00378","bgd-v162-b-023-entity-00379","bgd-v162-b-023-entity-00380","bgd-v162-b-023-entity-00381","bgd-v162-b-023-entity-00382","bgd-v162-b-023-entity-00383","bgd-v162-b-023-entity-00384","bgd-v162-b-023-entity-00385","bgd-v162-b-023-entity-00386","bgd-v162-b-023-entity-00387","bgd-v162-b-023-entity-00388","bgd-v162-b-023-entity-00389","bgd-v162-b-023-entity-00390","bgd-v162-b-023-entity-00391","bgd-v162-b-023-entity-00392","bgd-v162-b-023-entity-00393","bgd-v162-b-023-entity-00394","bgd-v162-b-023-entity-00395","bgd-v162-b-023-entity-00396","bgd-v162-b-023-entity-00397","bgd-v162-b-023-entity-00398","bgd-v162-b-023-entity-00399","bgd-v162-b-023-entity-00400","bgd-v162-b-023-entity-00401","bgd-v162-b-023-entity-00402","bgd-v162-b-023-entity-00403","bgd-v162-b-023-entity-00404","bgd-v162-b-023-entity-00405","bgd-v162-b-023-entity-00406","bgd-v162-b-023-entity-00407","bgd-v162-b-023-entity-00408","bgd-v162-b-023-entity-00409","bgd-v162-b-023-entity-00410","bgd-v162-b-023-entity-00411","bgd-v162-b-023-entity-00412","bgd-v162-b-023-entity-00413","bgd-v162-b-023-entity-00414","bgd-v162-b-023-entity-00415","bgd-v162-b-023-entity-00416","bgd-v162-b-023-entity-00417","bgd-v162-b-023-entity-00418","bgd-v162-b-023-entity-00419","bgd-v162-b-023-entity-00420","bgd-v162-b-023-entity-00421","bgd-v162-b-023-entity-00422","bgd-v162-b-023-entity-00423","bgd-v162-b-023-entity-00424","bgd-v162-b-023-entity-00425","bgd-v162-b-023-entity-00426","bgd-v162-b-023-entity-00427","bgd-v162-b-023-entity-00428","bgd-v162-b-023-entity-00429","bgd-v162-b-023-entity-00430","bgd-v162-b-023-entity-00431","bgd-v162-b-023-entity-00432","bgd-v162-b-023-entity-00433","bgd-v162-b-023-entity-00434","bgd-v162-b-023-entity-00435","bgd-v162-b-023-entity-00436","bgd-v162-b-023-entity-00437","bgd-v162-b-023-entity-00438","bgd-v162-b-023-entity-00439","bgd-v162-b-023-entity-00440","bgd-v162-b-023-entity-00441","bgd-v162-b-023-entity-00442","bgd-v162-b-023-entity-00443","bgd-v162-b-023-entity-00444","bgd-v162-b-023-entity-00445","bgd-v162-b-023-entity-00446","bgd-v162-b-023-entity-00447","bgd-v162-b-023-entity-00448","bgd-v162-b-023-entity-00449","bgd-v162-b-023-entity-00450","bgd-v162-b-023-entity-00451","bgd-v162-b-023-entity-00452","bgd-v162-b-023-entity-00453","bgd-v162-b-023-entity-00454","bgd-v162-b-023-entity-00455","bgd-v162-b-023-entity-00456","bgd-v162-b-023-entity-00457","bgd-v162-b-023-entity-00458","bgd-v162-b-023-entity-00459","bgd-v162-b-023-entity-00460","bgd-v162-b-023-entity-00461","bgd-v162-b-023-entity-00462","bgd-v162-b-023-entity-00463","bgd-v162-b-023-entity-00464","bgd-v162-b-023-entity-00465","bgd-v162-b-023-entity-00466","bgd-v162-b-023-entity-00467","bgd-v162-b-023-entity-00468","bgd-v162-b-023-entity-00469","bgd-v162-b-023-entity-00470","bgd-v162-b-023-entity-00471","bgd-v162-b-023-entity-00472","bgd-v162-b-023-entity-00473","bgd-v162-b-023-entity-00474","bgd-v162-b-023-entity-00475","bgd-v162-b-023-entity-00476","bgd-v162-b-023-entity-00477","bgd-v162-b-023-entity-00478","bgd-v162-b-023-entity-00479","bgd-v162-b-023-entity-00480","bgd-v162-b-023-entity-00481","bgd-v162-b-023-entity-00482","bgd-v162-b-023-entity-00483","bgd-v162-b-023-entity-00484","bgd-v162-b-023-entity-00485","bgd-v162-b-023-entity-00486","bgd-v162-b-023-entity-00487","bgd-v162-b-023-entity-00488","bgd-v162-b-023-entity-00489","bgd-v162-b-023-entity-00490","bgd-v162-b-023-entity-00491","bgd-v162-b-023-entity-00492","bgd-v162-b-023-entity-00493","bgd-v162-b-023-entity-00494","bgd-v162-b-023-entity-00495","bgd-v162-b-023-entity-00496","bgd-v162-b-023-entity-00497","bgd-v162-b-023-entity-00498","bgd-v162-b-023-entity-00499","bgd-v162-b-023-entity-00500","bgd-v162-b-023-entity-00501","bgd-v162-b-023-entity-00502","bgd-v162-b-023-entity-00503","bgd-v162-b-023-entity-00504","bgd-v162-b-023-entity-00505","bgd-v162-b-023-entity-00506","bgd-v162-b-023-entity-00507","bgd-v162-b-023-entity-00508","bgd-v162-b-023-entity-00509","bgd-v162-b-023-entity-00510","bgd-v162-b-023-entity-00511","bgd-v162-b-023-entity-00512","bgd-v162-b-023-entity-00513","bgd-v162-b-023-entity-00514","bgd-v162-b-023-entity-00515","bgd-v162-b-023-entity-00516","bgd-v162-b-023-entity-00517","bgd-v162-b-023-entity-00518","bgd-v162-b-023-entity-00519","bgd-v162-b-023-entity-00520","bgd-v162-b-023-entity-00521","bgd-v162-b-023-entity-00522","bgd-v162-b-023-entity-00523","bgd-v162-b-023-entity-00524","bgd-v162-b-023-entity-00525","bgd-v162-b-023-entity-00526","bgd-v162-b-023-entity-00527","bgd-v162-b-023-entity-00528","bgd-v162-b-023-entity-00529","bgd-v162-b-023-entity-00530","bgd-v162-b-023-entity-00531","bgd-v162-b-023-entity-00532","bgd-v162-b-023-entity-00533","bgd-v162-b-023-entity-00534","bgd-v162-b-023-entity-00535","bgd-v162-b-023-entity-00536","bgd-v162-b-023-entity-00537","bgd-v162-b-023-entity-00538","bgd-v162-b-023-entity-00539","bgd-v162-b-023-entity-00540","bgd-v162-b-023-entity-00541","bgd-v162-b-023-entity-00542","bgd-v162-b-023-entity-00543","bgd-v162-b-023-entity-00544","bgd-v162-b-023-entity-00545","bgd-v162-b-023-entity-00546","bgd-v162-b-023-entity-00547","bgd-v162-b-023-entity-00548","bgd-v162-b-023-entity-00549","bgd-v162-b-023-entity-00550","bgd-v162-b-023-entity-00551","bgd-v162-b-023-entity-00552","bgd-v162-b-023-entity-00553","bgd-v162-b-023-entity-00554","bgd-v162-b-023-entity-00555","bgd-v162-b-023-entity-00556","bgd-v162-b-023-entity-00557","bgd-v162-b-023-entity-00558"],"rowCount":186,"location":"메그나 본류 · BWDB 상설 수문관측소 (Meghna River)"},"geometry":{"type":"Point","coordinates":[90.875,23.925]}},{"type":"Feature","id":"b-023-7b2996968f","properties":{"elementId":"B-023","featureId":"b-023-7b2996968f","name":"Hardinge Bridge","sourceYear":"2024","recordIds":["bgd-v162-b-023-entity-00187","bgd-v162-b-023-entity-00188","bgd-v162-b-023-entity-00189","bgd-v162-b-023-entity-00190","bgd-v162-b-023-entity-00191","bgd-v162-b-023-entity-00192","bgd-v162-b-023-entity-00193","bgd-v162-b-023-entity-00194","bgd-v162-b-023-entity-00195","bgd-v162-b-023-entity-00196","bgd-v162-b-023-entity-00197","bgd-v162-b-023-entity-00198","bgd-v162-b-023-entity-00199","bgd-v162-b-023-entity-00200","bgd-v162-b-023-entity-00201","bgd-v162-b-023-entity-00202","bgd-v162-b-023-entity-00203","bgd-v162-b-023-entity-00204","bgd-v162-b-023-entity-00205","bgd-v162-b-023-entity-00206","bgd-v162-b-023-entity-00207","bgd-v162-b-023-entity-00208","bgd-v162-b-023-entity-00209","bgd-v162-b-023-entity-00210","bgd-v162-b-023-entity-00211","bgd-v162-b-023-entity-00212","bgd-v162-b-023-entity-00213","bgd-v162-b-023-entity-00214","bgd-v162-b-023-entity-00215","bgd-v162-b-023-entity-00216","bgd-v162-b-023-entity-00217","bgd-v162-b-023-entity-00218","bgd-v162-b-023-entity-00219","bgd-v162-b-023-entity-00220","bgd-v162-b-023-entity-00221","bgd-v162-b-023-entity-00222","bgd-v162-b-023-entity-00223","bgd-v162-b-023-entity-00224","bgd-v162-b-023-entity-00225","bgd-v162-b-023-entity-00226","bgd-v162-b-023-entity-00227","bgd-v162-b-023-entity-00228","bgd-v162-b-023-entity-00229","bgd-v162-b-023-entity-00230","bgd-v162-b-023-entity-00231","bgd-v162-b-023-entity-00232","bgd-v162-b-023-entity-00233","bgd-v162-b-023-entity-00234","bgd-v162-b-023-entity-00235","bgd-v162-b-023-entity-00236","bgd-v162-b-023-entity-00237","bgd-v162-b-023-entity-00238","bgd-v162-b-023-entity-00239","bgd-v162-b-023-entity-00240","bgd-v162-b-023-entity-00241","bgd-v162-b-023-entity-00242","bgd-v162-b-023-entity-00243","bgd-v162-b-023-entity-00244","bgd-v162-b-023-entity-00245","bgd-v162-b-023-entity-00246","bgd-v162-b-023-entity-00247","bgd-v162-b-023-entity-00248","bgd-v162-b-023-entity-00249","bgd-v162-b-023-entity-00250","bgd-v162-b-023-entity-00251","bgd-v162-b-023-entity-00252","bgd-v162-b-023-entity-00253","bgd-v162-b-023-entity-00254","bgd-v162-b-023-entity-00255","bgd-v162-b-023-entity-00256","bgd-v162-b-023-entity-00257","bgd-v162-b-023-entity-00258","bgd-v162-b-023-entity-00259","bgd-v162-b-023-entity-00260","bgd-v162-b-023-entity-00261","bgd-v162-b-023-entity-00262","bgd-v162-b-023-entity-00263","bgd-v162-b-023-entity-00264","bgd-v162-b-023-entity-00265","bgd-v162-b-023-entity-00266","bgd-v162-b-023-entity-00267","bgd-v162-b-023-entity-00268","bgd-v162-b-023-entity-00269","bgd-v162-b-023-entity-00270","bgd-v162-b-023-entity-00271","bgd-v162-b-023-entity-00272","bgd-v162-b-023-entity-00273","bgd-v162-b-023-entity-00274","bgd-v162-b-023-entity-00275","bgd-v162-b-023-entity-00276","bgd-v162-b-023-entity-00277","bgd-v162-b-023-entity-00278","bgd-v162-b-023-entity-00279","bgd-v162-b-023-entity-00280","bgd-v162-b-023-entity-00281","bgd-v162-b-023-entity-00282","bgd-v162-b-023-entity-00283","bgd-v162-b-023-entity-00284","bgd-v162-b-023-entity-00285","bgd-v162-b-023-entity-00286","bgd-v162-b-023-entity-00287","bgd-v162-b-023-entity-00288","bgd-v162-b-023-entity-00289","bgd-v162-b-023-entity-00290","bgd-v162-b-023-entity-00291","bgd-v162-b-023-entity-00292","bgd-v162-b-023-entity-00293","bgd-v162-b-023-entity-00294","bgd-v162-b-023-entity-00295","bgd-v162-b-023-entity-00296","bgd-v162-b-023-entity-00297","bgd-v162-b-023-entity-00298","bgd-v162-b-023-entity-00299","bgd-v162-b-023-entity-00300","bgd-v162-b-023-entity-00301","bgd-v162-b-023-entity-00302","bgd-v162-b-023-entity-00303","bgd-v162-b-023-entity-00304","bgd-v162-b-023-entity-00305","bgd-v162-b-023-entity-00306","bgd-v162-b-023-entity-00307","bgd-v162-b-023-entity-00308","bgd-v162-b-023-entity-00309","bgd-v162-b-023-entity-00310","bgd-v162-b-023-entity-00311","bgd-v162-b-023-entity-00312","bgd-v162-b-023-entity-00313","bgd-v162-b-023-entity-00314","bgd-v162-b-023-entity-00315","bgd-v162-b-023-entity-00316","bgd-v162-b-023-entity-00317","bgd-v162-b-023-entity-00318","bgd-v162-b-023-entity-00319","bgd-v162-b-023-entity-00320","bgd-v162-b-023-entity-00321","bgd-v162-b-023-entity-00322","bgd-v162-b-023-entity-00323","bgd-v162-b-023-entity-00324","bgd-v162-b-023-entity-00325","bgd-v162-b-023-entity-00326","bgd-v162-b-023-entity-00327","bgd-v162-b-023-entity-00328","bgd-v162-b-023-entity-00329","bgd-v162-b-023-entity-00330","bgd-v162-b-023-entity-00331","bgd-v162-b-023-entity-00332","bgd-v162-b-023-entity-00333","bgd-v162-b-023-entity-00334","bgd-v162-b-023-entity-00335","bgd-v162-b-023-entity-00336","bgd-v162-b-023-entity-00337","bgd-v162-b-023-entity-00338","bgd-v162-b-023-entity-00339","bgd-v162-b-023-entity-00340","bgd-v162-b-023-entity-00341","bgd-v162-b-023-entity-00342","bgd-v162-b-023-entity-00343","bgd-v162-b-023-entity-00344","bgd-v162-b-023-entity-00345","bgd-v162-b-023-entity-00346","bgd-v162-b-023-entity-00347","bgd-v162-b-023-entity-00348","bgd-v162-b-023-entity-00349","bgd-v162-b-023-entity-00350","bgd-v162-b-023-entity-00351","bgd-v162-b-023-entity-00352","bgd-v162-b-023-entity-00353","bgd-v162-b-023-entity-00354","bgd-v162-b-023-entity-00355","bgd-v162-b-023-entity-00356","bgd-v162-b-023-entity-00357","bgd-v162-b-023-entity-00358","bgd-v162-b-023-entity-00359","bgd-v162-b-023-entity-00360","bgd-v162-b-023-entity-00361","bgd-v162-b-023-entity-00362","bgd-v162-b-023-entity-00363","bgd-v162-b-023-entity-00364","bgd-v162-b-023-entity-00365","bgd-v162-b-023-entity-00366","bgd-v162-b-023-entity-00367","bgd-v162-b-023-entity-00368","bgd-v162-b-023-entity-00369","bgd-v162-b-023-entity-00370","bgd-v162-b-023-entity-00371","bgd-v162-b-023-entity-00372"],"rowCount":186,"location":"갠지스(파드마) 본류 · BWDB 상설 수문관측소 (Ganges (Padma) River)"},"geometry":{"type":"Point","coordinates":[89.225,23.925]}}]}
