{"type":"FeatureCollection","name":"bgd-b-025","bbox":[88.9248,21.24922,92.64228,25.40273],"metadata":{"schemaVersion":"country-points-v162","countryIso3":"BGD","elementId":"B-025","featureCount":60,"sourceRowCount":60,"grouping":"rows with the same coordinate and name are one feature (recordIds, rowCount)","outlineBufferDeg":0.05,"referenceBasis":"유역 중심점"},"features":[{"type":"Feature","id":"b-025-f7755ef00e","properties":{"elementId":"B-025","featureId":"b-025-f7755ef00e","name":"유역(HydroBASINS 4080024890)","sourceYear":"2013","recordIds":["bgd-v162-b-025-entity-00002"],"rowCount":1,"areaInCountryKm2":7.1,"basinType":"국제 공유","basinAreaKm2":21390.6},"geometry":{"type":"Point","coordinates":[92.64228,21.6408]}},{"type":"Feature","id":"b-025-07b4df7e87","properties":{"elementId":"B-025","featureId":"b-025-07b4df7e87","name":"유역(HydroBASINS 4080025050)","sourceYear":"2013","recordIds":["bgd-v162-b-025-entity-00006"],"rowCount":1,"areaInCountryKm2":1949,"basinType":"국내 완결","basinAreaKm2":2125.3},"geometry":{"type":"Point","coordinates":[92.13558,21.24922]}},{"type":"Feature","id":"b-025-92d35139c8","properties":{"elementId":"B-025","featureId":"b-025-92d35139c8","name":"유역(HydroBASINS 4080025190)","sourceYear":"2013","recordIds":["bgd-v162-b-025-entity-00007"],"rowCount":1,"areaInCountryKm2":1650.4,"basinType":"국내 완결","basinAreaKm2":1662.2},"geometry":{"type":"Point","coordinates":[92.35745,21.65383]}},{"type":"Feature","id":"b-025-d432a4673b","properties":{"elementId":"B-025","featureId":"b-025-d432a4673b","name":"유역(HydroBASINS 4080025200)","sourceYear":"2013","recordIds":["bgd-v162-b-025-entity-00008"],"rowCount":1,"areaInCountryKm2":708.2,"basinType":"국내 완결","basinAreaKm2":766.3},"geometry":{"type":"Point","coordinates":[91.92685,21.81018]}},{"type":"Feature","id":"b-025-63cf44dc7e","properties":{"elementId":"B-025","featureId":"b-025-63cf44dc7e","name":"유역(HydroBASINS 4080025220)","sourceYear":"2013","recordIds":["bgd-v162-b-025-entity-00009"],"rowCount":1,"areaInCountryKm2":3545.7,"basinType":"국내 완결","basinAreaKm2":3562.6},"geometry":{"type":"Point","coordinates":[92.50025,21.80208]}},{"type":"Feature","id":"b-025-f97091a0d9","properties":{"elementId":"B-025","featureId":"b-025-f97091a0d9","name":"유역(HydroBASINS 4080025230)","sourceYear":"2013","recordIds":["bgd-v162-b-025-entity-00010"],"rowCount":1,"areaInCountryKm2":167.9,"basinType":"국내 완결","basinAreaKm2":170.9},"geometry":{"type":"Point","coordinates":[91.86232,22.21797]}},{"type":"Feature","id":"b-025-906b5dc3bf","properties":{"elementId":"B-025","featureId":"b-025-906b5dc3bf","name":"유역(HydroBASINS 4080025260)","sourceYear":"2013","recordIds":["bgd-v162-b-025-entity-00011"],"rowCount":1,"areaInCountryKm2":9852.7,"basinType":"국내 완결","basinAreaKm2":13923.3},"geometry":{"type":"Point","coordinates":[92.20333,22.8794]}},{"type":"Feature","id":"b-025-211a6c7cd2","properties":{"elementId":"B-025","featureId":"b-025-211a6c7cd2","name":"유역(HydroBASINS 4080025270)","sourceYear":"2013","recordIds":["bgd-v162-b-025-entity-00012"],"rowCount":1,"areaInCountryKm2":253.7,"basinType":"국내 완결","basinAreaKm2":268.1},"geometry":{"type":"Point","coordinates":[91.74888,22.44217]}},{"type":"Feature","id":"b-025-1c0e21842e","properties":{"elementId":"B-025","featureId":"b-025-1c0e21842e","name":"유역(HydroBASINS 4080025290)","sourceYear":"2013","recordIds":["bgd-v162-b-025-entity-00013"],"rowCount":1,"areaInCountryKm2":195.8,"basinType":"국내 완결","basinAreaKm2":195.9},"geometry":{"type":"Point","coordinates":[91.57292,22.71667]}},{"type":"Feature","id":"b-025-022ed2fa37","properties":{"elementId":"B-025","featureId":"b-025-022ed2fa37","name":"유역(HydroBASINS 4080025300)","sourceYear":"2013","recordIds":["bgd-v162-b-025-entity-00014"],"rowCount":1,"areaInCountryKm2":84.7,"basinType":"국내 완결","basinAreaKm2":93.3},"geometry":{"type":"Point","coordinates":[91.47835,22.72904]}},{"type":"Feature","id":"b-025-11ee669b06","properties":{"elementId":"B-025","featureId":"b-025-11ee669b06","name":"유역(HydroBASINS 4080025320)","sourceYear":"2013","recordIds":["bgd-v162-b-025-entity-00016"],"rowCount":1,"areaInCountryKm2":48.7,"basinType":"국내 완결","basinAreaKm2":55.2},"geometry":{"type":"Point","coordinates":[91.3939,22.80838]}},{"type":"Feature","id":"b-025-0cbdf35829","properties":{"elementId":"B-025","featureId":"b-025-0cbdf35829","name":"유역(HydroBASINS 4080025330)","sourceYear":"2013","recordIds":["bgd-v162-b-025-entity-00017"],"rowCount":1,"areaInCountryKm2":1304.2,"basinType":"국제 공유","basinAreaKm2":3787.4},"geometry":{"type":"Point","coordinates":[91.28332,23.15879]}},{"type":"Feature","id":"b-025-68b83bf3ba","properties":{"elementId":"B-025","featureId":"b-025-68b83bf3ba","name":"유역(HydroBASINS 4080025340)","sourceYear":"2013","recordIds":["bgd-v162-b-025-entity-00018"],"rowCount":1,"areaInCountryKm2":420.9,"basinType":"국내 완결","basinAreaKm2":465.5},"geometry":{"type":"Point","coordinates":[91.48469,22.49987]}},{"type":"Feature","id":"b-025-54478f1860","properties":{"elementId":"B-025","featureId":"b-025-54478f1860","name":"유역(HydroBASINS 4080025370)","sourceYear":"2013","recordIds":["bgd-v162-b-025-entity-00019"],"rowCount":1,"areaInCountryKm2":916.4,"basinType":"국내 완결","basinAreaKm2":917.1},"geometry":{"type":"Point","coordinates":[91.0925,22.83415]}},{"type":"Feature","id":"b-025-f59ed5ca82","properties":{"elementId":"B-025","featureId":"b-025-f59ed5ca82","name":"유역(HydroBASINS 4080025380)","sourceYear":"2013","recordIds":["bgd-v162-b-025-entity-00020"],"rowCount":1,"areaInCountryKm2":139.9,"basinType":"국내 완결","basinAreaKm2":174.1},"geometry":{"type":"Point","coordinates":[91.25212,22.61667]}},{"type":"Feature","id":"b-025-5da7366e97","properties":{"elementId":"B-025","featureId":"b-025-5da7366e97","name":"유역(HydroBASINS 4080025390)","sourceYear":"2013","recordIds":["bgd-v162-b-025-entity-00021"],"rowCount":1,"areaInCountryKm2":242.6,"basinType":"국내 완결","basinAreaKm2":245.1},"geometry":{"type":"Point","coordinates":[91.14167,22.61667]}},{"type":"Feature","id":"b-025-1119c4c679","properties":{"elementId":"B-025","featureId":"b-025-1119c4c679","name":"유역(HydroBASINS 4080025400)","sourceYear":"2013","recordIds":["bgd-v162-b-025-entity-00022"],"rowCount":1,"areaInCountryKm2":324.5,"basinType":"국내 완결","basinAreaKm2":356.3},"geometry":{"type":"Point","coordinates":[90.98557,22.62917]}},{"type":"Feature","id":"b-025-a53b06decb","properties":{"elementId":"B-025","featureId":"b-025-a53b06decb","name":"유역(HydroBASINS 4080025410)","sourceYear":"2013","recordIds":["bgd-v162-b-025-entity-00023"],"rowCount":1,"areaInCountryKm2":483,"basinType":"국내 완결","basinAreaKm2":483},"geometry":{"type":"Point","coordinates":[90.96182,22.8998]}},{"type":"Feature","id":"b-025-6d18f1d97c","properties":{"elementId":"B-025","featureId":"b-025-6d18f1d97c","name":"유역(HydroBASINS 4080025420)","sourceYear":"2013","recordIds":["bgd-v162-b-025-entity-00024"],"rowCount":1,"areaInCountryKm2":106.4,"basinType":"국내 완결","basinAreaKm2":112.4},"geometry":{"type":"Point","coordinates":[90.80002,22.87483]}},{"type":"Feature","id":"b-025-e8dd5437d6","properties":{"elementId":"B-025","featureId":"b-025-e8dd5437d6","name":"유역(HydroBASINS 4080025430)","sourceYear":"2013","recordIds":["bgd-v162-b-025-entity-00025"],"rowCount":1,"areaInCountryKm2":188.9,"basinType":"국내 완결","basinAreaKm2":191.7},"geometry":{"type":"Point","coordinates":[90.74972,23.00208]}},{"type":"Feature","id":"b-025-40a4410951","properties":{"elementId":"B-025","featureId":"b-025-40a4410951","name":"유역(HydroBASINS 4080025440)","sourceYear":"2013","recordIds":["bgd-v162-b-025-entity-00026"],"rowCount":1,"areaInCountryKm2":186.3,"basinType":"국내 완결","basinAreaKm2":201},"geometry":{"type":"Point","coordinates":[90.65496,23.05004]}},{"type":"Feature","id":"b-025-fe48fc7658","properties":{"elementId":"B-025","featureId":"b-025-fe48fc7658","name":"유역(HydroBASINS 4080025450)","sourceYear":"2013","recordIds":["bgd-v162-b-025-entity-00027"],"rowCount":1,"areaInCountryKm2":80685.7,"basinType":"국제 공유","basinAreaKm2":1582051.9},"geometry":{"type":"Point","coordinates":[89.31591,25.40273]}},{"type":"Feature","id":"b-025-031afa05eb","properties":{"elementId":"B-025","featureId":"b-025-031afa05eb","name":"유역(HydroBASINS 4080025460)","sourceYear":"2013","recordIds":["bgd-v162-b-025-entity-00028"],"rowCount":1,"areaInCountryKm2":14.6,"basinType":"국내 완결","basinAreaKm2":16.5},"geometry":{"type":"Point","coordinates":[90.597,23.20857]}},{"type":"Feature","id":"b-025-45fead0ea6","properties":{"elementId":"B-025","featureId":"b-025-45fead0ea6","name":"유역(HydroBASINS 4080025470)","sourceYear":"2013","recordIds":["bgd-v162-b-025-entity-00029"],"rowCount":1,"areaInCountryKm2":146.4,"basinType":"국내 완결","basinAreaKm2":146.5},"geometry":{"type":"Point","coordinates":[90.5209,23.23125]}},{"type":"Feature","id":"b-025-9a573cefbe","properties":{"elementId":"B-025","featureId":"b-025-9a573cefbe","name":"유역(HydroBASINS 4080025480)","sourceYear":"2013","recordIds":["bgd-v162-b-025-entity-00030"],"rowCount":1,"areaInCountryKm2":835.4,"basinType":"국내 완결","basinAreaKm2":942.9},"geometry":{"type":"Point","coordinates":[90.60187,22.77985]}},{"type":"Feature","id":"b-025-0122ea5ca2","properties":{"elementId":"B-025","featureId":"b-025-0122ea5ca2","name":"유역(HydroBASINS 4080025510)","sourceYear":"2013","recordIds":["bgd-v162-b-025-entity-00031"],"rowCount":1,"areaInCountryKm2":108,"basinType":"국내 완결","basinAreaKm2":108},"geometry":{"type":"Point","coordinates":[90.80319,22.3873]}},{"type":"Feature","id":"b-025-43c532ff28","properties":{"elementId":"B-025","featureId":"b-025-43c532ff28","name":"유역(HydroBASINS 4080025520)","sourceYear":"2013","recordIds":["bgd-v162-b-025-entity-00032"],"rowCount":1,"areaInCountryKm2":1173.4,"basinType":"국내 완결","basinAreaKm2":1415.7},"geometry":{"type":"Point","coordinates":[91.13127,22.26115]}},{"type":"Feature","id":"b-025-fd4c6db640","properties":{"elementId":"B-025","featureId":"b-025-fd4c6db640","name":"유역(HydroBASINS 4080025560)","sourceYear":"2013","recordIds":["bgd-v162-b-025-entity-00033"],"rowCount":1,"areaInCountryKm2":146.1,"basinType":"국내 완결","basinAreaKm2":146.3},"geometry":{"type":"Point","coordinates":[90.68415,22.12917]}},{"type":"Feature","id":"b-025-fc18e0b570","properties":{"elementId":"B-025","featureId":"b-025-fc18e0b570","name":"유역(HydroBASINS 4080025570)","sourceYear":"2013","recordIds":["bgd-v162-b-025-entity-00034"],"rowCount":1,"areaInCountryKm2":691.9,"basinType":"국내 완결","basinAreaKm2":770.7},"geometry":{"type":"Point","coordinates":[90.52535,22.04794]}},{"type":"Feature","id":"b-025-8c67e2f829","properties":{"elementId":"B-025","featureId":"b-025-8c67e2f829","name":"유역(HydroBASINS 4080025600)","sourceYear":"2013","recordIds":["bgd-v162-b-025-entity-00035"],"rowCount":1,"areaInCountryKm2":131.7,"basinType":"국내 완결","basinAreaKm2":131.8},"geometry":{"type":"Point","coordinates":[90.74868,22.4422]}},{"type":"Feature","id":"b-025-e53a6c5ca9","properties":{"elementId":"B-025","featureId":"b-025-e53a6c5ca9","name":"유역(HydroBASINS 4080025610)","sourceYear":"2013","recordIds":["bgd-v162-b-025-entity-00036"],"rowCount":1,"areaInCountryKm2":337,"basinType":"국내 완결","basinAreaKm2":387.2},"geometry":{"type":"Point","coordinates":[90.60729,22.69167]}},{"type":"Feature","id":"b-025-57e61f81d2","properties":{"elementId":"B-025","featureId":"b-025-57e61f81d2","name":"유역(HydroBASINS 4080025620)","sourceYear":"2013","recordIds":["bgd-v162-b-025-entity-00037"],"rowCount":1,"areaInCountryKm2":1899.7,"basinType":"국내 완결","basinAreaKm2":1909.6},"geometry":{"type":"Point","coordinates":[90.3613,23.06605]}},{"type":"Feature","id":"b-025-e1dd649d13","properties":{"elementId":"B-025","featureId":"b-025-e1dd649d13","name":"유역(HydroBASINS 4080025630)","sourceYear":"2013","recordIds":["bgd-v162-b-025-entity-00038"],"rowCount":1,"areaInCountryKm2":1100.7,"basinType":"국내 완결","basinAreaKm2":1195},"geometry":{"type":"Point","coordinates":[90.56449,22.37297]}},{"type":"Feature","id":"b-025-d64d531892","properties":{"elementId":"B-025","featureId":"b-025-d64d531892","name":"유역(HydroBASINS 4080025700)","sourceYear":"2013","recordIds":["bgd-v162-b-025-entity-00039"],"rowCount":1,"areaInCountryKm2":286.8,"basinType":"국내 완결","basinAreaKm2":293.5},"geometry":{"type":"Point","coordinates":[90.40389,22.32094]}},{"type":"Feature","id":"b-025-18611ac5f9","properties":{"elementId":"B-025","featureId":"b-025-18611ac5f9","name":"유역(HydroBASINS 4080025710)","sourceYear":"2013","recordIds":["bgd-v162-b-025-entity-00040"],"rowCount":1,"areaInCountryKm2":2236.9,"basinType":"국내 완결","basinAreaKm2":2366.6},"geometry":{"type":"Point","coordinates":[90.12866,22.19317]}},{"type":"Feature","id":"b-025-e95d79d194","properties":{"elementId":"B-025","featureId":"b-025-e95d79d194","name":"유역(HydroBASINS 4080025800)","sourceYear":"2013","recordIds":["bgd-v162-b-025-entity-00041"],"rowCount":1,"areaInCountryKm2":329.4,"basinType":"국내 완결","basinAreaKm2":338.7},"geometry":{"type":"Point","coordinates":[90.20306,22.60018]}},{"type":"Feature","id":"b-025-e5bb5ae9c1","properties":{"elementId":"B-025","featureId":"b-025-e5bb5ae9c1","name":"유역(HydroBASINS 4080025810)","sourceYear":"2013","recordIds":["bgd-v162-b-025-entity-00042"],"rowCount":1,"areaInCountryKm2":1077.8,"basinType":"국내 완결","basinAreaKm2":1132.5},"geometry":{"type":"Point","coordinates":[89.99167,22.28958]}},{"type":"Feature","id":"b-025-ff9c869ffb","properties":{"elementId":"B-025","featureId":"b-025-ff9c869ffb","name":"유역(HydroBASINS 4080025850)","sourceYear":"2013","recordIds":["bgd-v162-b-025-entity-00043"],"rowCount":1,"areaInCountryKm2":574.1,"basinType":"국내 완결","basinAreaKm2":574.1},"geometry":{"type":"Point","coordinates":[90.18814,22.76646]}},{"type":"Feature","id":"b-025-c80d16571d","properties":{"elementId":"B-025","featureId":"b-025-c80d16571d","name":"유역(HydroBASINS 4080025860)","sourceYear":"2013","recordIds":["bgd-v162-b-025-entity-00044"],"rowCount":1,"areaInCountryKm2":13.7,"basinType":"국내 완결","basinAreaKm2":13.7},"geometry":{"type":"Point","coordinates":[90.0376,22.62666]}},{"type":"Feature","id":"b-025-33416c2888","properties":{"elementId":"B-025","featureId":"b-025-33416c2888","name":"유역(HydroBASINS 4080025870)","sourceYear":"2013","recordIds":["bgd-v162-b-025-entity-00045"],"rowCount":1,"areaInCountryKm2":2236,"basinType":"국내 완결","basinAreaKm2":2236},"geometry":{"type":"Point","coordinates":[89.9999,22.97464]}},{"type":"Feature","id":"b-025-ff8f54a265","properties":{"elementId":"B-025","featureId":"b-025-ff8f54a265","name":"유역(HydroBASINS 4080025880)","sourceYear":"2013","recordIds":["bgd-v162-b-025-entity-00046"],"rowCount":1,"areaInCountryKm2":401.3,"basinType":"국내 완결","basinAreaKm2":407.9},"geometry":{"type":"Point","coordinates":[89.94351,22.54776]}},{"type":"Feature","id":"b-025-7d658163a6","properties":{"elementId":"B-025","featureId":"b-025-7d658163a6","name":"유역(HydroBASINS 4080025920)","sourceYear":"2013","recordIds":["bgd-v162-b-025-entity-00047"],"rowCount":1,"areaInCountryKm2":681.7,"basinType":"국내 완결","basinAreaKm2":681.7},"geometry":{"type":"Point","coordinates":[89.78534,22.62528]}},{"type":"Feature","id":"b-025-b0046007f5","properties":{"elementId":"B-025","featureId":"b-025-b0046007f5","name":"유역(HydroBASINS 4080025930)","sourceYear":"2013","recordIds":["bgd-v162-b-025-entity-00048"],"rowCount":1,"areaInCountryKm2":171.3,"basinType":"국내 완결","basinAreaKm2":192},"geometry":{"type":"Point","coordinates":[89.87892,22.075]}},{"type":"Feature","id":"b-025-f28e767ecd","properties":{"elementId":"B-025","featureId":"b-025-f28e767ecd","name":"유역(HydroBASINS 4080025940)","sourceYear":"2013","recordIds":["bgd-v162-b-025-entity-00049"],"rowCount":1,"areaInCountryKm2":258.3,"basinType":"국내 완결","basinAreaKm2":262.6},"geometry":{"type":"Point","coordinates":[89.7988,22.27917]}},{"type":"Feature","id":"b-025-41352de08c","properties":{"elementId":"B-025","featureId":"b-025-41352de08c","name":"유역(HydroBASINS 4080025950)","sourceYear":"2013","recordIds":["bgd-v162-b-025-entity-00050"],"rowCount":1,"areaInCountryKm2":438.7,"basinType":"국내 완결","basinAreaKm2":496},"geometry":{"type":"Point","coordinates":[89.77412,21.97917]}},{"type":"Feature","id":"b-025-af800e6cfd","properties":{"elementId":"B-025","featureId":"b-025-af800e6cfd","name":"유역(HydroBASINS 4080025960)","sourceYear":"2013","recordIds":["bgd-v162-b-025-entity-00051"],"rowCount":1,"areaInCountryKm2":294.5,"basinType":"국내 완결","basinAreaKm2":294.5},"geometry":{"type":"Point","coordinates":[89.70421,22.19583]}},{"type":"Feature","id":"b-025-db7d0cc92a","properties":{"elementId":"B-025","featureId":"b-025-db7d0cc92a","name":"유역(HydroBASINS 4080025970)","sourceYear":"2013","recordIds":["bgd-v162-b-025-entity-00052"],"rowCount":1,"areaInCountryKm2":897.4,"basinType":"국내 완결","basinAreaKm2":967.4},"geometry":{"type":"Point","coordinates":[89.65206,22.09583]}},{"type":"Feature","id":"b-025-97b5b2954d","properties":{"elementId":"B-025","featureId":"b-025-97b5b2954d","name":"유역(HydroBASINS 4080026020)","sourceYear":"2013","recordIds":["bgd-v162-b-025-entity-00053"],"rowCount":1,"areaInCountryKm2":169,"basinType":"국내 완결","basinAreaKm2":169},"geometry":{"type":"Point","coordinates":[89.68051,22.54618]}},{"type":"Feature","id":"b-025-558de56359","properties":{"elementId":"B-025","featureId":"b-025-558de56359","name":"유역(HydroBASINS 4080026030)","sourceYear":"2013","recordIds":["bgd-v162-b-025-entity-00054"],"rowCount":1,"areaInCountryKm2":142.8,"basinType":"국내 완결","basinAreaKm2":149.6},"geometry":{"type":"Point","coordinates":[89.5897,22.60417]}},{"type":"Feature","id":"b-025-e58265c9dd","properties":{"elementId":"B-025","featureId":"b-025-e58265c9dd","name":"유역(HydroBASINS 4080026040)","sourceYear":"2013","recordIds":["bgd-v162-b-025-entity-00055"],"rowCount":1,"areaInCountryKm2":7619.3,"basinType":"국내 완결","basinAreaKm2":7619.3},"geometry":{"type":"Point","coordinates":[89.41277,23.33472]}},{"type":"Feature","id":"b-025-935d431d53","properties":{"elementId":"B-025","featureId":"b-025-935d431d53","name":"유역(HydroBASINS 4080026050)","sourceYear":"2013","recordIds":["bgd-v162-b-025-entity-00056"],"rowCount":1,"areaInCountryKm2":944.4,"basinType":"국내 완결","basinAreaKm2":992.2},"geometry":{"type":"Point","coordinates":[89.53113,22.38748]}},{"type":"Feature","id":"b-025-d922076260","properties":{"elementId":"B-025","featureId":"b-025-d922076260","name":"유역(HydroBASINS 4080026090)","sourceYear":"2013","recordIds":["bgd-v162-b-025-entity-00057"],"rowCount":1,"areaInCountryKm2":4816.4,"basinType":"국내 완결","basinAreaKm2":5322.9},"geometry":{"type":"Point","coordinates":[89.04459,23.25955]}},{"type":"Feature","id":"b-025-1e72dea5ac","properties":{"elementId":"B-025","featureId":"b-025-1e72dea5ac","name":"유역(HydroBASINS 4080026100)","sourceYear":"2013","recordIds":["bgd-v162-b-025-entity-00058"],"rowCount":1,"areaInCountryKm2":1116.5,"basinType":"국내 완결","basinAreaKm2":1235},"geometry":{"type":"Point","coordinates":[89.38181,22.1474]}},{"type":"Feature","id":"b-025-b3c98315cc","properties":{"elementId":"B-025","featureId":"b-025-b3c98315cc","name":"유역(HydroBASINS 4080026150)","sourceYear":"2013","recordIds":["bgd-v162-b-025-entity-00059"],"rowCount":1,"areaInCountryKm2":271.1,"basinType":"국내 완결","basinAreaKm2":272.9},"geometry":{"type":"Point","coordinates":[89.27531,22.44473]}},{"type":"Feature","id":"b-025-15d391c126","properties":{"elementId":"B-025","featureId":"b-025-15d391c126","name":"유역(HydroBASINS 4080026160)","sourceYear":"2013","recordIds":["bgd-v162-b-025-entity-00060"],"rowCount":1,"areaInCountryKm2":174,"basinType":"국내 완결","basinAreaKm2":184},"geometry":{"type":"Point","coordinates":[89.21051,22.37638]}},{"type":"Feature","id":"b-025-bb886ca88f","properties":{"elementId":"B-025","featureId":"b-025-bb886ca88f","name":"유역(HydroBASINS 4080026170)","sourceYear":"2013","recordIds":["bgd-v162-b-025-entity-00061"],"rowCount":1,"areaInCountryKm2":146.1,"basinType":"국내 완결","basinAreaKm2":146.1},"geometry":{"type":"Point","coordinates":[89.10004,22.44536]}},{"type":"Feature","id":"b-025-d92ef28bb3","properties":{"elementId":"B-025","featureId":"b-025-d92ef28bb3","name":"유역(HydroBASINS 4080026180)","sourceYear":"2013","recordIds":["bgd-v162-b-025-entity-00062"],"rowCount":1,"areaInCountryKm2":128.7,"basinType":"국내 완결","basinAreaKm2":131.1},"geometry":{"type":"Point","coordinates":[89.15836,22.33679]}},{"type":"Feature","id":"b-025-167e65e2c1","properties":{"elementId":"B-025","featureId":"b-025-167e65e2c1","name":"유역(HydroBASINS 4080026190)","sourceYear":"2013","recordIds":["bgd-v162-b-025-entity-00063"],"rowCount":1,"areaInCountryKm2":152,"basinType":"국내 완결","basinAreaKm2":152.1},"geometry":{"type":"Point","coordinates":[89.16019,22.22917]}},{"type":"Feature","id":"b-025-32de42a6b5","properties":{"elementId":"B-025","featureId":"b-025-32de42a6b5","name":"유역(HydroBASINS 4080026200)","sourceYear":"2013","recordIds":["bgd-v162-b-025-entity-00064"],"rowCount":1,"areaInCountryKm2":1148.8,"basinType":"국내 완결","basinAreaKm2":1413.7},"geometry":{"type":"Point","coordinates":[89.26218,22.01433]}},{"type":"Feature","id":"b-025-733c7958c5","properties":{"elementId":"B-025","featureId":"b-025-733c7958c5","name":"유역(HydroBASINS 4080026250)","sourceYear":"2013","recordIds":["bgd-v162-b-025-entity-00065"],"rowCount":1,"areaInCountryKm2":979,"basinType":"국제 공유","basinAreaKm2":3396.1},"geometry":{"type":"Point","coordinates":[88.9248,22.87065]}}]}
