{"type":"FeatureCollection","name":"bgd-b-048","bbox":[91.80003,21.41619,91.98332,22.33271],"metadata":{"schemaVersion":"country-points-v162","countryIso3":"BGD","elementId":"B-048","featureCount":2,"sourceRowCount":2,"grouping":"rows with the same coordinate and name are one feature (recordIds, rowCount)","outlineBufferDeg":0.05},"features":[{"type":"Feature","id":"b-048-a611da2a13","properties":{"elementId":"B-048","featureId":"b-048-a611da2a13","name":"Bangladesh Heavy Minerals","sourceYear":"2016","recordIds":["bgd-v162-b-048-entity-00002"],"rowCount":1,"commodity":"주석 / 철/티타늄/지르코늄","division":"Chittagong","remarks":"운영형태 Surface · 개발단계 부존 확인(occurrence) · MRDS dep_id 10207027"},"geometry":{"type":"Point","coordinates":[91.98332,21.41619]}},{"type":"Feature","id":"b-048-0b604ffb3a","properties":{"elementId":"B-048","featureId":"b-048-0b604ffb3a","name":"Chittagong Phosphoric Acid Plant","sourceYear":"2016","recordIds":["bgd-v162-b-048-entity-00001"],"rowCount":1,"commodity":"인산염(인)","division":"Chittagong","remarks":"운영형태 Processing Plant · 개발단계 가동 설비(플랜트) · 최초생산 1974년 · MRDS dep_id 10159086"},"geometry":{"type":"Point","coordinates":[91.80003,22.33271]}}]}
