{"type":"FeatureCollection","name":"bgd-c-025","bbox":[89.263668,22.367532,91.881171,25.777384],"metadata":{"schemaVersion":"country-points-v162","countryIso3":"BGD","elementId":"C-025","featureCount":18,"sourceRowCount":18,"grouping":"rows with the same coordinate and name are one feature (recordIds, rowCount)","outlineBufferDeg":0.05},"features":[{"type":"Feature","id":"c-025-3d39b11b0d","properties":{"elementId":"C-025","featureId":"c-025-3d39b11b0d","name":"100 MW Solar PV project by ERBL, Bangladesh","kind":"k-bd8702","kindLabel":"재생에너지 (Renewable Energy)","sourceYear":"2026","recordIds":["bgd-v162-c-025-entity-00166"],"rowCount":1,"technology":"Solar - Centralized","issued":0},"geometry":{"type":"Point","coordinates":[89.567436,22.57007]}},{"type":"Feature","id":"c-025-c6c6e36e4c","properties":{"elementId":"C-025","featureId":"c-025-c6c6e36e4c","name":"Bangladesh Apon Chula Improved Cookstove Program I","kind":"k-b54363","kindLabel":"가정·지역사회 (Household & Community)","sourceYear":"2026","recordIds":["bgd-v162-c-025-entity-00159"],"rowCount":1,"technology":"Cookstoves","issued":0},"geometry":{"type":"Point","coordinates":[91.864529,24.967877]}},{"type":"Feature","id":"c-025-e620dc9ab8","properties":{"elementId":"C-025","featureId":"c-025-e620dc9ab8","name":"Bangladesh Apon Chula Improved Cookstove Program II","kind":"k-b54363","kindLabel":"가정·지역사회 (Household & Community)","sourceYear":"2026","recordIds":["bgd-v162-c-025-entity-00160"],"rowCount":1,"technology":"Cookstoves","issued":0},"geometry":{"type":"Point","coordinates":[89.263668,25.777384]}},{"type":"Feature","id":"c-025-967f99edc2","properties":{"elementId":"C-025","featureId":"c-025-967f99edc2","name":"CREATING LIVELIHOOD OPPORTUNITIES AND CARBON CREDIT INCOME FOR SMALLHOLDER FARMERS THROUGH HORTICULTURAL PLANTATIONS IN BANGLADESH","kind":"k-9ec124","kindLabel":"산림·토지이용 (Forestry & Land Use)","sourceYear":"2026","recordIds":["bgd-v162-c-025-entity-00165"],"rowCount":1,"technology":"Afforestation/Reforestation","issued":68259},"geometry":{"type":"Point","coordinates":[90.399452,23.777176]}},{"type":"Feature","id":"c-025-e3d641a71f","properties":{"elementId":"C-025","featureId":"c-025-e3d641a71f","name":"Electric Mobility Program Bangladesh","kind":"k-3f0197","kindLabel":"수송 (Transportation)","sourceYear":"2026","recordIds":["bgd-v162-c-025-entity-00169"],"rowCount":1,"technology":"Electric Vehicles & Charging","issued":0},"geometry":{"type":"Point","coordinates":[90.4152,23.8041]}},{"type":"Feature","id":"c-025-0a4fe67f3f","properties":{"elementId":"C-025","featureId":"c-025-0a4fe67f3f","name":"Grouped Captive Solar Power Project in Bangladesh","kind":"k-bd8702","kindLabel":"재생에너지 (Renewable Energy)","sourceYear":"2026","recordIds":["bgd-v162-c-025-entity-00162"],"rowCount":1,"technology":"Solar - Distributed","issued":5655},"geometry":{"type":"Point","coordinates":[90.3563,23.685]}},{"type":"Feature","id":"c-025-ec3eecb2b8","properties":{"elementId":"C-025","featureId":"c-025-ec3eecb2b8","name":"IDCOL Improved Cook Stove Program - CER Conversion","kind":"k-b54363","kindLabel":"가정·지역사회 (Household & Community)","sourceYear":"2026","recordIds":["bgd-v162-c-025-entity-00161"],"rowCount":1,"technology":"Cookstoves","issued":456395},"geometry":{"type":"Point","coordinates":[90.306526,23.730104]}},{"type":"Feature","id":"c-025-2fc0b3f81d","properties":{"elementId":"C-025","featureId":"c-025-2fc0b3f81d","name":"Installation of high efficiency wood burning cookstoves in Bangladesh","kind":"k-b54363","kindLabel":"가정·지역사회 (Household & Community)","sourceYear":"2026","recordIds":["bgd-v162-c-025-entity-00164"],"rowCount":1,"technology":"Cookstoves","issued":0},"geometry":{"type":"Point","coordinates":[90.356331,23.684994]}},{"type":"Feature","id":"c-025-119e2bd3cc","properties":{"elementId":"C-025","featureId":"c-025-119e2bd3cc","name":"Paragon-Manure to Compost Grouped project in Bangladesh","kind":"k-2ae9ef","kindLabel":"폐기물 관리 (Waste Management)","sourceYear":"2026","recordIds":["bgd-v162-c-025-entity-00170"],"rowCount":1,"technology":"Composting","issued":0},"geometry":{"type":"Point","coordinates":[90.496831,24.167626]}},{"type":"Feature","id":"c-025-73f1982df7","properties":{"elementId":"C-025","featureId":"c-025-73f1982df7","name":"Poultry Manure to Compost grouped project in Bangladesh","kind":"k-2ae9ef","kindLabel":"폐기물 관리 (Waste Management)","sourceYear":"2026","recordIds":["bgd-v162-c-025-entity-00167"],"rowCount":1,"technology":"Composting","issued":0},"geometry":{"type":"Point","coordinates":[90.3563,23.685]}},{"type":"Feature","id":"c-025-fbccaf5776","properties":{"elementId":"C-025","featureId":"c-025-fbccaf5776","name":"Reducing Gas Leakages within North West and other sub-areas of the Titas Gas Distribution Network in Bangladesh","kind":"k-27a45e","kindLabel":"산업·상업 (Industrial & Commercial)","sourceYear":"2026","recordIds":["bgd-v162-c-025-entity-00157"],"rowCount":1,"technology":"Leak Detection & Repair in Gas Systems","issued":1694398},"geometry":{"type":"Point","coordinates":[90.4011,23.790176]}},{"type":"Feature","id":"c-025-f118043438","properties":{"elementId":"C-025","featureId":"c-025-f118043438","name":"Reducing Gas Leakages within the Bakhrabad Gas Distribution Network in Bangladesh","kind":"k-27a45e","kindLabel":"산업·상업 (Industrial & Commercial)","sourceYear":"2026","recordIds":["bgd-v162-c-025-entity-00152"],"rowCount":1,"technology":"Leak Detection & Repair in Gas Systems","issued":4274290},"geometry":{"type":"Point","coordinates":[91.211199,23.450457]}},{"type":"Feature","id":"c-025-be2b2599ae","properties":{"elementId":"C-025","featureId":"c-025-be2b2599ae","name":"Reducing Gas Leakages within the Jalalabad Gas Distribution Network in Bangladesh","kind":"k-27a45e","kindLabel":"산업·상업 (Industrial & Commercial)","sourceYear":"2026","recordIds":["bgd-v162-c-025-entity-00153"],"rowCount":1,"technology":"Leak Detection & Repair in Gas Systems","issued":3305700},"geometry":{"type":"Point","coordinates":[91.881171,24.884518]}},{"type":"Feature","id":"c-025-123e156efe","properties":{"elementId":"C-025","featureId":"c-025-123e156efe","name":"Reducing Gas Leakages within the Karnaphuli Gas Distribution Network in Bangladesh","kind":"k-27a45e","kindLabel":"산업·상업 (Industrial & Commercial)","sourceYear":"2026","recordIds":["bgd-v162-c-025-entity-00154"],"rowCount":1,"technology":"Leak Detection & Repair in Gas Systems","issued":2747860},"geometry":{"type":"Point","coordinates":[91.826444,22.367532]}},{"type":"Feature","id":"c-025-b558f200be","properties":{"elementId":"C-025","featureId":"c-025-b558f200be","name":"Reducing Gas Leakages within the Titas Gas Distribution Network in Bangladesh","kind":"k-27a45e","kindLabel":"산업·상업 (Industrial & Commercial)","sourceYear":"2026","recordIds":["bgd-v162-c-025-entity-00156"],"rowCount":1,"technology":"Leak Detection & Repair in Gas Systems","issued":12385324},"geometry":{"type":"Point","coordinates":[90.9833,23.7]}},{"type":"Feature","id":"c-025-f2eb432d7f","properties":{"elementId":"C-025","featureId":"c-025-f2eb432d7f","name":"Reducing Gas Leakages within the Titas Gas Distribution Network in Bangladesh - CER Conversion","kind":"k-27a45e","kindLabel":"산업·상업 (Industrial & Commercial)","sourceYear":"2026","recordIds":["bgd-v162-c-025-entity-00151"],"rowCount":1,"technology":"Leak Detection & Repair in Gas Systems","issued":7657147},"geometry":{"type":"Point","coordinates":[90.3833,23.7]}},{"type":"Feature","id":"c-025-e4b3b2a851","properties":{"elementId":"C-025","featureId":"c-025-e4b3b2a851","name":"Regenerative Agriculture with small holder farming communities of Bangladesh","kind":"k-18ffaa","kindLabel":"농업 (Agriculture)","sourceYear":"2026","recordIds":["bgd-v162-c-025-entity-00163"],"rowCount":1,"technology":"Sustainable Agriculture","issued":0},"geometry":{"type":"Point","coordinates":[90.39945,23.777172]}},{"type":"Feature","id":"c-025-9cbed6b7b5","properties":{"elementId":"C-025","featureId":"c-025-9cbed6b7b5","name":"Spectra Solar Park Ltd _35 MW AC Grid-Tied by Spectra Solar Park Limited","kind":"k-bd8702","kindLabel":"재생에너지 (Renewable Energy)","sourceYear":"2026","recordIds":["bgd-v162-c-025-entity-00158"],"rowCount":1,"technology":"Solar - Centralized","issued":33223},"geometry":{"type":"Point","coordinates":[90.3563,23.685]}}]}
