{"type":"FeatureCollection","name":"bgd-d-012","bbox":[88.4102,20.9805,92.2525,26.5156],"metadata":{"schemaVersion":"country-points-v162","countryIso3":"BGD","elementId":"D-012","featureCount":107,"sourceRowCount":114,"grouping":"rows with the same coordinate and name are one feature (recordIds, rowCount)","outlineBufferDeg":0.05},"features":[{"type":"Feature","id":"d-012-d5a51b1405","properties":{"elementId":"D-012","featureId":"d-012-d5a51b1405","name":"Aminbazar Waste-To-Energy power station","kind":"k-2ba38c","kindLabel":"바이오에너지","sourceYear":"2026","recordIds":["bgd-v162-d-012-entity-00120","bgd-v162-d-012-entity-00121"],"rowCount":2,"nationality":"미상(GEM 미제공)","entryType":"발전설비 소유·운영","status":"construction"},"geometry":{"type":"Point","coordinates":[90.298461,23.795258]}},{"type":"Feature","id":"d-012-e702c293f6","properties":{"elementId":"D-012","featureId":"d-012-e702c293f6","name":"Anwara Upazila solar project","kind":"k-3aedd5","kindLabel":"태양광","sourceYear":"2026","recordIds":["bgd-v162-d-012-entity-00057"],"rowCount":1,"nationality":"미상(GEM 미제공)","entryType":"발전설비 소유·운영","status":"operating"},"geometry":{"type":"Point","coordinates":[91.8344,22.229]}},{"type":"Feature","id":"d-012-0c59227470","properties":{"elementId":"D-012","featureId":"d-012-0c59227470","name":"Baraiyarhat solar farm","kind":"k-3aedd5","kindLabel":"태양광","sourceYear":"2026","recordIds":["bgd-v162-d-012-entity-00021"],"rowCount":1,"nationality":"Bangladesh(100%)","entryType":"발전설비 소유·운영","status":"pre-construction"},"geometry":{"type":"Point","coordinates":[91.5339,22.8926]}},{"type":"Feature","id":"d-012-b7a8b28620","properties":{"elementId":"D-012","featureId":"d-012-b7a8b28620","name":"Barapkuria solar farm","kind":"k-3aedd5","kindLabel":"태양광","sourceYear":"2026","recordIds":["bgd-v162-d-012-entity-00016","bgd-v162-d-012-entity-00035"],"rowCount":2,"entryType":"발전설비 소유·운영","status":"pre-construction"},"geometry":{"type":"Point","coordinates":[88.9606,25.5467]}},{"type":"Feature","id":"d-012-747a8a027e","properties":{"elementId":"D-012","featureId":"d-012-747a8a027e","name":"Bay of Bengal solar farm","kind":"k-3aedd5","kindLabel":"태양광","sourceYear":"2026","recordIds":["bgd-v162-d-012-entity-00076"],"rowCount":1,"nationality":"미상(GEM 소유자 미등재)","entryType":"발전설비 소유·운영","status":"announced"},"geometry":{"type":"Point","coordinates":[91.9102,21.6031]}},{"type":"Feature","id":"d-012-4c3843e64d","properties":{"elementId":"D-012","featureId":"d-012-4c3843e64d","name":"Bhaluka Upazila solar project","kind":"k-3aedd5","kindLabel":"태양광","sourceYear":"2026","recordIds":["bgd-v162-d-012-entity-00043"],"rowCount":1,"nationality":"미상(GEM 미제공)","entryType":"발전설비 소유·운영","status":"operating"},"geometry":{"type":"Point","coordinates":[90.3831,24.305]}},{"type":"Feature","id":"d-012-ee972542c9","properties":{"elementId":"D-012","featureId":"d-012-ee972542c9","name":"Bhuapur Upazila solar project","kind":"k-3aedd5","kindLabel":"태양광","sourceYear":"2026","recordIds":["bgd-v162-d-012-entity-00050"],"rowCount":1,"nationality":"미상(GEM 미제공)","entryType":"발전설비 소유·운영","status":"operating"},"geometry":{"type":"Point","coordinates":[89.8006,24.4038]}},{"type":"Feature","id":"d-012-919304b605","properties":{"elementId":"D-012","featureId":"d-012-919304b605","name":"Boalmari Upazila solar project","kind":"k-3aedd5","kindLabel":"태양광","sourceYear":"2026","recordIds":["bgd-v162-d-012-entity-00065"],"rowCount":1,"nationality":"미상(GEM 미제공)","entryType":"발전설비 소유·운영","status":"operating"},"geometry":{"type":"Point","coordinates":[89.7057,23.4333]}},{"type":"Feature","id":"d-012-dfd33f23ff","properties":{"elementId":"D-012","featureId":"d-012-dfd33f23ff","name":"Brahmanbaria Waste-to-Energy power station","kind":"k-2ba38c","kindLabel":"바이오에너지","sourceYear":"2026","recordIds":["bgd-v162-d-012-entity-00119"],"rowCount":1,"nationality":"미상(GEM 미제공)","entryType":"발전설비 소유·운영","status":"pre-construction"},"geometry":{"type":"Point","coordinates":[91.1040793,23.9906033]}},{"type":"Feature","id":"d-012-4defb78bde","properties":{"elementId":"D-012","featureId":"d-012-4defb78bde","name":"Chakaria solar farm","kind":"k-3aedd5","kindLabel":"태양광","sourceYear":"2026","recordIds":["bgd-v162-d-012-entity-00085"],"rowCount":1,"nationality":"미상(GEM 소유자 미등재)","entryType":"발전설비 소유·운영","status":"shelved"},"geometry":{"type":"Point","coordinates":[92.0766,21.7608]}},{"type":"Feature","id":"d-012-169ec4a0be","properties":{"elementId":"D-012","featureId":"d-012-169ec4a0be","name":"Chakaria wind farm","kind":"k-44de39","kindLabel":"풍력","sourceYear":"2026","recordIds":["bgd-v162-d-012-entity-00112"],"rowCount":1,"nationality":"미상(GEM 소유자 미등재)","entryType":"발전설비 소유·운영","status":"pre-construction"},"geometry":{"type":"Point","coordinates":[92.0809,21.7613]}},{"type":"Feature","id":"d-012-969e01ee8d","properties":{"elementId":"D-012","featureId":"d-012-969e01ee8d","name":"Chaklahat Union Panchagarh Sadar Upazila solar project","kind":"k-3aedd5","kindLabel":"태양광","sourceYear":"2026","recordIds":["bgd-v162-d-012-entity-00056"],"rowCount":1,"nationality":"미상(GEM 미제공)","entryType":"발전설비 소유·운영","status":"operating"},"geometry":{"type":"Point","coordinates":[88.6886,26.327]}},{"type":"Feature","id":"d-012-41a5386045","properties":{"elementId":"D-012","featureId":"d-012-41a5386045","name":"Chandpur solar farm","kind":"k-3aedd5","kindLabel":"태양광","sourceYear":"2026","recordIds":["bgd-v162-d-012-entity-00070"],"rowCount":1,"nationality":"미상(GEM 소유자 미등재)","entryType":"발전설비 소유·운영","status":"cancelled - inferred 4 y"},"geometry":{"type":"Point","coordinates":[90.9501,23.2253]}},{"type":"Feature","id":"d-012-c13846b926","properties":{"elementId":"D-012","featureId":"d-012-c13846b926","name":"Chandpur wind farm","kind":"k-44de39","kindLabel":"풍력","sourceYear":"2026","recordIds":["bgd-v162-d-012-entity-00111"],"rowCount":1,"nationality":"미상(GEM 미제공)","entryType":"발전설비 소유·운영","status":"shelved - inferred 2 y"},"geometry":{"type":"Point","coordinates":[90.7097,23.247]}},{"type":"Feature","id":"d-012-1474707ea4","properties":{"elementId":"D-012","featureId":"d-012-1474707ea4","name":"Chattogram solar farm","kind":"k-3aedd5","kindLabel":"태양광","sourceYear":"2026","recordIds":["bgd-v162-d-012-entity-00059","bgd-v162-d-012-entity-00060","bgd-v162-d-012-entity-00061"],"rowCount":3,"nationality":"미상(GEM 미제공)","entryType":"발전설비 소유·운영","status":"announced"},"geometry":{"type":"Point","coordinates":[91.7936,22.3442]}},{"type":"Feature","id":"d-012-dc420077ee","properties":{"elementId":"D-012","featureId":"d-012-dc420077ee","name":"Chittagong - Givent DLC Green Energy Offshore wind farm","kind":"k-44de39","kindLabel":"풍력","sourceYear":"2026","recordIds":["bgd-v162-d-012-entity-00113"],"rowCount":1,"nationality":"미상(GEM 소유자 미등재)","entryType":"발전설비 소유·운영","status":"cancelled - inferred 4 y"},"geometry":{"type":"Point","coordinates":[91.801,22.101]}},{"type":"Feature","id":"d-012-a63e43b466","properties":{"elementId":"D-012","featureId":"d-012-a63e43b466","name":"Chuadanga solar farm","kind":"k-3aedd5","kindLabel":"태양광","sourceYear":"2026","recordIds":["bgd-v162-d-012-entity-00092"],"rowCount":1,"nationality":"미상(GEM 소유자 미등재)","entryType":"발전설비 소유·운영","status":"announced"},"geometry":{"type":"Point","coordinates":[88.8591,23.6383]}},{"type":"Feature","id":"d-012-8224b69bad","properties":{"elementId":"D-012","featureId":"d-012-8224b69bad","name":"Cox’s Bazar solar farm","kind":"k-3aedd5","kindLabel":"태양광","sourceYear":"2026","recordIds":["bgd-v162-d-012-entity-00077","bgd-v162-d-012-entity-00086"],"rowCount":2,"nationality":"미상(GEM 소유자 미등재)","entryType":"발전설비 소유·운영","status":"shelved - inferred 2 y"},"geometry":{"type":"Point","coordinates":[92.0059,21.4532]}},{"type":"Feature","id":"d-012-dc9fa75740","properties":{"elementId":"D-012","featureId":"d-012-dc9fa75740","name":"Dhaka Dhaka Metropolitan solar project","kind":"k-3aedd5","kindLabel":"태양광","sourceYear":"2026","recordIds":["bgd-v162-d-012-entity-00054"],"rowCount":1,"nationality":"미상(GEM 미제공)","entryType":"발전설비 소유·운영","status":"operating"},"geometry":{"type":"Point","coordinates":[90.397,23.8585]}},{"type":"Feature","id":"d-012-de3668d20d","properties":{"elementId":"D-012","featureId":"d-012-de3668d20d","name":"Dharmapasa solar farm","kind":"k-3aedd5","kindLabel":"태양광","sourceYear":"2026","recordIds":["bgd-v162-d-012-entity-00088"],"rowCount":1,"nationality":"미상(GEM 소유자 미등재)","entryType":"발전설비 소유·운영","status":"shelved - inferred 2 y"},"geometry":{"type":"Point","coordinates":[91.0122,24.9012]}},{"type":"Feature","id":"d-012-7c8841e293","properties":{"elementId":"D-012","featureId":"d-012-7c8841e293","name":"Dhorola solar farm","kind":"k-3aedd5","kindLabel":"태양광","sourceYear":"2026","recordIds":["bgd-v162-d-012-entity-00018"],"rowCount":1,"nationality":"Bangladesh(100%)","entryType":"발전설비 소유·운영","status":"cancelled"},"geometry":{"type":"Point","coordinates":[89.6292,25.8093]}},{"type":"Feature","id":"d-012-2d06771b59","properties":{"elementId":"D-012","featureId":"d-012-2d06771b59","name":"Dimla solar farm","kind":"k-3aedd5","kindLabel":"태양광","sourceYear":"2026","recordIds":["bgd-v162-d-012-entity-00093"],"rowCount":1,"nationality":"미상(GEM 소유자 미등재)","entryType":"발전설비 소유·운영","status":"shelved - inferred 2 y"},"geometry":{"type":"Point","coordinates":[88.94,26.1363]}},{"type":"Feature","id":"d-012-83d0fb1e10","properties":{"elementId":"D-012","featureId":"d-012-83d0fb1e10","name":"Faridpur solar farm","kind":"k-3aedd5","kindLabel":"태양광","sourceYear":"2026","recordIds":["bgd-v162-d-012-entity-00045"],"rowCount":1,"nationality":"미상(GEM 미제공)","entryType":"발전설비 소유·운영","status":"cancelled"},"geometry":{"type":"Point","coordinates":[89.9156,23.5983]}},{"type":"Feature","id":"d-012-bf24efa1d3","properties":{"elementId":"D-012","featureId":"d-012-bf24efa1d3","name":"Feni solar farm","kind":"k-3aedd5","kindLabel":"태양광","sourceYear":"2026","recordIds":["bgd-v162-d-012-entity-00009","bgd-v162-d-012-entity-00010"],"rowCount":2,"nationality":"Bangladesh(100%)","entryType":"발전설비 소유·운영","status":"pre-construction"},"geometry":{"type":"Point","coordinates":[91.3118,23.2279]}},{"type":"Feature","id":"d-012-ff28611719","properties":{"elementId":"D-012","featureId":"d-012-ff28611719","name":"Feni solar farm","kind":"k-3aedd5","kindLabel":"태양광","sourceYear":"2026","recordIds":["bgd-v162-d-012-entity-00008"],"rowCount":1,"nationality":"Bangladesh(100%)","entryType":"발전설비 소유·운영","status":"pre-construction"},"geometry":{"type":"Point","coordinates":[91.3747,22.7901]}},{"type":"Feature","id":"d-012-ca3bdfe19c","properties":{"elementId":"D-012","featureId":"d-012-ca3bdfe19c","name":"Gaibandha Beximco solar farm","kind":"k-3aedd5","kindLabel":"태양광","sourceYear":"2026","recordIds":["bgd-v162-d-012-entity-00081"],"rowCount":1,"nationality":"미상(GEM 소유자 미등재)","entryType":"발전설비 소유·운영","status":"operating"},"geometry":{"type":"Point","coordinates":[89.5417,25.3288]}},{"type":"Feature","id":"d-012-a60e19d6ba","properties":{"elementId":"D-012","featureId":"d-012-a60e19d6ba","name":"Gaizpur City Waste-to-Energy power station","kind":"k-2ba38c","kindLabel":"바이오에너지","sourceYear":"2026","recordIds":["bgd-v162-d-012-entity-00122"],"rowCount":1,"nationality":"미상(GEM 미제공)","entryType":"발전설비 소유·운영","status":"operating"},"geometry":{"type":"Point","coordinates":[90.4203,23.9999]}},{"type":"Feature","id":"d-012-53fd2a909d","properties":{"elementId":"D-012","featureId":"d-012-53fd2a909d","name":"Gangachara (Intraco) solar farm","kind":"k-3aedd5","kindLabel":"태양광","sourceYear":"2026","recordIds":["bgd-v162-d-012-entity-00090"],"rowCount":1,"nationality":"미상(GEM 소유자 미등재)","entryType":"발전설비 소유·운영","status":"cancelled - inferred 4 y"},"geometry":{"type":"Point","coordinates":[89.2204,25.853]}},{"type":"Feature","id":"d-012-3f8c4c1bdb","properties":{"elementId":"D-012","featureId":"d-012-3f8c4c1bdb","name":"Gangachara (OCK) solar farm","kind":"k-3aedd5","kindLabel":"태양광","sourceYear":"2026","recordIds":["bgd-v162-d-012-entity-00071"],"rowCount":1,"nationality":"미상(GEM 소유자 미등재)","entryType":"발전설비 소유·운영","status":"cancelled - inferred 4 y"},"geometry":{"type":"Point","coordinates":[89.2204,25.853]}},{"type":"Feature","id":"d-012-e887f3ea52","properties":{"elementId":"D-012","featureId":"d-012-e887f3ea52","name":"Gazaria solar farm","kind":"k-3aedd5","kindLabel":"태양광","sourceYear":"2026","recordIds":["bgd-v162-d-012-entity-00022"],"rowCount":1,"nationality":"Bangladesh(100%)","entryType":"발전설비 소유·운영","status":"shelved - inferred 2 y"},"geometry":{"type":"Point","coordinates":[90.6407,23.5803]}},{"type":"Feature","id":"d-012-93ba3b7734","properties":{"elementId":"D-012","featureId":"d-012-93ba3b7734","name":"Gazipur Sadar solar project","kind":"k-3aedd5","kindLabel":"태양광","sourceYear":"2026","recordIds":["bgd-v162-d-012-entity-00051"],"rowCount":1,"nationality":"미상(GEM 미제공)","entryType":"발전설비 소유·운영","status":"operating"},"geometry":{"type":"Point","coordinates":[90.4039,24.1544]}},{"type":"Feature","id":"d-012-da36c881ce","properties":{"elementId":"D-012","featureId":"d-012-da36c881ce","name":"Ghosh Para solar farm","kind":"k-3aedd5","kindLabel":"태양광","sourceYear":"2026","recordIds":["bgd-v162-d-012-entity-00094"],"rowCount":1,"nationality":"미상(GEM 소유자 미등재)","entryType":"발전설비 소유·운영","status":"cancelled - inferred 4 y"},"geometry":{"type":"Point","coordinates":[89.9179,24.2844]}},{"type":"Feature","id":"d-012-1c84b7297b","properties":{"elementId":"D-012","featureId":"d-012-1c84b7297b","name":"Inani wind farm","kind":"k-44de39","kindLabel":"풍력","sourceYear":"2026","recordIds":["bgd-v162-d-012-entity-00114"],"rowCount":1,"nationality":"미상(GEM 소유자 미등재)","entryType":"발전설비 소유·운영","status":"announced"},"geometry":{"type":"Point","coordinates":[92.0704,21.1586]}},{"type":"Feature","id":"d-012-dc24221462","properties":{"elementId":"D-012","featureId":"d-012-dc24221462","name":"Jamuna solar farm","kind":"k-3aedd5","kindLabel":"태양광","sourceYear":"2026","recordIds":["bgd-v162-d-012-entity-00027"],"rowCount":1,"nationality":"Bangladesh(100%)[추정]","entryType":"발전설비 소유·운영","status":"operating"},"geometry":{"type":"Point","coordinates":[89.7353,24.3999]}},{"type":"Feature","id":"d-012-03e3ca98cc","properties":{"elementId":"D-012","featureId":"d-012-03e3ca98cc","name":"Kalapara solar farm","kind":"k-3aedd5","kindLabel":"태양광","sourceYear":"2026","recordIds":["bgd-v162-d-012-entity-00046"],"rowCount":1,"nationality":"미상(GEM 미제공)","entryType":"발전설비 소유·운영","status":"announced"},"geometry":{"type":"Point","coordinates":[90.2311,21.9876]}},{"type":"Feature","id":"d-012-87ed67c4db","properties":{"elementId":"D-012","featureId":"d-012-87ed67c4db","name":"Kaliakair solar project I","kind":"k-3aedd5","kindLabel":"태양광","sourceYear":"2026","recordIds":["bgd-v162-d-012-entity-00052"],"rowCount":1,"nationality":"미상(GEM 미제공)","entryType":"발전설비 소유·운영","status":"operating"},"geometry":{"type":"Point","coordinates":[90.2957,24.0686]}},{"type":"Feature","id":"d-012-ef5f046a61","properties":{"elementId":"D-012","featureId":"d-012-ef5f046a61","name":"Kaliakair solar project II","kind":"k-3aedd5","kindLabel":"태양광","sourceYear":"2026","recordIds":["bgd-v162-d-012-entity-00041"],"rowCount":1,"nationality":"미상(GEM 미제공)","entryType":"발전설비 소유·운영","status":"operating"},"geometry":{"type":"Point","coordinates":[90.2979,24.0837]}},{"type":"Feature","id":"d-012-6a15f84bf3","properties":{"elementId":"D-012","featureId":"d-012-6a15f84bf3","name":"Kaliakair solar project III","kind":"k-3aedd5","kindLabel":"태양광","sourceYear":"2026","recordIds":["bgd-v162-d-012-entity-00040"],"rowCount":1,"nationality":"미상(GEM 미제공)","entryType":"발전설비 소유·운영","status":"operating"},"geometry":{"type":"Point","coordinates":[90.2188,24.0375]}},{"type":"Feature","id":"d-012-b363753907","properties":{"elementId":"D-012","featureId":"d-012-b363753907","name":"Kaliakair solar project IV","kind":"k-3aedd5","kindLabel":"태양광","sourceYear":"2026","recordIds":["bgd-v162-d-012-entity-00055"],"rowCount":1,"nationality":"미상(GEM 미제공)","entryType":"발전설비 소유·운영","status":"operating"},"geometry":{"type":"Point","coordinates":[90.2582,24.0326]}},{"type":"Feature","id":"d-012-083f8fdc24","properties":{"elementId":"D-012","featureId":"d-012-083f8fdc24","name":"Kaliganj Upazila solar project","kind":"k-3aedd5","kindLabel":"태양광","sourceYear":"2026","recordIds":["bgd-v162-d-012-entity-00049"],"rowCount":1,"nationality":"미상(GEM 미제공)","entryType":"발전설비 소유·운영","status":"operating"},"geometry":{"type":"Point","coordinates":[90.5625,23.9195]}},{"type":"Feature","id":"d-012-2b67b83ca4","properties":{"elementId":"D-012","featureId":"d-012-2b67b83ca4","name":"Kaptai Lake solar farm","kind":"k-3aedd5","kindLabel":"태양광","sourceYear":"2026","recordIds":["bgd-v162-d-012-entity-00066"],"rowCount":1,"nationality":"미상(GEM 미제공)","entryType":"발전설비 소유·운영","status":"cancelled"},"geometry":{"type":"Point","coordinates":[92.2119,22.5017]}},{"type":"Feature","id":"d-012-7c164f3691","properties":{"elementId":"D-012","featureId":"d-012-7c164f3691","name":"Kaptai Upazila solar project","kind":"k-3aedd5","kindLabel":"태양광","sourceYear":"2026","recordIds":["bgd-v162-d-012-entity-00062"],"rowCount":1,"nationality":"미상(GEM 미제공)","entryType":"발전설비 소유·운영","status":"operating"},"geometry":{"type":"Point","coordinates":[92.2267,22.4914]}},{"type":"Feature","id":"d-012-8ca567840b","properties":{"elementId":"D-012","featureId":"d-012-8ca567840b","name":"Karnafuli hydroelectric plant","kind":"k-b3124d","kindLabel":"수력","sourceYear":"2026","recordIds":["bgd-v162-d-012-entity-00117"],"rowCount":1,"nationality":"Bangladesh(100%)","entryType":"발전설비 소유·운영","status":"operating"},"geometry":{"type":"Point","coordinates":[92.2254,22.4949]}},{"type":"Feature","id":"d-012-e15dfb1a41","properties":{"elementId":"D-012","featureId":"d-012-e15dfb1a41","name":"Khulna (Energon Renewables) solar farm","kind":"k-3aedd5","kindLabel":"태양광","sourceYear":"2026","recordIds":["bgd-v162-d-012-entity-00072"],"rowCount":1,"nationality":"미상(GEM 소유자 미등재)","entryType":"발전설비 소유·운영","status":"announced"},"geometry":{"type":"Point","coordinates":[89.4323,22.707]}},{"type":"Feature","id":"d-012-9af131f883","properties":{"elementId":"D-012","featureId":"d-012-9af131f883","name":"Khulna (Hero Future Energies) solar farm","kind":"k-3aedd5","kindLabel":"태양광","sourceYear":"2026","recordIds":["bgd-v162-d-012-entity-00102"],"rowCount":1,"nationality":"미상(GEM 소유자 미등재)","entryType":"발전설비 소유·운영","status":"pre-construction"},"geometry":{"type":"Point","coordinates":[89.5604,22.8111]}},{"type":"Feature","id":"d-012-1d7f7bf3c1","properties":{"elementId":"D-012","featureId":"d-012-1d7f7bf3c1","name":"Khurushkul wind farm","kind":"k-44de39","kindLabel":"풍력","sourceYear":"2026","recordIds":["bgd-v162-d-012-entity-00116"],"rowCount":1,"nationality":"미상(GEM 소유자 미등재)","entryType":"발전설비 소유·운영","status":"operating"},"geometry":{"type":"Point","coordinates":[92.0053,21.4347]}},{"type":"Feature","id":"d-012-c75df11a1f","properties":{"elementId":"D-012","featureId":"d-012-c75df11a1f","name":"Kushtia solar farm","kind":"k-3aedd5","kindLabel":"태양광","sourceYear":"2026","recordIds":["bgd-v162-d-012-entity-00067"],"rowCount":1,"nationality":"미상(GEM 미제공)","entryType":"발전설비 소유·운영","status":"shelved - inferred 2 y"},"geometry":{"type":"Point","coordinates":[89.0349,23.9669]}},{"type":"Feature","id":"d-012-7ac976d285","properties":{"elementId":"D-012","featureId":"d-012-7ac976d285","name":"Kushtia solar project","kind":"k-3aedd5","kindLabel":"태양광","sourceYear":"2026","recordIds":["bgd-v162-d-012-entity-00069"],"rowCount":1,"nationality":"미상(GEM 미제공)","entryType":"발전설비 소유·운영","status":"operating"},"geometry":{"type":"Point","coordinates":[89.1002,23.8788]}},{"type":"Feature","id":"d-012-8a47e72b4c","properties":{"elementId":"D-012","featureId":"d-012-8a47e72b4c","name":"Lama solar farm","kind":"k-3aedd5","kindLabel":"태양광","sourceYear":"2026","recordIds":["bgd-v162-d-012-entity-00032"],"rowCount":1,"nationality":"China","entryType":"발전설비 소유·운영","status":"cancelled"},"geometry":{"type":"Point","coordinates":[92.2007,21.7714]}},{"type":"Feature","id":"d-012-fe6abd3095","properties":{"elementId":"D-012","featureId":"d-012-fe6abd3095","name":"Madargonj (B-R Powergen) solar farm","kind":"k-3aedd5","kindLabel":"태양광","sourceYear":"2026","recordIds":["bgd-v162-d-012-entity-00011"],"rowCount":1,"nationality":"Bangladesh(100%)","entryType":"발전설비 소유·운영","status":"shelved"},"geometry":{"type":"Point","coordinates":[89.6966,24.8342]}},{"type":"Feature","id":"d-012-101e6e7863","properties":{"elementId":"D-012","featureId":"d-012-101e6e7863","name":"Madargonj (RPCL) solar farm","kind":"k-3aedd5","kindLabel":"태양광","sourceYear":"2026","recordIds":["bgd-v162-d-012-entity-00015"],"rowCount":1,"nationality":"Bangladesh(100%)","entryType":"발전설비 소유·운영","status":"shelved - inferred 2 y"},"geometry":{"type":"Point","coordinates":[89.7014,24.8307]}},{"type":"Feature","id":"d-012-a9e2d1606f","properties":{"elementId":"D-012","featureId":"d-012-a9e2d1606f","name":"Manikganj solar farm","kind":"k-3aedd5","kindLabel":"태양광","sourceYear":"2026","recordIds":["bgd-v162-d-012-entity-00089"],"rowCount":1,"nationality":"미상(GEM 소유자 미등재)","entryType":"발전설비 소유·운영","status":"operating"},"geometry":{"type":"Point","coordinates":[89.825,23.781]}},{"type":"Feature","id":"d-012-efcc2ad343","properties":{"elementId":"D-012","featureId":"d-012-efcc2ad343","name":"Matarbari wind farm","kind":"k-44de39","kindLabel":"풍력","sourceYear":"2026","recordIds":["bgd-v162-d-012-entity-00106"],"rowCount":1,"nationality":"Bangladesh(100%)","entryType":"발전설비 소유·운영","status":"announced"},"geometry":{"type":"Point","coordinates":[91.8953,21.739]}},{"type":"Feature","id":"d-012-cae4d89b56","properties":{"elementId":"D-012","featureId":"d-012-cae4d89b56","name":"Mirsharai solar farm","kind":"k-3aedd5","kindLabel":"태양광","sourceYear":"2026","recordIds":["bgd-v162-d-012-entity-00095"],"rowCount":1,"nationality":"미상(GEM 소유자 미등재)","entryType":"발전설비 소유·운영","status":"announced"},"geometry":{"type":"Point","coordinates":[91.5784,22.7674]}},{"type":"Feature","id":"d-012-7e482715a0","properties":{"elementId":"D-012","featureId":"d-012-7e482715a0","name":"Moheshkhali solar farm","kind":"k-3aedd5","kindLabel":"태양광","sourceYear":"2026","recordIds":["bgd-v162-d-012-entity-00099"],"rowCount":1,"nationality":"미상(GEM 소유자 미등재)","entryType":"발전설비 소유·운영","status":"announced"},"geometry":{"type":"Point","coordinates":[91.935,21.5988]}},{"type":"Feature","id":"d-012-14c184f928","properties":{"elementId":"D-012","featureId":"d-012-14c184f928","name":"Moidhara solar farm","kind":"k-3aedd5","kindLabel":"태양광","sourceYear":"2026","recordIds":["bgd-v162-d-012-entity-00075"],"rowCount":1,"nationality":"미상(GEM 소유자 미등재)","entryType":"발전설비 소유·운영","status":"operating"},"geometry":{"type":"Point","coordinates":[89.5726,22.5708]}},{"type":"Feature","id":"d-012-12701e5f48","properties":{"elementId":"D-012","featureId":"d-012-12701e5f48","name":"Mollahat solar farm","kind":"k-3aedd5","kindLabel":"태양광","sourceYear":"2026","recordIds":["bgd-v162-d-012-entity-00047"],"rowCount":1,"nationality":"미상(GEM 미제공)","entryType":"발전설비 소유·운영","status":"cancelled"},"geometry":{"type":"Point","coordinates":[89.4781,22.5016]}},{"type":"Feature","id":"d-012-0c69cb2ea8","properties":{"elementId":"D-012","featureId":"d-012-0c69cb2ea8","name":"Mongla solar farm","kind":"k-3aedd5","kindLabel":"태양광","sourceYear":"2026","recordIds":["bgd-v162-d-012-entity-00073"],"rowCount":1,"nationality":"미상(GEM 소유자 미등재)","entryType":"발전설비 소유·운영","status":"operating"},"geometry":{"type":"Point","coordinates":[89.7611,22.6501]}},{"type":"Feature","id":"d-012-bb6c016098","properties":{"elementId":"D-012","featureId":"d-012-bb6c016098","name":"Mongla wind farm","kind":"k-44de39","kindLabel":"풍력","sourceYear":"2026","recordIds":["bgd-v162-d-012-entity-00115"],"rowCount":1,"nationality":"미상(GEM 소유자 미등재)","entryType":"발전설비 소유·운영","status":"pre-construction"},"geometry":{"type":"Point","coordinates":[89.6036,22.4995]}},{"type":"Feature","id":"d-012-74c0a8cdf0","properties":{"elementId":"D-012","featureId":"d-012-74c0a8cdf0","name":"Moulvibazar solar farm","kind":"k-3aedd5","kindLabel":"태양광","sourceYear":"2026","recordIds":["bgd-v162-d-012-entity-00074"],"rowCount":1,"nationality":"미상(GEM 소유자 미등재)","entryType":"발전설비 소유·운영","status":"announced"},"geometry":{"type":"Point","coordinates":[91.9236,24.4847]}},{"type":"Feature","id":"d-012-51fff66370","properties":{"elementId":"D-012","featureId":"d-012-51fff66370","name":"Muktagacha solar farm","kind":"k-3aedd5","kindLabel":"태양광","sourceYear":"2026","recordIds":["bgd-v162-d-012-entity-00017"],"rowCount":1,"nationality":"Bangladesh(100%)","entryType":"발전설비 소유·운영","status":"construction"},"geometry":{"type":"Point","coordinates":[90.1981,24.7308]}},{"type":"Feature","id":"d-012-fe5a07c557","properties":{"elementId":"D-012","featureId":"d-012-fe5a07c557","name":"Mymensingh (Jiangsu Etern) solar farm","kind":"k-3aedd5","kindLabel":"태양광","sourceYear":"2026","recordIds":["bgd-v162-d-012-entity-00031"],"rowCount":1,"nationality":"China","entryType":"발전설비 소유·운영","status":"shelved - inferred 2 y"},"geometry":{"type":"Point","coordinates":[90.4984,24.6744]}},{"type":"Feature","id":"d-012-e12dde65f3","properties":{"elementId":"D-012","featureId":"d-012-e12dde65f3","name":"Mymensingh (Joules Power) solar farm","kind":"k-3aedd5","kindLabel":"태양광","sourceYear":"2026","recordIds":["bgd-v162-d-012-entity-00078"],"rowCount":1,"nationality":"미상(GEM 소유자 미등재)","entryType":"발전설비 소유·운영","status":"pre-construction"},"geometry":{"type":"Point","coordinates":[90.416,24.6869]}},{"type":"Feature","id":"d-012-ab3645e290","properties":{"elementId":"D-012","featureId":"d-012-ab3645e290","name":"Mymensingh Division solar project","kind":"k-3aedd5","kindLabel":"태양광","sourceYear":"2026","recordIds":["bgd-v162-d-012-entity-00053"],"rowCount":1,"nationality":"미상(GEM 미제공)","entryType":"발전설비 소유·운영","status":"operating"},"geometry":{"type":"Point","coordinates":[89.8426,24.7723]}},{"type":"Feature","id":"d-012-6404510559","properties":{"elementId":"D-012","featureId":"d-012-6404510559","name":"Netrokona solar farm","kind":"k-3aedd5","kindLabel":"태양광","sourceYear":"2026","recordIds":["bgd-v162-d-012-entity-00068"],"rowCount":1,"nationality":"미상(GEM 미제공)","entryType":"발전설비 소유·운영","status":"shelved - inferred 2 y"},"geometry":{"type":"Point","coordinates":[90.7277,24.8831]}},{"type":"Feature","id":"d-012-fcce9cc10d","properties":{"elementId":"D-012","featureId":"d-012-fcce9cc10d","name":"Nilphamari (Scatec) solar farm","kind":"k-3aedd5","kindLabel":"태양광","sourceYear":"2026","recordIds":["bgd-v162-d-012-entity-00096"],"rowCount":1,"nationality":"미상(GEM 소유자 미등재)","entryType":"발전설비 소유·운영","status":"cancelled"},"geometry":{"type":"Point","coordinates":[88.9336,26.1407]}},{"type":"Feature","id":"d-012-e2b600f5f0","properties":{"elementId":"D-012","featureId":"d-012-e2b600f5f0","name":"Nilphamari (Zhejiang Dunan) solar farm","kind":"k-3aedd5","kindLabel":"태양광","sourceYear":"2026","recordIds":["bgd-v162-d-012-entity-00029"],"rowCount":1,"nationality":"China","entryType":"발전설비 소유·운영","status":"cancelled - inferred 4 y"},"geometry":{"type":"Point","coordinates":[88.8469,25.9399]}},{"type":"Feature","id":"d-012-bd5aee6650","properties":{"elementId":"D-012","featureId":"d-012-bd5aee6650","name":"Pabna (BCRECL) solar farm","kind":"k-3aedd5","kindLabel":"태양광","sourceYear":"2026","recordIds":["bgd-v162-d-012-entity-00026"],"rowCount":1,"nationality":"Bangladesh(100%)[추정]","entryType":"발전설비 소유·운영","status":"operating"},"geometry":{"type":"Point","coordinates":[89.6107,23.8252]}},{"type":"Feature","id":"d-012-87dc8205ff","properties":{"elementId":"D-012","featureId":"d-012-87dc8205ff","name":"Pabna (Dynamic Sun Energy) solar farm","kind":"k-3aedd5","kindLabel":"태양광","sourceYear":"2026","recordIds":["bgd-v162-d-012-entity-00038"],"rowCount":1,"nationality":"United States; Bangladesh","entryType":"발전설비 소유·운영","status":"pre-construction"},"geometry":{"type":"Point","coordinates":[89.2505,24.0139]}},{"type":"Feature","id":"d-012-20c9d4b880","properties":{"elementId":"D-012","featureId":"d-012-20c9d4b880","name":"Pabna Solar Power","kind":"k-3aedd5","kindLabel":"태양광","sourceYear":"2026","recordIds":["bgd-v162-d-012-entity-00103"],"rowCount":1,"nationality":"미상(GEM 소유자 미등재)","entryType":"발전설비 소유·운영","status":"shelved - inferred 2 y"},"geometry":{"type":"Point","coordinates":[89.0699,24.1352]}},{"type":"Feature","id":"d-012-0abc0fa2f0","properties":{"elementId":"D-012","featureId":"d-012-0abc0fa2f0","name":"Padma Bridge solar farm","kind":"k-3aedd5","kindLabel":"태양광","sourceYear":"2026","recordIds":["bgd-v162-d-012-entity-00007"],"rowCount":1,"nationality":"Bangladesh","entryType":"발전설비 소유·운영","status":"pre-construction"},"geometry":{"type":"Point","coordinates":[90.2615,23.4136]}},{"type":"Feature","id":"d-012-bb0c761d29","properties":{"elementId":"D-012","featureId":"d-012-bb0c761d29","name":"Panchagarh (8Minutenergy) solar farm","kind":"k-3aedd5","kindLabel":"태양광","sourceYear":"2026","recordIds":["bgd-v162-d-012-entity-00097"],"rowCount":1,"nationality":"미상(GEM 소유자 미등재)","entryType":"발전설비 소유·운영","status":"shelved"},"geometry":{"type":"Point","coordinates":[88.7084,26.1307]}},{"type":"Feature","id":"d-012-da17616616","properties":{"elementId":"D-012","featureId":"d-012-da17616616","name":"Panchagarh (Beximco) solar farm","kind":"k-3aedd5","kindLabel":"태양광","sourceYear":"2026","recordIds":["bgd-v162-d-012-entity-00034"],"rowCount":1,"nationality":"China(20%)","entryType":"발전설비 소유·운영","status":"construction"},"geometry":{"type":"Point","coordinates":[88.4305,26.5156]}},{"type":"Feature","id":"d-012-cb1108804d","properties":{"elementId":"D-012","featureId":"d-012-cb1108804d","name":"Panchagarh (IB Vogt) solar farm","kind":"k-3aedd5","kindLabel":"태양광","sourceYear":"2026","recordIds":["bgd-v162-d-012-entity-00091"],"rowCount":1,"nationality":"미상(GEM 소유자 미등재)","entryType":"발전설비 소유·운영","status":"cancelled - inferred 4 y"},"geometry":{"type":"Point","coordinates":[88.5548,26.3331]}},{"type":"Feature","id":"d-012-1e23a646c7","properties":{"elementId":"D-012","featureId":"d-012-1e23a646c7","name":"Panchagarh (RPCL) solar farm","kind":"k-3aedd5","kindLabel":"태양광","sourceYear":"2026","recordIds":["bgd-v162-d-012-entity-00019"],"rowCount":1,"nationality":"Bangladesh(100%)","entryType":"발전설비 소유·운영","status":"shelved - inferred 2 y"},"geometry":{"type":"Point","coordinates":[88.6877,26.2387]}},{"type":"Feature","id":"d-012-ccf77f98cf","properties":{"elementId":"D-012","featureId":"d-012-ccf77f98cf","name":"Panchagarh (Rahimafrooz) solar farm","kind":"k-3aedd5","kindLabel":"태양광","sourceYear":"2026","recordIds":["bgd-v162-d-012-entity-00079"],"rowCount":1,"nationality":"미상(GEM 소유자 미등재)","entryType":"발전설비 소유·운영","status":"shelved - inferred 2 y"},"geometry":{"type":"Point","coordinates":[88.7534,26.123]}},{"type":"Feature","id":"d-012-1a231583ae","properties":{"elementId":"D-012","featureId":"d-012-1a231583ae","name":"Parki beach wind farm","kind":"k-44de39","kindLabel":"풍력","sourceYear":"2026","recordIds":["bgd-v162-d-012-entity-00104"],"rowCount":1,"nationality":"Bangladesh(100%)","entryType":"발전설비 소유·운영","status":"shelved - inferred 2 y"},"geometry":{"type":"Point","coordinates":[91.8144,22.1979]}},{"type":"Feature","id":"d-012-ff76022a03","properties":{"elementId":"D-012","featureId":"d-012-ff76022a03","name":"Patuakhali solar farm","kind":"k-3aedd5","kindLabel":"태양광","sourceYear":"2026","recordIds":["bgd-v162-d-012-entity-00012"],"rowCount":1,"nationality":"Bangladesh(100%)","entryType":"발전설비 소유·운영","status":"shelved - inferred 2 y"},"geometry":{"type":"Point","coordinates":[90.2292,21.9851]}},{"type":"Feature","id":"d-012-61a44efe7f","properties":{"elementId":"D-012","featureId":"d-012-61a44efe7f","name":"Patuakhali wind farm","kind":"k-44de39","kindLabel":"풍력","sourceYear":"2026","recordIds":["bgd-v162-d-012-entity-00105"],"rowCount":1,"nationality":"Bangladesh(100%)","entryType":"발전설비 소유·운영","status":"pre-construction"},"geometry":{"type":"Point","coordinates":[90.176,22.0161]}},{"type":"Feature","id":"d-012-5efd948ed9","properties":{"elementId":"D-012","featureId":"d-012-5efd948ed9","name":"Payra wind farm","kind":"k-44de39","kindLabel":"풍력","sourceYear":"2026","recordIds":["bgd-v162-d-012-entity-00107","bgd-v162-d-012-entity-00108"],"rowCount":2,"nationality":"Bangladesh(100%)[추정]","entryType":"발전설비 소유·운영","status":"announced"},"geometry":{"type":"Point","coordinates":[90.3099,22.0054]}},{"type":"Feature","id":"d-012-bb9c89da97","properties":{"elementId":"D-012","featureId":"d-012-bb9c89da97","name":"Raipura solar farm","kind":"k-3aedd5","kindLabel":"태양광","sourceYear":"2026","recordIds":["bgd-v162-d-012-entity-00014"],"rowCount":1,"nationality":"Bangladesh(100%)","entryType":"발전설비 소유·운영","status":"shelved - inferred 2 y"},"geometry":{"type":"Point","coordinates":[90.8732,23.9913]}},{"type":"Feature","id":"d-012-4425446545","properties":{"elementId":"D-012","featureId":"d-012-4425446545","name":"Rajbari solar farm","kind":"k-3aedd5","kindLabel":"태양광","sourceYear":"2026","recordIds":["bgd-v162-d-012-entity-00030"],"rowCount":1,"nationality":"China","entryType":"발전설비 소유·운영","status":"announced"},"geometry":{"type":"Point","coordinates":[89.5508,23.7277]}},{"type":"Feature","id":"d-012-7675556e88","properties":{"elementId":"D-012","featureId":"d-012-7675556e88","name":"Rampal solar farm","kind":"k-3aedd5","kindLabel":"태양광","sourceYear":"2026","recordIds":["bgd-v162-d-012-entity-00037"],"rowCount":1,"nationality":"Saudi Arabia(100%)","entryType":"발전설비 소유·운영","status":"shelved - inferred 2 y"},"geometry":{"type":"Point","coordinates":[89.556,22.591]}},{"type":"Feature","id":"d-012-af51ddd11b","properties":{"elementId":"D-012","featureId":"d-012-af51ddd11b","name":"Rangpur (BPDB) solar farm","kind":"k-3aedd5","kindLabel":"태양광","sourceYear":"2026","recordIds":["bgd-v162-d-012-entity-00025"],"rowCount":1,"nationality":"Bangladesh(100%)","entryType":"발전설비 소유·운영","status":"shelved - inferred 2 y"},"geometry":{"type":"Point","coordinates":[89.2214,25.8559]}},{"type":"Feature","id":"d-012-a89ee3170a","properties":{"elementId":"D-012","featureId":"d-012-a89ee3170a","name":"Rangpur (Intraco) solar farm","kind":"k-3aedd5","kindLabel":"태양광","sourceYear":"2026","recordIds":["bgd-v162-d-012-entity-00087"],"rowCount":1,"nationality":"미상(GEM 소유자 미등재)","entryType":"발전설비 소유·운영","status":"operating"},"geometry":{"type":"Point","coordinates":[89.2225,25.8553]}},{"type":"Feature","id":"d-012-29d44dda1b","properties":{"elementId":"D-012","featureId":"d-012-29d44dda1b","name":"Rangunia (Metito) solar farm","kind":"k-3aedd5","kindLabel":"태양광","sourceYear":"2026","recordIds":["bgd-v162-d-012-entity-00100"],"rowCount":1,"nationality":"미상(GEM 소유자 미등재)","entryType":"발전설비 소유·운영","status":"pre-construction"},"geometry":{"type":"Point","coordinates":[92.0077,22.4504]}},{"type":"Feature","id":"d-012-25cfb2ec79","properties":{"elementId":"D-012","featureId":"d-012-25cfb2ec79","name":"Rangunia solar farm","kind":"k-3aedd5","kindLabel":"태양광","sourceYear":"2026","recordIds":["bgd-v162-d-012-entity-00036"],"rowCount":1,"nationality":"Saudi Arabia","entryType":"발전설비 소유·운영","status":"shelved - inferred 2 y"},"geometry":{"type":"Point","coordinates":[92.0077,22.4504]}},{"type":"Feature","id":"d-012-cc50e40f62","properties":{"elementId":"D-012","featureId":"d-012-cc50e40f62","name":"Regen Sonagazi wind farm","kind":"k-44de39","kindLabel":"풍력","sourceYear":"2026","recordIds":["bgd-v162-d-012-entity-00110"],"rowCount":1,"nationality":"미상(GEM 미제공)","entryType":"발전설비 소유·운영","status":"shelved - inferred 2 y"},"geometry":{"type":"Point","coordinates":[91.3892,22.8705]}},{"type":"Feature","id":"d-012-185409e740","properties":{"elementId":"D-012","featureId":"d-012-185409e740","name":"Robi Axiata solar farm","kind":"k-3aedd5","kindLabel":"태양광","sourceYear":"2026","recordIds":["bgd-v162-d-012-entity-00048"],"rowCount":1,"nationality":"미상(GEM 미제공)","entryType":"발전설비 소유·운영","status":"announced"},"geometry":{"type":"Point","coordinates":[90.1203,23.8566]}},{"type":"Feature","id":"d-012-d5d746ce9f","properties":{"elementId":"D-012","featureId":"d-012-d5d746ce9f","name":"Rupganj Upazila solar project","kind":"k-3aedd5","kindLabel":"태양광","sourceYear":"2026","recordIds":["bgd-v162-d-012-entity-00039"],"rowCount":1,"nationality":"미상(GEM 미제공)","entryType":"발전설비 소유·운영","status":"operating"},"geometry":{"type":"Point","coordinates":[90.5495,23.7644]}},{"type":"Feature","id":"d-012-405ac655d2","properties":{"elementId":"D-012","featureId":"d-012-405ac655d2","name":"Saturia Subdistrict solar project I","kind":"k-3aedd5","kindLabel":"태양광","sourceYear":"2026","recordIds":["bgd-v162-d-012-entity-00058"],"rowCount":1,"nationality":"미상(GEM 미제공)","entryType":"발전설비 소유·운영","status":"operating"},"geometry":{"type":"Point","coordinates":[90.0578,23.906]}},{"type":"Feature","id":"d-012-61c90bc8bc","properties":{"elementId":"D-012","featureId":"d-012-61c90bc8bc","name":"Saturia Subdistrict solar project II","kind":"k-3aedd5","kindLabel":"태양광","sourceYear":"2026","recordIds":["bgd-v162-d-012-entity-00042"],"rowCount":1,"nationality":"미상(GEM 미제공)","entryType":"발전설비 소유·운영","status":"operating"},"geometry":{"type":"Point","coordinates":[90.0816,23.9179]}},{"type":"Feature","id":"d-012-2355b54453","properties":{"elementId":"D-012","featureId":"d-012-2355b54453","name":"Savar Subdistrict solar project","kind":"k-3aedd5","kindLabel":"태양광","sourceYear":"2026","recordIds":["bgd-v162-d-012-entity-00063"],"rowCount":1,"nationality":"미상(GEM 미제공)","entryType":"발전설비 소유·운영","status":"operating"},"geometry":{"type":"Point","coordinates":[90.2922,23.9648]}},{"type":"Feature","id":"d-012-48c3fcde86","properties":{"elementId":"D-012","featureId":"d-012-48c3fcde86","name":"Sirajganji solar farm","kind":"k-3aedd5","kindLabel":"태양광","sourceYear":"2026","recordIds":["bgd-v162-d-012-entity-00028"],"rowCount":1,"nationality":"Bangladesh(100%)[추정]","entryType":"발전설비 소유·운영","status":"operating"},"geometry":{"type":"Point","coordinates":[89.737,24.399]}},{"type":"Feature","id":"d-012-bf5324005a","properties":{"elementId":"D-012","featureId":"d-012-bf5324005a","name":"Sonagazi (BPDB) solar farm","kind":"k-3aedd5","kindLabel":"태양광","sourceYear":"2026","recordIds":["bgd-v162-d-012-entity-00013"],"rowCount":1,"nationality":"Bangladesh(100%)","entryType":"발전설비 소유·운영","status":"shelved - inferred 2 y"},"geometry":{"type":"Point","coordinates":[91.3865,22.8806]}},{"type":"Feature","id":"d-012-b5bc338488","properties":{"elementId":"D-012","featureId":"d-012-b5bc338488","name":"Sonagazi (Beza) solar farm","kind":"k-3aedd5","kindLabel":"태양광","sourceYear":"2026","recordIds":["bgd-v162-d-012-entity-00082"],"rowCount":1,"nationality":"미상(GEM 소유자 미등재)","entryType":"발전설비 소유·운영","status":"announced"},"geometry":{"type":"Point","coordinates":[91.3916,22.8693]}},{"type":"Feature","id":"d-012-0826745a38","properties":{"elementId":"D-012","featureId":"d-012-0826745a38","name":"Sonagazi (EGCB) solar farm","kind":"k-3aedd5","kindLabel":"태양광","sourceYear":"2026","recordIds":["bgd-v162-d-012-entity-00024"],"rowCount":1,"nationality":"Bangladesh(100%)","entryType":"발전설비 소유·운영","status":"operating"},"geometry":{"type":"Point","coordinates":[91.3669,22.7911]}},{"type":"Feature","id":"d-012-055f581c23","properties":{"elementId":"D-012","featureId":"d-012-055f581c23","name":"Sujanagar solar farm","kind":"k-3aedd5","kindLabel":"태양광","sourceYear":"2026","recordIds":["bgd-v162-d-012-entity-00101"],"rowCount":1,"nationality":"미상(GEM 소유자 미등재)","entryType":"발전설비 소유·운영","status":"cancelled - inferred 4 y"},"geometry":{"type":"Point","coordinates":[89.4072,23.9422]}},{"type":"Feature","id":"d-012-3e70bddfcf","properties":{"elementId":"D-012","featureId":"d-012-3e70bddfcf","name":"Sundarganj solar farm","kind":"k-3aedd5","kindLabel":"태양광","sourceYear":"2026","recordIds":["bgd-v162-d-012-entity-00033"],"rowCount":1,"nationality":"China(20%)","entryType":"발전설비 소유·운영","status":"operating"},"geometry":{"type":"Point","coordinates":[89.5174,25.5662]}},{"type":"Feature","id":"d-012-691710606d","properties":{"elementId":"D-012","featureId":"d-012-691710606d","name":"Sutiakhali solar farm","kind":"k-3aedd5","kindLabel":"태양광","sourceYear":"2026","recordIds":["bgd-v162-d-012-entity-00098"],"rowCount":1,"nationality":"미상(GEM 소유자 미등재)","entryType":"발전설비 소유·운영","status":"operating"},"geometry":{"type":"Point","coordinates":[90.4567,24.7069]}},{"type":"Feature","id":"d-012-cf9535fddc","properties":{"elementId":"D-012","featureId":"d-012-cf9535fddc","name":"Syedabad solar project","kind":"k-3aedd5","kindLabel":"태양광","sourceYear":"2026","recordIds":["bgd-v162-d-012-entity-00064"],"rowCount":1,"nationality":"미상(GEM 미제공)","entryType":"발전설비 소유·운영","status":"operating"},"geometry":{"type":"Point","coordinates":[89.7489,24.3862]}},{"type":"Feature","id":"d-012-35355f5b58","properties":{"elementId":"D-012","featureId":"d-012-35355f5b58","name":"Teknaf (Sunedison) solar farm","kind":"k-3aedd5","kindLabel":"태양광","sourceYear":"2026","recordIds":["bgd-v162-d-012-entity-00083"],"rowCount":1,"nationality":"미상(GEM 소유자 미등재)","entryType":"발전설비 소유·운영","status":"cancelled"},"geometry":{"type":"Point","coordinates":[92.2208,20.9917]}},{"type":"Feature","id":"d-012-57fc6e7122","properties":{"elementId":"D-012","featureId":"d-012-57fc6e7122","name":"Teknaf (Tsel) solar farm","kind":"k-3aedd5","kindLabel":"태양광","sourceYear":"2026","recordIds":["bgd-v162-d-012-entity-00080"],"rowCount":1,"nationality":"미상(GEM 소유자 미등재)","entryType":"발전설비 소유·운영","status":"operating"},"geometry":{"type":"Point","coordinates":[92.2525,20.9805]}},{"type":"Feature","id":"d-012-c6f97cac3a","properties":{"elementId":"D-012","featureId":"d-012-c6f97cac3a","name":"Tetulia solar project","kind":"k-3aedd5","kindLabel":"태양광","sourceYear":"2026","recordIds":["bgd-v162-d-012-entity-00044"],"rowCount":1,"nationality":"미상(GEM 미제공)","entryType":"발전설비 소유·운영","status":"operating"},"geometry":{"type":"Point","coordinates":[88.4102,26.4829]}},{"type":"Feature","id":"d-012-39ba4f874e","properties":{"elementId":"D-012","featureId":"d-012-39ba4f874e","name":"Thakurgain geothermal plant","kind":"k-e45c7e","kindLabel":"지열","sourceYear":"2026","recordIds":["bgd-v162-d-012-entity-00118"],"rowCount":1,"nationality":"미상(GEM 소유자 미등재)","entryType":"발전설비 소유·운영","status":"cancelled - inferred 4 y"},"geometry":{"type":"Point","coordinates":[90.2934,24.4769]}},{"type":"Feature","id":"d-012-59c16adc23","properties":{"elementId":"D-012","featureId":"d-012-59c16adc23","name":"Trishal (Energon) solar farm","kind":"k-3aedd5","kindLabel":"태양광","sourceYear":"2026","recordIds":["bgd-v162-d-012-entity-00084"],"rowCount":1,"nationality":"미상(GEM 소유자 미등재)","entryType":"발전설비 소유·운영","status":"pre-construction"},"geometry":{"type":"Point","coordinates":[90.4174,24.5762]}},{"type":"Feature","id":"d-012-c32eac5a46","properties":{"elementId":"D-012","featureId":"d-012-c32eac5a46","name":"Trishal solar farm","kind":"k-3aedd5","kindLabel":"태양광","sourceYear":"2026","recordIds":["bgd-v162-d-012-entity-00020"],"rowCount":1,"nationality":"Bangladesh(100%)","entryType":"발전설비 소유·운영","status":"shelved - inferred 2 y"},"geometry":{"type":"Point","coordinates":[90.3938,24.5819]}}]}
