{"type":"FeatureCollection","name":"bgd-e-006","bbox":[90.3800503,23.7272598,90.4211957,23.780553],"metadata":{"schemaVersion":"country-points-v162","countryIso3":"BGD","elementId":"E-006","featureCount":5,"sourceRowCount":5,"grouping":"rows with the same coordinate and name are one feature (recordIds, rowCount)","outlineBufferDeg":0.05},"features":[{"type":"Feature","id":"e-006-7d1b0ea67e","properties":{"elementId":"E-006","featureId":"e-006-7d1b0ea67e","name":"Bangladesh Bank — Sustainable Finance Department","kind":"k-dd8f8c","kindLabel":"DFI","sourceYear":"2026","recordIds":["bgd-v162-e-006-entity-00006"],"rowCount":1,"investSector":"그린 재금융(재생에너지·에너지효율·폐수처리), 그린본드 시장조성","city":"Dhaka","locationPrecision":"행정구역(구역) 중심점"},"geometry":{"type":"Point","coordinates":[90.4211957,23.7272598]}},{"type":"Feature","id":"e-006-019ad426e9","properties":{"elementId":"E-006","featureId":"e-006-019ad426e9","name":"Bangladesh Infrastructure Finance Fund Limited (BIFFL)","kind":"k-dd8f8c","kindLabel":"DFI","sourceYear":"2026","recordIds":["bgd-v162-e-006-entity-00007"],"rowCount":1,"investSector":"그린 인프라, 에너지효율·재생에너지(태양광·풍력·바이오매스), 여성기업","city":"Dhaka","locationPrecision":"도로 단위"},"geometry":{"type":"Point","coordinates":[90.3954931,23.735462]}},{"type":"Feature","id":"e-006-b7737d35c6","properties":{"elementId":"E-006","featureId":"e-006-b7737d35c6","name":"Infrastructure Development Company Limited (IDCOL)","kind":"k-dd8f8c","kindLabel":"DFI","sourceYear":"2026","recordIds":["bgd-v162-e-006-entity-00004"],"rowCount":1,"investSector":"재생에너지(태양광 홈시스템·미니그리드·태양광 관개), 에너지효율, 인프라 PPP","city":"Dhaka","locationPrecision":"행정구역(구역) 중심점"},"geometry":{"type":"Point","coordinates":[90.3938496,23.75174]}},{"type":"Feature","id":"e-006-21a5ca6e1a","properties":{"elementId":"E-006","featureId":"e-006-21a5ca6e1a","name":"Palli Karma-Sahayak Foundation (PKSF)","kind":"k-dd8f8c","kindLabel":"DFI","sourceYear":"2026","recordIds":["bgd-v162-e-006-entity-00005"],"rowCount":1,"investSector":"기후적응·연안 회복력, 소액금융 도매금융","city":"Dhaka","locationPrecision":"행정구역(구역) 중심점"},"geometry":{"type":"Point","coordinates":[90.3800503,23.7784275]}},{"type":"Feature","id":"e-006-6bad5342b3","properties":{"elementId":"E-006","featureId":"e-006-6bad5342b3","name":"SAJIDA Foundation","kind":"k-692e30","kindLabel":"임팩트투자","sourceYear":"2026","recordIds":["bgd-v162-e-006-entity-00003"],"rowCount":1,"investSector":"기후회복력 농업·물·생계, 소셜벤처 초기투자","city":"Dhaka","locationPrecision":"행정구역(구역) 중심점"},"geometry":{"type":"Point","coordinates":[90.4169,23.780553]}}]}
