{"type":"FeatureCollection","name":"bgd-e-005","bbox":[90.3640891,23.7253034,90.42769,23.8155062],"metadata":{"schemaVersion":"country-points-v162","countryIso3":"BGD","elementId":"E-005","featureCount":9,"sourceRowCount":9,"grouping":"rows with the same coordinate and name are one feature (recordIds, rowCount)","outlineBufferDeg":0.05},"features":[{"type":"Feature","id":"e-005-3e99a996be","properties":{"elementId":"E-005","featureId":"e-005-3e99a996be","name":"BRAC","kind":"k-b22953","kindLabel":"NGO","sourceYear":"2026","recordIds":["bgd-v162-e-005-entity-00017"],"rowCount":1,"domain":"기후적응·물·기후스마트농업","city":"Dhaka","locationPrecision":"행정구역(구역) 중심점"},"geometry":{"type":"Point","coordinates":[90.4046308,23.7794681]}},{"type":"Feature","id":"e-005-e8c104b4ae","properties":{"elementId":"E-005","featureId":"e-005-e8c104b4ae","name":"Centre for Climate Change and Environmental Research (C3ER), BRAC University","kind":"k-22aa60","kindLabel":"대학","sourceYear":"2026","recordIds":["bgd-v162-e-005-entity-00008"],"rowCount":1,"domain":"기후(완화·적응·손실과피해)·재생에너지","city":"Dhaka","locationPrecision":"도로 단위"},"geometry":{"type":"Point","coordinates":[90.4252153,23.7881636]}},{"type":"Feature","id":"e-005-d16d377c33","properties":{"elementId":"E-005","featureId":"e-005-d16d377c33","name":"Department of Disaster Science and Climate Resilience (DSCR), University of Dhaka","kind":"k-22aa60","kindLabel":"대학","sourceYear":"2026","recordIds":["bgd-v162-e-005-entity-00018"],"rowCount":1,"domain":"기후(재난위험·회복력)","city":"Dhaka","locationPrecision":"건물·시설 단위"},"geometry":{"type":"Point","coordinates":[90.3915283,23.7312443]}},{"type":"Feature","id":"e-005-494b68ecde","properties":{"elementId":"E-005","featureId":"e-005-494b68ecde","name":"Grameen Shakti","kind":"k-b22953","kindLabel":"NGO","sourceYear":"2026","recordIds":["bgd-v162-e-005-entity-00005"],"rowCount":1,"domain":"재생에너지(태양광·바이오가스)","city":"Dhaka","locationPrecision":"행정구역(구역) 중심점"},"geometry":{"type":"Point","coordinates":[90.3640891,23.8123629]}},{"type":"Feature","id":"e-005-a68018bbf6","properties":{"elementId":"E-005","featureId":"e-005-a68018bbf6","name":"Institute of Energy, University of Dhaka","kind":"k-22aa60","kindLabel":"대학","sourceYear":"2026","recordIds":["bgd-v162-e-005-entity-00002"],"rowCount":1,"domain":"재생에너지(태양광·에너지기술)","city":"Dhaka","locationPrecision":"건물·시설 단위"},"geometry":{"type":"Point","coordinates":[90.3915283,23.7312443]}},{"type":"Feature","id":"e-005-e77215c077","properties":{"elementId":"E-005","featureId":"e-005-e77215c077","name":"Institute of Water Modelling (IWM)","kind":"k-91b47f","kindLabel":"연구소","sourceYear":"2026","recordIds":["bgd-v162-e-005-entity-00006"],"rowCount":1,"domain":"물모델링·홍수예보·연안·기후","city":"Dhaka","locationPrecision":"건물·시설 단위"},"geometry":{"type":"Point","coordinates":[90.3955046,23.7786469]}},{"type":"Feature","id":"e-005-839b73acfc","properties":{"elementId":"E-005","featureId":"e-005-839b73acfc","name":"Institute of Water and Flood Management (IWFM), BUET","kind":"k-22aa60","kindLabel":"대학","sourceYear":"2026","recordIds":["bgd-v162-e-005-entity-00009"],"rowCount":1,"domain":"물·홍수관리·기후적응","city":"Dhaka","locationPrecision":"건물·시설 단위"},"geometry":{"type":"Point","coordinates":[90.3911721,23.7253034]}},{"type":"Feature","id":"e-005-b308a4a97d","properties":{"elementId":"E-005","featureId":"e-005-b308a4a97d","name":"International Centre for Climate Change and Development (ICCCAD)","kind":"k-91b47f","kindLabel":"연구소","sourceYear":"2026","recordIds":["bgd-v162-e-005-entity-00010"],"rowCount":1,"domain":"기후(적응·손실과피해)·역량강화","city":"Dhaka","locationPrecision":"건물·시설 단위"},"geometry":{"type":"Point","coordinates":[90.42769,23.8155062]}},{"type":"Feature","id":"e-005-a8ef221d44","properties":{"elementId":"E-005","featureId":"e-005-a8ef221d44","name":"Sustainable and Renewable Energy Development Authority (SREDA)","kind":"k-c4c0b1","kindLabel":"정부연구기관","sourceYear":"2026","recordIds":["bgd-v162-e-005-entity-00016"],"rowCount":1,"domain":"재생에너지·에너지효율","city":"Dhaka","locationPrecision":"행정구역(구역) 중심점"},"geometry":{"type":"Point","coordinates":[90.4022658,23.7398559]}}]}
