{"type":"FeatureCollection","name":"bgd-e-004","bbox":[90.3800503,23.7763428,90.4202621,23.8033575],"metadata":{"schemaVersion":"country-points-v162","countryIso3":"BGD","elementId":"E-004","featureCount":15,"sourceRowCount":15,"grouping":"rows with the same coordinate and name are one feature (recordIds, rowCount)","outlineBufferDeg":0.05},"features":[{"type":"Feature","id":"e-004-4d29ea184c","properties":{"elementId":"E-004","featureId":"e-004-4d29ea184c","name":"ADB","kind":"k-8eef33","kindLabel":"다자개발은행","sourceYear":"2026","recordIds":["bgd-v162-e-004-entity-00001"],"rowCount":1,"office":"Bangladesh Resident Mission (BRM)","city":"Dhaka","locationPrecision":"행정구역(구역) 중심점"},"geometry":{"type":"Point","coordinates":[90.3800503,23.7784275]}},{"type":"Feature","id":"e-004-353a740f4b","properties":{"elementId":"E-004","featureId":"e-004-353a740f4b","name":"AFD","kind":"k-d6fb0f","kindLabel":"양자원조기관","sourceYear":"2026","recordIds":["bgd-v162-e-004-entity-00002"],"rowCount":1,"office":"AFD's office in Bangladesh","city":"Dhaka","locationPrecision":"행정구역(구역) 중심점"},"geometry":{"type":"Point","coordinates":[90.4076959,23.790321]}},{"type":"Feature","id":"e-004-55f9607b67","properties":{"elementId":"E-004","featureId":"e-004-55f9607b67","name":"Embassy of Denmark","kind":"k-711668","kindLabel":"공관","sourceYear":"2026","recordIds":["bgd-v162-e-004-entity-00003"],"rowCount":1,"office":"Embassy of Denmark, Dhaka","city":"Dhaka","locationPrecision":"행정구역(구역) 중심점"},"geometry":{"type":"Point","coordinates":[90.4136986,23.7947191]}},{"type":"Feature","id":"e-004-0f582dc656","properties":{"elementId":"E-004","featureId":"e-004-0f582dc656","name":"Embassy of the Kingdom of the Netherlands","kind":"k-711668","kindLabel":"공관","sourceYear":"2026","recordIds":["bgd-v162-e-004-entity-00013"],"rowCount":1,"office":"Embassy of the Netherlands in Dhaka","city":"Dhaka","locationPrecision":"도로 단위"},"geometry":{"type":"Point","coordinates":[90.415414,23.7963013]}},{"type":"Feature","id":"e-004-ec8f400a35","properties":{"elementId":"E-004","featureId":"e-004-ec8f400a35","name":"European Union","kind":"k-1b090c","kindLabel":"지역기구","sourceYear":"2026","recordIds":["bgd-v162-e-004-entity-00004"],"rowCount":1,"office":"Delegation of the European Union to Bangladesh","city":"Dhaka","locationPrecision":"도로 단위"},"geometry":{"type":"Point","coordinates":[90.4146914,23.7999134]}},{"type":"Feature","id":"e-004-452bc20391","properties":{"elementId":"E-004","featureId":"e-004-452bc20391","name":"FAO","kind":"k-90e60b","kindLabel":"유엔 전문기구","sourceYear":"2026","recordIds":["bgd-v162-e-004-entity-00005"],"rowCount":1,"office":"FAO Representation in Bangladesh","city":"Dhaka","locationPrecision":"행정구역(구역) 중심점"},"geometry":{"type":"Point","coordinates":[90.4076959,23.790321]}},{"type":"Feature","id":"e-004-aceae988ec","properties":{"elementId":"E-004","featureId":"e-004-aceae988ec","name":"GIZ","kind":"k-d6fb0f","kindLabel":"양자원조기관","sourceYear":"2026","recordIds":["bgd-v162-e-004-entity-00007"],"rowCount":1,"office":"GIZ Office Dhaka","city":"Dhaka","locationPrecision":"도로 단위"},"geometry":{"type":"Point","coordinates":[90.4165141,23.7766651]}},{"type":"Feature","id":"e-004-26a8353a51","properties":{"elementId":"E-004","featureId":"e-004-26a8353a51","name":"IFC","kind":"k-8eef33","kindLabel":"다자개발은행","sourceYear":"2026","recordIds":["bgd-v162-e-004-entity-00008"],"rowCount":1,"office":"IFC Bangladesh Country Office","city":"Dhaka","locationPrecision":"행정구역(구역) 중심점"},"geometry":{"type":"Point","coordinates":[90.4136986,23.7947191]}},{"type":"Feature","id":"e-004-0980894882","properties":{"elementId":"E-004","featureId":"e-004-0980894882","name":"JICA","kind":"k-d6fb0f","kindLabel":"양자원조기관","sourceYear":"2026","recordIds":["bgd-v162-e-004-entity-00010"],"rowCount":1,"office":"JICA Bangladesh Office","city":"Dhaka","locationPrecision":"도로 단위"},"geometry":{"type":"Point","coordinates":[90.4163538,23.7763428]}},{"type":"Feature","id":"e-004-d7559b40a2","properties":{"elementId":"E-004","featureId":"e-004-d7559b40a2","name":"KOICA","kind":"k-d6fb0f","kindLabel":"양자원조기관","sourceYear":"2026","recordIds":["bgd-v162-e-004-entity-00012"],"rowCount":1,"office":"KOICA 방글라데시 사무소","city":"Dhaka","locationPrecision":"건물·시설 단위"},"geometry":{"type":"Point","coordinates":[90.413699,23.794719]}},{"type":"Feature","id":"e-004-292dcbacca","properties":{"elementId":"E-004","featureId":"e-004-292dcbacca","name":"U.S. Department of State (구 USAID)","kind":"k-711668","kindLabel":"공관","sourceYear":"2026","recordIds":["bgd-v162-e-004-entity-00018"],"rowCount":1,"office":"Embassy of the United States of America, Dhaka","city":"Dhaka","locationPrecision":"행정구역(구역) 중심점"},"geometry":{"type":"Point","coordinates":[90.4202621,23.8033575]}},{"type":"Feature","id":"e-004-2c70302599","properties":{"elementId":"E-004","featureId":"e-004-2c70302599","name":"UNDP","kind":"k-256f46","kindLabel":"유엔","sourceYear":"2026","recordIds":["bgd-v162-e-004-entity-00014"],"rowCount":1,"office":"UNDP Bangladesh Country Office","city":"Dhaka","locationPrecision":"행정구역(구역) 중심점"},"geometry":{"type":"Point","coordinates":[90.3800503,23.7784275]}},{"type":"Feature","id":"e-004-25c20a0db5","properties":{"elementId":"E-004","featureId":"e-004-25c20a0db5","name":"UNESCO","kind":"k-90e60b","kindLabel":"유엔 전문기구","sourceYear":"2026","recordIds":["bgd-v162-e-004-entity-00016"],"rowCount":1,"office":"UNESCO Dhaka (National Office)","city":"Dhaka","locationPrecision":"도로 단위"},"geometry":{"type":"Point","coordinates":[90.4159291,23.7982556]}},{"type":"Feature","id":"e-004-0f21da2391","properties":{"elementId":"E-004","featureId":"e-004-0f21da2391","name":"UNIDO","kind":"k-90e60b","kindLabel":"유엔 전문기구","sourceYear":"2026","recordIds":["bgd-v162-e-004-entity-00017"],"rowCount":1,"office":"UNIDO Field Office (UNIDO-FO-BGD)","city":"Dhaka","locationPrecision":"행정구역(구역) 중심점"},"geometry":{"type":"Point","coordinates":[90.3800503,23.7784275]}},{"type":"Feature","id":"e-004-55c983ccd3","properties":{"elementId":"E-004","featureId":"e-004-55c983ccd3","name":"World Bank","kind":"k-8eef33","kindLabel":"다자개발은행","sourceYear":"2026","recordIds":["bgd-v162-e-004-entity-00019"],"rowCount":1,"office":"Bangladesh Country Office","city":"Dhaka","locationPrecision":"행정구역(구역) 중심점"},"geometry":{"type":"Point","coordinates":[90.3800503,23.7784275]}}]}
