{"type":"FeatureCollection","name":"bgd-e-018","bbox":[90.4120028,23.7737123,90.419181,23.82428],"metadata":{"schemaVersion":"country-points-v162","countryIso3":"BGD","elementId":"E-018","featureCount":3,"sourceRowCount":3,"grouping":"rows with the same coordinate and name are one feature (recordIds, rowCount)","outlineBufferDeg":0.05},"features":[{"type":"Feature","id":"e-018-93507f95d7","properties":{"elementId":"E-018","featureId":"e-018-93507f95d7","name":"(주)건화 방글라데시 지사 (KUNHWA ENGINEERING & CONSULTING CO., LTD. (BANGLADESH BRANCH)) 외 1개 거점","sourceYear":"2024","recordIds":["bgd-v162-e-018-entity-00002"],"rowCount":1,"industry":"엔지니어링·컨설팅 — 전력/플랜트, 건설사업관리·감리, EPC | KOTRA 업종: F. 건설업","entryType":"지사 — KOTRA: 지사/지점","locationPrecision":"도로 단위(Niketon 단지 내 도로)"},"geometry":{"type":"Point","coordinates":[90.4120028,23.7737123]}},{"type":"Feature","id":"e-018-cae06f0aa6","properties":{"elementId":"E-018","featureId":"e-018-cae06f0aa6","name":"GS건설(주) (GS Engineering & Construction)","sourceYear":"2026","recordIds":["bgd-v162-e-018-entity-00001"],"rowCount":1,"industry":"스마트그리드 — 송전망 구축 및 건설","entryType":"해외지사(단독투자)","locationPrecision":"행정구역 중심점(동)"},"geometry":{"type":"Point","coordinates":[90.419181,23.82428]}},{"type":"Feature","id":"e-018-a881176f32","properties":{"elementId":"E-018","featureId":"e-018-a881176f32","name":"LS전선 (LS CABLE & SYSTEM LTD.)","sourceYear":"2024","recordIds":["bgd-v162-e-018-entity-00003"],"rowCount":1,"industry":"스마트그리드 — 배전망 구축 및 컨설팅/건설 | KOTRA 업종: D. 전기, 가스, 증기 및 공기 조절 공급업","entryType":"지사 — KOTRA: 지사/지점","locationPrecision":"행정구역 중심점(구역: Baridhara DOHS)"},"geometry":{"type":"Point","coordinates":[90.4131292,23.8131162]}}]}
