{"type":"FeatureCollection","name":"bgd-e-019","bbox":[90.413699,23.794719,90.413699,23.794719],"metadata":{"schemaVersion":"country-points-v162","countryIso3":"BGD","elementId":"E-019","featureCount":3,"sourceRowCount":3,"grouping":"rows with the same coordinate and name are one feature (recordIds, rowCount)","outlineBufferDeg":0.05},"features":[{"type":"Feature","id":"e-019-db5c75b8ef","properties":{"elementId":"E-019","featureId":"e-019-db5c75b8ef","name":"KOICA 방글라데시사무소","sourceYear":"2026","recordIds":["bgd-v162-e-019-entity-00004"],"rowCount":1,"duties":"무상원조 ODA 총괄(보건·교육·농촌·기후환경)","city":"Dhaka","locationPrecision":"행정구역(구역) 중심점"},"geometry":{"type":"Point","coordinates":[90.413699,23.794719]}},{"type":"Feature","id":"e-019-aca3cb564a","properties":{"elementId":"E-019","featureId":"e-019-aca3cb564a","name":"KOTRA 다카무역관","sourceYear":"2026","recordIds":["bgd-v162-e-019-entity-00005"],"rowCount":1,"duties":"마케팅·시장조사·프로젝트(인프라, 조달, 탄소중립)·해외취업·심층조사·공공조달·방산·맞춤형지원","city":"Dhaka","locationPrecision":"행정구역(구역) 중심점"},"geometry":{"type":"Point","coordinates":[90.413699,23.794719]}},{"type":"Feature","id":"e-019-f7c5136017","properties":{"elementId":"E-019","featureId":"e-019-f7c5136017","name":"한국수출입은행 다카사무소","sourceYear":"2026","recordIds":["bgd-v162-e-019-entity-00003"],"rowCount":1,"duties":"EDCF 등 대외경제협력·수출금융","city":"Dhaka","locationPrecision":"행정구역(구역) 중심점"},"geometry":{"type":"Point","coordinates":[90.413699,23.794719]}}]}
