{"type":"FeatureCollection","features":[{"type":"Feature","id":"BGD","properties":{"iso3":"BGD","nameEn":"Bangladesh","display":"z5"},"geometry":{"type":"MultiPolygon","coordinates":[[[[89.292084,21.68731],[89.27738,21.667705],[89.260217,21.667271],[89.258664,21.6583],[89.208167,21.657469],[89.229576,21.700656],[89.24623,21.68914],[89.258914,21.696906],[89.292084,21.68731]]],[[[89.335604,21.717297],[89.348715,21.702947],[89.334292,21.696615],[89.330726,21.703187],[89.335604,21.717297]]],[[[89.284802,21.749044],[89.279299,21.70438],[89.241467,21.693633],[89.225677,21.704915],[89.221263,21.746725],[89.272385,21.756758],[89.284802,21.749044]]],[[[89.540294,21.849415],[89.603055,21.802391],[89.604711,21.786666],[89.586899,21.759324],[89.606303,21.719068],[89.570421,21.714653],[89.555397,21.725322],[89.538116,21.762016],[89.536496,21.772386],[89.547836,21.771556],[89.540804,21.785927],[89.549844,21.792598],[89.530855,21.822951],[89.540294,21.849415]]],[[[89.236533,21.810083],[89.242238,21.808195],[89.257835,21.794519],[89.28179,21.792799],[89.286507,21.754686],[89.261985,21.761463],[89.218636,21.752228],[89.192245,21.786217],[89.18475,21.81735],[89.195414,21.826235],[89.231178,21.821337],[89.234798,21.811009],[89.236533,21.810083]]],[[[89.401134,21.850035],[89.422138,21.846173],[89.450138,21.846962],[89.463548,21.81885],[89.455413,21.81829],[89.436147,21.808801],[89.431342,21.819201],[89.415342,21.816479],[89.432052,21.817162],[89.435669,21.807723],[89.463732,21.818193],[89.474018,21.793448],[89.433302,21.74627],[89.407057,21.755629],[89.426104,21.735488],[89.397865,21.721476],[89.377178,21.731343],[89.360074,21.751788],[89.379898,21.762561],[89.394527,21.798367],[89.379472,21.764537],[89.360832,21.755103],[89.34845,21.805626],[89.381568,21.877736],[89.384578,21.871421],[89.395916,21.874232],[89.390659,21.862851],[89.3951,21.855623],[89.401134,21.850035]]],[[[89.255233,21.798604],[89.239382,21.815165],[89.235827,21.811128],[89.233649,21.816501],[89.252061,21.817609],[89.265066,21.832535],[89.281178,21.794139],[89.255233,21.798604]]],[[[89.144663,21.752853],[89.147205,21.738285],[89.137803,21.723273],[89.112778,21.720177],[89.06736,21.773565],[89.044543,21.787537],[89.060511,21.854508],[89.051873,21.879125],[89.034054,21.894471],[89.037259,21.920188],[89.058478,21.920455],[89.061445,21.883913],[89.08346,21.857362],[89.075989,21.820654],[89.083591,21.796602],[89.130359,21.769893],[89.134685,21.75696],[89.144663,21.752853]]],[[[89.313073,21.831036],[89.312984,21.856232],[89.333471,21.864372],[89.364038,21.883615],[89.350252,21.834321],[89.337628,21.818016],[89.336459,21.790026],[89.313073,21.831036]]],[[[89.445719,21.877306],[89.445598,21.869034],[89.42022,21.862684],[89.418351,21.856128],[89.423458,21.847854],[89.403573,21.850189],[89.392211,21.860531],[89.397141,21.873798],[89.394797,21.875379],[89.388078,21.872941],[89.382019,21.878964],[89.381405,21.922438],[89.389535,21.922217],[89.407788,21.929855],[89.402535,21.919737],[89.402532,21.914113],[89.420234,21.890699],[89.445719,21.877306]]],[[[89.281947,21.836595],[89.294068,21.83942],[89.307861,21.867589],[89.306558,21.872173],[89.291181,21.879804],[89.321148,21.916981],[89.318517,21.920794],[89.296924,21.930743],[89.290376,21.938937],[89.290374,21.951352],[89.298222,21.955895],[89.293411,21.963388],[89.298693,21.9659],[89.303488,21.972833],[89.301549,21.982959],[89.288791,21.988282],[89.299787,21.992331],[89.306357,21.99804],[89.348201,21.942281],[89.359817,21.900066],[89.330685,21.885608],[89.313026,21.866843],[89.297174,21.819877],[89.281947,21.836595]]],[[[89.416921,21.969942],[89.432654,21.944707],[89.457113,21.93365],[89.44527,21.915539],[89.447793,21.905843],[89.471265,21.901915],[89.471532,21.884944],[89.467368,21.888898],[89.464301,21.880427],[89.467309,21.856676],[89.460074,21.860286],[89.45703,21.85277],[89.422239,21.850835],[89.421274,21.861445],[89.445732,21.867361],[89.451441,21.8746],[89.419787,21.893614],[89.403373,21.915933],[89.408433,21.931154],[89.389206,21.932057],[89.400004,21.939228],[89.396926,21.944752],[89.374444,21.953939],[89.380801,21.964046],[89.388484,21.959068],[89.402118,21.964313],[89.403627,21.970164],[89.40102,21.980759],[89.410562,21.986894],[89.424473,21.984597],[89.416921,21.969942]]],[[[89.194911,22.002581],[89.242727,21.985589],[89.204631,21.962329],[89.205318,21.941688],[89.222207,21.929415],[89.241197,21.928308],[89.253849,21.909244],[89.285148,21.904793],[89.268879,21.884287],[89.248088,21.888525],[89.243966,21.887688],[89.230782,21.87756],[89.233336,21.889936],[89.228824,21.885048],[89.228578,21.878548],[89.231694,21.876656],[89.248471,21.8875],[89.268949,21.883151],[89.273776,21.853925],[89.263065,21.835568],[89.255968,21.833679],[89.260167,21.841348],[89.257973,21.860866],[89.250725,21.859616],[89.244082,21.867043],[89.239639,21.866046],[89.250795,21.858263],[89.257261,21.859347],[89.258546,21.839361],[89.248128,21.818003],[89.193868,21.830034],[89.210715,21.918365],[89.181396,21.925249],[89.183269,21.935166],[89.16527,21.945365],[89.168325,21.954054],[89.164325,21.94597],[89.165202,21.942907],[89.18222,21.932579],[89.176344,21.926132],[89.151627,21.926543],[89.140507,21.947822],[89.143076,21.961749],[89.170722,21.994272],[89.165894,22.021603],[89.185301,22.021908],[89.194911,22.002581]]],[[[89.54581,21.881223],[89.541623,21.957369],[89.542997,21.960432],[89.569419,21.933875],[89.54581,21.881223]]],[[[89.160823,21.991477],[89.132866,21.962873],[89.139385,21.922391],[89.154074,21.913689],[89.201089,21.911964],[89.185589,21.876273],[89.182345,21.834236],[89.180482,21.840095],[89.171936,21.848375],[89.164339,21.849415],[89.165978,21.857601],[89.162537,21.863285],[89.151807,21.861522],[89.151044,21.86578],[89.154893,21.869065],[89.154904,21.874023],[89.145473,21.876618],[89.142959,21.874203],[89.144623,21.879496],[89.142218,21.875132],[89.14296,21.872814],[89.154452,21.872501],[89.14996,21.866647],[89.151931,21.85932],[89.162529,21.862345],[89.16301,21.848844],[89.179226,21.83879],[89.167557,21.803076],[89.149475,21.794964],[89.099091,21.813724],[89.103775,21.82202],[89.115394,21.815969],[89.11849,21.817315],[89.120726,21.822102],[89.116672,21.842191],[89.132044,21.84877],[89.120642,21.875238],[89.126876,21.884645],[89.127405,21.889531],[89.126333,21.891063],[89.122362,21.891779],[89.118947,21.874592],[89.129973,21.848519],[89.11449,21.841261],[89.116148,21.817117],[89.103409,21.825244],[89.09846,21.877492],[89.079802,21.903667],[89.083725,21.924318],[89.095774,21.920553],[89.107679,21.922844],[89.128947,21.943978],[89.107816,21.924154],[89.084392,21.926842],[89.092225,21.948453],[89.094617,21.939149],[89.098702,21.938239],[89.116935,21.951074],[89.107802,21.975098],[89.12085,21.979002],[89.116533,21.988757],[89.131513,21.997557],[89.133383,22.007769],[89.12848,22.026091],[89.117503,22.031969],[89.125337,22.046447],[89.130333,22.059821],[89.149492,22.076669],[89.173505,22.062253],[89.15702,22.056283],[89.147298,22.042122],[89.160823,21.991477]]],[[[89.295286,22.084092],[89.277317,22.059983],[89.305607,22.000606],[89.287222,21.988168],[89.299868,21.982349],[89.30217,21.972461],[89.293039,21.964516],[89.296077,21.954689],[89.291229,21.952553],[89.288663,21.949432],[89.288748,21.939501],[89.292418,21.933015],[89.301368,21.926026],[89.319335,21.918834],[89.289507,21.879412],[89.306331,21.869109],[89.292204,21.841369],[89.283951,21.843294],[89.277853,21.874628],[89.292645,21.892142],[89.295201,21.908933],[89.277874,21.925935],[89.270658,21.928727],[89.271191,21.93761],[89.26878,21.941333],[89.260954,21.943491],[89.269184,21.939367],[89.268697,21.929086],[89.279009,21.91998],[89.260685,21.916287],[89.232069,21.948645],[89.245352,21.951784],[89.259271,21.962069],[89.262471,21.965822],[89.256674,21.973361],[89.264636,21.975797],[89.265807,21.977658],[89.262885,21.996679],[89.265078,21.97731],[89.255713,21.972985],[89.26118,21.96583],[89.231685,21.951002],[89.230204,21.949086],[89.235292,21.941603],[89.210099,21.95163],[89.250774,21.981012],[89.248668,21.991318],[89.219342,22.008202],[89.253612,22.060369],[89.225507,22.095985],[89.248007,22.095036],[89.260332,22.080884],[89.295286,22.084092]]],[[[89.502042,21.968612],[89.465788,21.997156],[89.506011,21.962167],[89.504582,21.930897],[89.477156,21.935371],[89.484903,21.941316],[89.485738,21.954255],[89.481987,21.958195],[89.483629,21.941152],[89.476442,21.937305],[89.473945,21.948974],[89.456891,21.949816],[89.46875,21.961227],[89.464895,21.964912],[89.455642,21.949652],[89.472692,21.948444],[89.46886,21.94149],[89.476983,21.934286],[89.508431,21.929044],[89.504355,21.914977],[89.45245,21.909505],[89.460794,21.938696],[89.437562,21.950043],[89.421871,21.971502],[89.439062,21.99231],[89.430483,22.043025],[89.44226,22.062404],[89.454291,22.050616],[89.471161,22.04631],[89.502042,21.968612]]],[[[89.427597,22.024051],[89.428287,21.985997],[89.411925,21.988696],[89.415891,21.994154],[89.410874,22.003409],[89.420181,22.014787],[89.420836,22.017267],[89.417583,22.019077],[89.40849,22.015417],[89.419463,22.016137],[89.409633,22.003232],[89.415121,21.993484],[89.399076,21.982484],[89.394852,21.994962],[89.384699,22.005848],[89.402317,21.968908],[89.389987,21.960442],[89.379788,21.965321],[89.372751,21.955923],[89.375522,21.949853],[89.397969,21.940115],[89.387517,21.932308],[89.391416,21.926835],[89.382726,21.924356],[89.362588,21.959652],[89.353663,22.032239],[89.376627,22.063471],[89.390159,22.055707],[89.401843,22.054505],[89.427597,22.024051]]],[[[89.127361,22.026173],[89.130212,21.998122],[89.115802,21.991167],[89.118826,21.979486],[89.106165,21.975875],[89.106464,21.959159],[89.115515,21.952074],[89.096727,21.940744],[89.090812,22.014967],[89.095734,22.021631],[89.093534,22.040653],[89.095746,22.049322],[89.104805,22.045252],[89.128552,22.072755],[89.136133,22.066387],[89.127142,22.056925],[89.115853,22.03099],[89.127361,22.026173]]],[[[89.482877,22.053267],[89.510561,22.070276],[89.515376,22.079875],[89.518044,22.076962],[89.516024,22.057591],[89.496384,22.030504],[89.479633,22.042452],[89.482877,22.053267]]],[[[89.444221,22.064144],[89.489215,22.090638],[89.513402,22.078016],[89.472089,22.048079],[89.450647,22.055361],[89.444221,22.064144]]],[[[89.348561,22.113082],[89.384593,22.090326],[89.363468,22.05306],[89.343794,22.034788],[89.347406,21.972426],[89.325015,21.992838],[89.289733,22.060317],[89.304873,22.071947],[89.333058,22.054635],[89.342693,22.05563],[89.344547,22.064353],[89.31834,22.108463],[89.278156,22.119293],[89.289443,22.150537],[89.323215,22.184453],[89.331817,22.181774],[89.3372,22.153304],[89.325729,22.130226],[89.334624,22.12435],[89.349289,22.132167],[89.348561,22.113082]]],[[[89.315224,22.106648],[89.341944,22.058012],[89.325797,22.061757],[89.306989,22.076992],[89.307352,22.091177],[89.296381,22.099417],[89.262815,22.090643],[89.277094,22.112729],[89.315224,22.106648]]],[[[89.458099,22.125614],[89.485441,22.090441],[89.461679,22.077821],[89.450399,22.075806],[89.437961,22.093945],[89.416954,22.103966],[89.414649,22.114621],[89.424219,22.1174],[89.432101,22.140491],[89.423748,22.11835],[89.414142,22.11525],[89.413016,22.113869],[89.417728,22.101011],[89.434799,22.094518],[89.448558,22.074985],[89.427326,22.052118],[89.427489,22.028909],[89.408766,22.051093],[89.403353,22.054981],[89.390387,22.057026],[89.377195,22.066134],[89.391905,22.08546],[89.383038,22.11518],[89.407713,22.126783],[89.411823,22.154286],[89.435028,22.163196],[89.462808,22.143096],[89.458099,22.125614]]],[[[89.486654,22.095285],[89.4712,22.138884],[89.482782,22.144155],[89.496165,22.129983],[89.509213,22.087933],[89.486654,22.095285]]],[[[89.47123,22.161497],[89.457262,22.155941],[89.455753,22.161405],[89.442181,22.171479],[89.443221,22.176437],[89.436549,22.187065],[89.441211,22.171028],[89.463007,22.149231],[89.433096,22.166365],[89.414029,22.196333],[89.394208,22.201355],[89.405925,22.210267],[89.394522,22.220471],[89.409212,22.218949],[89.418703,22.224858],[89.420181,22.22788],[89.419315,22.232108],[89.460601,22.245431],[89.457331,22.2076],[89.47123,22.161497]]],[[[89.414799,22.240942],[89.433947,22.278561],[89.409748,22.304316],[89.424654,22.324216],[89.424128,22.346626],[89.448756,22.323129],[89.478901,22.272539],[89.461577,22.252418],[89.41979,22.236468],[89.414799,22.240942]]],[[[89.876742,22.176495],[89.884064,22.114869],[89.876909,22.096956],[89.844453,22.063409],[89.812903,22.068731],[89.805713,22.075464],[89.834869,22.101073],[89.842056,22.119677],[89.835401,22.12928],[89.813499,22.144099],[89.833749,22.156681],[89.836691,22.164752],[89.807896,22.220079],[89.80487,22.208914],[89.834383,22.163195],[89.812431,22.147574],[89.81094,22.13922],[89.836754,22.12407],[89.798369,22.072921],[89.789336,22.083664],[89.774613,22.093782],[89.757966,22.134669],[89.74405,22.138498],[89.747435,22.186689],[89.731406,22.197508],[89.737166,22.20935],[89.7478,22.196123],[89.752296,22.198683],[89.762353,22.242486],[89.76242,22.244611],[89.754877,22.252951],[89.761436,22.259232],[89.753645,22.251945],[89.761473,22.244443],[89.751317,22.200904],[89.733685,22.221152],[89.737182,22.211567],[89.729757,22.200997],[89.732573,22.192946],[89.745064,22.185614],[89.741605,22.13651],[89.713828,22.130588],[89.694212,22.182303],[89.712037,22.186321],[89.713835,22.198712],[89.707477,22.203547],[89.692069,22.196783],[89.737687,22.279897],[89.70357,22.278397],[89.714195,22.35032],[89.705931,22.342291],[89.701354,22.312203],[89.666922,22.366604],[89.661488,22.369833],[89.644165,22.368553],[89.63981,22.364735],[89.666403,22.36388],[89.676837,22.336698],[89.70551,22.305912],[89.700032,22.276363],[89.734779,22.277214],[89.694304,22.214453],[89.685923,22.218062],[89.674145,22.208206],[89.678579,22.223967],[89.677137,22.238349],[89.637786,22.249538],[89.661315,22.249756],[89.672393,22.252933],[89.675282,22.255505],[89.674984,22.258125],[89.651956,22.26172],[89.664071,22.268801],[89.669602,22.27583],[89.642964,22.287211],[89.665881,22.271619],[89.652508,22.263629],[89.65163,22.262781],[89.651963,22.260688],[89.674741,22.256948],[89.664973,22.25098],[89.638997,22.251584],[89.636774,22.248449],[89.675337,22.238367],[89.672728,22.209353],[89.674117,22.207321],[89.677434,22.208306],[89.687263,22.217236],[89.691754,22.214291],[89.689846,22.192385],[89.709834,22.199468],[89.709372,22.187893],[89.696699,22.191002],[89.689593,22.17856],[89.708936,22.129646],[89.704466,22.07164],[89.685082,22.067002],[89.669101,22.088307],[89.681773,22.091726],[89.684045,22.098355],[89.665522,22.099808],[89.678912,22.120987],[89.681789,22.132182],[89.677139,22.142444],[89.670522,22.145047],[89.657697,22.139362],[89.660855,22.149503],[89.648905,22.149709],[89.646073,22.157793],[89.640564,22.162692],[89.631647,22.167131],[89.614692,22.168664],[89.606893,22.178973],[89.619586,22.198345],[89.617822,22.201946],[89.60447,22.211614],[89.602835,22.229452],[89.614683,22.216484],[89.620529,22.213864],[89.621823,22.21497],[89.615302,22.241445],[89.60531,22.247884],[89.618554,22.254579],[89.621001,22.258002],[89.609505,22.26941],[89.617699,22.268318],[89.623691,22.273422],[89.62506,22.277168],[89.614986,22.280232],[89.625443,22.29391],[89.61493,22.300065],[89.636606,22.342686],[89.628823,22.365907],[89.619615,22.363064],[89.624738,22.34637],[89.614541,22.323353],[89.581927,22.27952],[89.579193,22.25965],[89.586721,22.24332],[89.578157,22.240621],[89.572737,22.253644],[89.556065,22.261172],[89.55389,22.304219],[89.528408,22.332028],[89.512431,22.331412],[89.534881,22.33908],[89.535517,22.345152],[89.503844,22.372245],[89.534577,22.343018],[89.514815,22.337648],[89.511444,22.334072],[89.511703,22.328494],[89.527221,22.330643],[89.552532,22.301172],[89.552546,22.264881],[89.557193,22.25633],[89.571558,22.25212],[89.572978,22.244489],[89.54365,22.206513],[89.527662,22.197258],[89.535006,22.209191],[89.52843,22.222968],[89.537165,22.231849],[89.537983,22.234695],[89.53489,22.239006],[89.526936,22.221034],[89.533061,22.211251],[89.524568,22.198431],[89.52984,22.196372],[89.541551,22.202515],[89.583898,22.123188],[89.532166,21.994797],[89.510176,22.016628],[89.534464,22.063094],[89.53443,22.085728],[89.526745,22.095666],[89.544932,22.095649],[89.550501,22.11192],[89.539259,22.124879],[89.543901,22.146929],[89.539329,22.151501],[89.537078,22.133771],[89.539126,22.121361],[89.54836,22.112805],[89.543721,22.098222],[89.523829,22.096567],[89.476071,22.232794],[89.496923,22.274772],[89.496988,22.28965],[89.486545,22.302512],[89.491827,22.305696],[89.495219,22.299147],[89.501586,22.296008],[89.509994,22.296995],[89.516439,22.302189],[89.501131,22.296976],[89.49215,22.30705],[89.485091,22.302296],[89.49579,22.288389],[89.492557,22.266433],[89.476283,22.299429],[89.483047,22.311243],[89.48259,22.317431],[89.460399,22.333927],[89.461166,22.342697],[89.483931,22.336715],[89.49716,22.344377],[89.487119,22.34113],[89.488974,22.371755],[89.468874,22.373864],[89.477597,22.382633],[89.46761,22.385438],[89.465165,22.399216],[89.47254,22.397932],[89.477015,22.404009],[89.463053,22.405342],[89.474387,22.403508],[89.46392,22.399528],[89.466561,22.384831],[89.476425,22.382876],[89.468606,22.376034],[89.467873,22.37243],[89.488773,22.369746],[89.48608,22.339318],[89.46361,22.344277],[89.457972,22.34301],[89.456264,22.338627],[89.464583,22.328456],[89.480579,22.316792],[89.473324,22.305748],[89.433613,22.357117],[89.448544,22.387359],[89.448502,22.406267],[89.434444,22.413664],[89.424478,22.411542],[89.438759,22.385936],[89.422533,22.354214],[89.409034,22.36641],[89.410243,22.37666],[89.400777,22.393109],[89.389952,22.397471],[89.399383,22.392778],[89.408047,22.365964],[89.422997,22.348991],[89.420795,22.324209],[89.3987,22.334256],[89.402682,22.345008],[89.400148,22.350417],[89.384081,22.350652],[89.384338,22.373405],[89.364741,22.374558],[89.36882,22.384778],[89.366455,22.392796],[89.36166,22.376581],[89.364936,22.371665],[89.381859,22.372706],[89.384078,22.348425],[89.400133,22.347674],[89.395791,22.335349],[89.416192,22.321264],[89.405904,22.305836],[89.418742,22.291264],[89.411609,22.293879],[89.406328,22.289764],[89.402487,22.294577],[89.395477,22.297811],[89.384604,22.297145],[89.378718,22.31577],[89.361833,22.321468],[89.376351,22.315049],[89.383297,22.296606],[89.426964,22.282392],[89.421877,22.275178],[89.408188,22.278626],[89.405322,22.273038],[89.402366,22.279327],[89.394245,22.276609],[89.390219,22.290906],[89.39401,22.275599],[89.405468,22.271534],[89.408717,22.277604],[89.416772,22.273392],[89.425808,22.274886],[89.41414,22.259217],[89.383982,22.270397],[89.378239,22.258626],[89.372571,22.268755],[89.368961,22.269722],[89.360026,22.270522],[89.346053,22.263513],[89.369182,22.268666],[89.378413,22.257407],[89.385203,22.268939],[89.411996,22.258417],[89.408938,22.241377],[89.419053,22.226717],[89.410524,22.220399],[89.402772,22.22891],[89.396297,22.225937],[89.396478,22.235914],[89.393426,22.24152],[89.389817,22.242113],[89.394882,22.225771],[89.396881,22.224621],[89.402645,22.226743],[89.392024,22.220369],[89.402176,22.209002],[89.388801,22.199291],[89.382232,22.210352],[89.377703,22.21312],[89.365255,22.214546],[89.379127,22.211199],[89.385946,22.199348],[89.410254,22.19555],[89.428886,22.166841],[89.406183,22.152153],[89.406405,22.133921],[89.378968,22.138338],[89.385294,22.158191],[89.370296,22.161177],[89.383646,22.181565],[89.374094,22.185044],[89.359254,22.182275],[89.360103,22.19081],[89.35783,22.181638],[89.382206,22.181685],[89.368765,22.162375],[89.37039,22.159343],[89.383864,22.155995],[89.376557,22.138133],[89.404941,22.130785],[89.382044,22.12044],[89.379927,22.100466],[89.370486,22.099474],[89.350824,22.118413],[89.353013,22.135325],[89.335592,22.128035],[89.329954,22.134305],[89.340693,22.15325],[89.337416,22.178841],[89.324505,22.190319],[89.334289,22.198069],[89.331908,22.216598],[89.32937,22.200621],[89.30569,22.214458],[89.310065,22.183704],[89.281772,22.161853],[89.265485,22.137131],[89.263225,22.165718],[89.257645,22.164694],[89.264464,22.112553],[89.251128,22.101386],[89.23197,22.104551],[89.218524,22.097464],[89.207726,22.126795],[89.227073,22.134185],[89.21354,22.144774],[89.246074,22.160393],[89.227278,22.199869],[89.25259,22.224914],[89.223775,22.200827],[89.242304,22.161199],[89.212803,22.14884],[89.210594,22.138796],[89.224318,22.13422],[89.204404,22.128408],[89.195727,22.133599],[89.191906,22.150864],[89.202253,22.144644],[89.20987,22.146808],[89.22178,22.17352],[89.197011,22.184461],[89.202147,22.214902],[89.192043,22.219359],[89.192897,22.229564],[89.182185,22.231575],[89.191569,22.228152],[89.190272,22.220662],[89.19209,22.218257],[89.199652,22.215936],[89.199697,22.213735],[89.194095,22.188668],[89.198713,22.174346],[89.181407,22.166638],[89.187727,22.174895],[89.188706,22.18213],[89.187255,22.184154],[89.180467,22.172527],[89.181202,22.164836],[89.197012,22.169399],[89.202296,22.17806],[89.219678,22.17075],[89.209993,22.164565],[89.205465,22.14716],[89.191536,22.154911],[89.191471,22.133701],[89.244584,22.056338],[89.205623,22.002431],[89.187028,22.025249],[89.156409,22.034884],[89.155757,22.044204],[89.178654,22.064867],[89.150737,22.085616],[89.177721,22.080816],[89.180743,22.101042],[89.194093,22.118501],[89.189329,22.123209],[89.173669,22.124382],[89.169998,22.145055],[89.164295,22.151383],[89.143165,22.155854],[89.142143,22.169071],[89.158588,22.191126],[89.160369,22.20796],[89.140555,22.169149],[89.141381,22.156068],[89.163923,22.149154],[89.170124,22.124925],[89.189762,22.121687],[89.191442,22.11529],[89.178565,22.101299],[89.174898,22.081641],[89.148142,22.087028],[89.119234,22.124199],[89.139983,22.124419],[89.143352,22.130965],[89.132132,22.136864],[89.128607,22.151997],[89.109018,22.158404],[89.097165,22.173403],[89.085174,22.180734],[89.105943,22.157275],[89.12534,22.151497],[89.130589,22.134888],[89.139929,22.130108],[89.119905,22.129837],[89.115802,22.12052],[89.148092,22.07793],[89.139236,22.068239],[89.129095,22.073747],[89.118798,22.069789],[89.103386,22.047166],[89.093894,22.050326],[89.089719,22.018698],[89.067846,22.055144],[89.087343,22.054281],[89.090248,22.057462],[89.098345,22.094151],[89.07751,22.102975],[89.082713,22.10884],[89.083028,22.112995],[89.088054,22.110793],[89.094638,22.110005],[89.095124,22.119357],[89.084287,22.123846],[89.094379,22.111321],[89.082265,22.11433],[89.076636,22.101877],[89.096925,22.09353],[89.086925,22.055516],[89.055733,22.064667],[89.047902,22.095369],[89.097618,22.142081],[89.101896,22.156091],[89.089404,22.162194],[89.075381,22.14916],[89.067326,22.168918],[89.076518,22.190568],[89.072751,22.198811],[89.040949,22.226472],[89.034551,22.257978],[89.016143,22.253433],[89.019334,22.269065],[88.996149,22.284811],[88.999624,22.296217],[89.025328,22.295998],[89.000507,22.323854],[88.985885,22.324488],[88.988968,22.364187],[88.982891,22.375312],[88.990872,22.389399],[88.973478,22.408549],[89.002336,22.429659],[88.990956,22.445068],[88.996751,22.470792],[88.98054,22.485852],[88.961556,22.549832],[88.938143,22.562042],[88.93863,22.591396],[88.960655,22.616617],[88.934748,22.618231],[88.928626,22.651491],[88.944859,22.662322],[88.962319,22.695108],[88.927919,22.718122],[88.915829,22.735881],[88.920176,22.754064],[88.910984,22.757861],[88.938047,22.793099],[88.957832,22.796003],[88.955427,22.811581],[88.968138,22.845175],[88.946085,22.88008],[88.927933,22.872649],[88.905399,22.885914],[88.895593,22.914433],[88.908232,22.920199],[88.886884,22.933737],[88.89433,22.952231],[88.868289,22.951373],[88.859587,22.942455],[88.855572,22.964242],[88.870683,22.979363],[88.863781,23.00199],[88.844974,23.010543],[88.876618,23.003301],[88.880176,23.008474],[88.872177,23.016748],[88.884088,23.040552],[88.874947,23.044423],[88.873785,23.066257],[88.860989,23.077446],[88.874589,23.089921],[88.868385,23.101176],[88.89977,23.112193],[88.910267,23.129901],[88.917872,23.129218],[88.920758,23.143286],[88.930816,23.143326],[88.928035,23.163529],[88.934014,23.161915],[88.939011,23.176918],[88.95782,23.182775],[88.961798,23.193221],[88.975301,23.192491],[88.978716,23.183489],[88.98769,23.202792],[88.979669,23.212647],[88.995638,23.213993],[88.983115,23.221942],[88.980187,23.215713],[88.975545,23.224569],[88.977833,23.21462],[88.970618,23.222676],[88.942219,23.206358],[88.926367,23.218038],[88.916669,23.21968],[88.920932,23.216134],[88.914786,23.213225],[88.914924,23.228957],[88.906784,23.236097],[88.885722,23.22624],[88.874645,23.234283],[88.844847,23.230688],[88.836092,23.243734],[88.824232,23.233753],[88.828222,23.245195],[88.810955,23.256206],[88.805891,23.238099],[88.8114,23.221674],[88.789735,23.218486],[88.774367,23.224559],[88.777968,23.235183],[88.769472,23.244963],[88.753904,23.24026],[88.718813,23.254865],[88.724444,23.271901],[88.711451,23.278175],[88.71047,23.288682],[88.697635,23.291778],[88.69624,23.302232],[88.710727,23.31301],[88.706441,23.304133],[88.725895,23.298868],[88.725013,23.318121],[88.730559,23.319863],[88.730087,23.309631],[88.745013,23.307123],[88.749878,23.320902],[88.733177,23.327507],[88.739084,23.343278],[88.731938,23.351775],[88.746043,23.348973],[88.747626,23.362391],[88.757899,23.359869],[88.765488,23.367671],[88.76137,23.386702],[88.748765,23.398149],[88.761147,23.408915],[88.754698,23.416586],[88.764165,23.448111],[88.773235,23.448441],[88.782195,23.441419],[88.778274,23.437549],[88.795409,23.443604],[88.787251,23.46958],[88.801385,23.486357],[88.794802,23.485471],[88.800405,23.49712],[88.791853,23.502861],[88.784467,23.497302],[88.786145,23.505897],[88.769908,23.495693],[88.773941,23.479834],[88.7606,23.490816],[88.760817,23.478655],[88.741368,23.479783],[88.724067,23.5126],[88.715063,23.508512],[88.695723,23.517503],[88.682862,23.541696],[88.659668,23.549216],[88.650122,23.585477],[88.638734,23.590861],[88.645997,23.608131],[88.604905,23.600394],[88.606234,23.610501],[88.597159,23.602071],[88.580032,23.603061],[88.585274,23.61656],[88.593783,23.616989],[88.593713,23.640914],[88.562159,23.637184],[88.55819,23.649247],[88.573824,23.666752],[88.565137,23.713823],[88.576573,23.733087],[88.569659,23.747044],[88.58073,23.759256],[88.579194,23.775109],[88.55577,23.784452],[88.578879,23.787515],[88.595598,23.804957],[88.585071,23.813737],[88.59385,23.809318],[88.602033,23.816514],[88.586985,23.829542],[88.590212,23.853947],[88.578053,23.851177],[88.575285,23.861723],[88.587443,23.871573],[88.60847,23.863083],[88.616717,23.876787],[88.625362,23.875],[88.625933,23.865281],[88.66754,23.869595],[88.66424,23.882499],[88.680772,23.887384],[88.688374,23.901572],[88.70415,23.899284],[88.699503,23.911065],[88.706321,23.916405],[88.733384,23.911083],[88.734891,23.933522],[88.743119,23.929748],[88.742418,23.951149],[88.732638,23.960711],[88.737448,23.982673],[88.769342,23.981498],[88.761328,24.005322],[88.728806,23.996661],[88.742166,24.033425],[88.735064,24.037791],[88.739535,24.045736],[88.726831,24.053058],[88.737166,24.062557],[88.72355,24.068739],[88.727705,24.100924],[88.700228,24.094428],[88.70078,24.108255],[88.693042,24.111323],[88.697137,24.120465],[88.708501,24.120086],[88.746394,24.147172],[88.731539,24.171718],[88.740896,24.254025],[88.735405,24.276565],[88.72474,24.297878],[88.696522,24.315428],[88.628504,24.30519],[88.623669,24.315603],[88.588044,24.311977],[88.587088,24.324202],[88.567581,24.326709],[88.555052,24.293409],[88.52711,24.344467],[88.507861,24.342556],[88.446329,24.378668],[88.424825,24.383266],[88.389388,24.371914],[88.333912,24.381507],[88.272052,24.440526],[88.198389,24.462581],[88.173427,24.493144],[88.14072,24.51134],[88.096938,24.556543],[88.041151,24.643426],[88.008628,24.667884],[88.062839,24.721642],[88.072451,24.743757],[88.065709,24.750815],[88.074506,24.760867],[88.068288,24.769268],[88.077832,24.769208],[88.08898,24.78302],[88.106077,24.779662],[88.112295,24.814153],[88.123536,24.823166],[88.136252,24.805399],[88.131887,24.836113],[88.140891,24.834477],[88.144906,24.8512],[88.160422,24.848581],[88.162163,24.858064],[88.174984,24.86025],[88.152631,24.884532],[88.168975,24.893075],[88.140307,24.914157],[88.138004,24.936258],[88.157464,24.933585],[88.17015,24.95049],[88.175444,24.946337],[88.183541,24.955649],[88.224985,24.96009],[88.263336,24.918395],[88.259028,24.878141],[88.267166,24.878449],[88.277229,24.89752],[88.27807,24.888152],[88.301981,24.885938],[88.303198,24.871845],[88.318493,24.883647],[88.327723,24.870224],[88.34681,24.892514],[88.343887,24.899671],[88.332722,24.897277],[88.324464,24.915571],[88.336463,24.919355],[88.339753,24.939669],[88.354726,24.942319],[88.359524,24.953476],[88.382501,24.938897],[88.398108,24.944436],[88.395452,24.969825],[88.403983,24.971028],[88.404733,24.97965],[88.417395,24.974968],[88.412375,24.999044],[88.420464,24.999673],[88.424762,25.016259],[88.427152,25.008267],[88.436088,25.006221],[88.438801,25.022655],[88.452622,25.037063],[88.437772,25.043177],[88.435338,25.055283],[88.452857,25.079421],[88.446531,25.081542],[88.44135,25.127643],[88.460345,25.138626],[88.459224,25.160965],[88.442906,25.174357],[88.443148,25.195125],[88.435665,25.198801],[88.438796,25.20958],[88.437356,25.198595],[88.463371,25.195024],[88.471986,25.19763],[88.475432,25.213483],[88.499099,25.210494],[88.500596,25.203408],[88.537719,25.197922],[88.533923,25.18808],[88.557569,25.192717],[88.555562,25.179066],[88.564808,25.174615],[88.579575,25.176907],[88.591134,25.185194],[88.590886,25.194602],[88.597722,25.191],[88.612995,25.204292],[88.642816,25.206428],[88.669692,25.1983],[88.679996,25.20902],[88.704482,25.208288],[88.733336,25.200017],[88.734534,25.184699],[88.750845,25.182911],[88.748712,25.177085],[88.769319,25.189913],[88.773609,25.179465],[88.80584,25.170549],[88.843707,25.213919],[88.849679,25.201856],[88.864877,25.200702],[88.864074,25.190239],[88.874868,25.196328],[88.875823,25.178972],[88.889817,25.178469],[88.889366,25.184757],[88.910927,25.180413],[88.91233,25.168065],[88.923022,25.165007],[88.933284,25.18135],[88.948413,25.176431],[88.9475,25.194554],[88.933829,25.199902],[88.936398,25.210634],[88.961047,25.208275],[88.951641,25.232291],[88.956246,25.255156],[88.974575,25.260223],[88.987152,25.274579],[89.007588,25.263745],[89.008877,25.303141],[88.996297,25.295791],[88.985287,25.298788],[88.985277,25.306009],[88.929437,25.304212],[88.927765,25.317294],[88.915054,25.312599],[88.906389,25.337929],[88.887624,25.337211],[88.88509,25.32573],[88.866717,25.342814],[88.868878,25.352308],[88.855624,25.354298],[88.854779,25.363515],[88.840107,25.36387],[88.840797,25.397732],[88.812381,25.41051],[88.818275,25.418175],[88.829946,25.417049],[88.834268,25.431779],[88.825793,25.440773],[88.839276,25.458676],[88.829648,25.490355],[88.813743,25.487993],[88.810591,25.523203],[88.78262,25.515206],[88.761625,25.525959],[88.759133,25.509707],[88.770782,25.505226],[88.764775,25.494956],[88.740025,25.489416],[88.742132,25.50512],[88.713815,25.495671],[88.707507,25.499945],[88.710329,25.480709],[88.699512,25.47131],[88.66297,25.473769],[88.660234,25.481838],[88.646347,25.478528],[88.642677,25.492795],[88.648456,25.496307],[88.622441,25.497025],[88.606125,25.509456],[88.609059,25.516435],[88.596325,25.506176],[88.559984,25.512557],[88.554855,25.520999],[88.539897,25.508387],[88.533076,25.542199],[88.523453,25.535293],[88.519012,25.545191],[88.509389,25.544159],[88.497503,25.555721],[88.499896,25.584054],[88.468794,25.583182],[88.457049,25.598978],[88.444309,25.597029],[88.44506,25.613848],[88.455764,25.62868],[88.453765,25.66501],[88.401653,25.672669],[88.404048,25.6851],[88.390125,25.684101],[88.391453,25.69359],[88.371432,25.696646],[88.373932,25.717307],[88.337522,25.737709],[88.320891,25.737578],[88.31634,25.753187],[88.289006,25.767895],[88.29074,25.773852],[88.26846,25.780798],[88.269516,25.808239],[88.248568,25.813486],[88.246854,25.806051],[88.235358,25.808545],[88.233211,25.798232],[88.214908,25.80091],[88.20909,25.787207],[88.183701,25.801784],[88.152147,25.775764],[88.141629,25.780232],[88.144182,25.793728],[88.114416,25.798023],[88.120068,25.812577],[88.106987,25.815179],[88.11153,25.821732],[88.101091,25.829097],[88.107713,25.838763],[88.101431,25.843507],[88.113817,25.854575],[88.108916,25.869136],[88.102856,25.861834],[88.093855,25.874402],[88.102932,25.889313],[88.090321,25.89647],[88.093641,25.911176],[88.085783,25.915677],[88.094642,25.931501],[88.111147,25.933195],[88.122316,25.948463],[88.115149,25.962845],[88.124598,25.968003],[88.119291,25.971683],[88.127805,25.976711],[88.129635,25.997038],[88.143644,26.000472],[88.139625,26.013022],[88.182789,26.026729],[88.172701,26.031608],[88.169493,26.045332],[88.179256,26.046598],[88.182293,26.072071],[88.167276,26.084544],[88.158413,26.080786],[88.164298,26.085706],[88.158331,26.094962],[88.162423,26.105476],[88.177616,26.122262],[88.177149,26.148067],[88.194511,26.152034],[88.19612,26.16339],[88.203997,26.15918],[88.21518,26.163086],[88.212831,26.169192],[88.227771,26.168577],[88.241767,26.189178],[88.269286,26.186599],[88.285574,26.200247],[88.319758,26.202948],[88.331159,26.217142],[88.350117,26.220334],[88.359221,26.24294],[88.34865,26.249979],[88.349437,26.281448],[88.388715,26.315179],[88.414956,26.315186],[88.415612,26.324439],[88.406981,26.323749],[88.405484,26.331004],[88.413803,26.337359],[88.434502,26.335229],[88.457648,26.376757],[88.463155,26.35736],[88.47768,26.357292],[88.483545,26.349672],[88.491856,26.351502],[88.488316,26.360364],[88.505667,26.363696],[88.504518,26.348778],[88.522825,26.360172],[88.51534,26.364067],[88.524781,26.374666],[88.51732,26.370673],[88.512816,26.378245],[88.519093,26.390099],[88.513247,26.387463],[88.50482,26.398979],[88.508884,26.4073],[88.501859,26.403347],[88.495334,26.410396],[88.502224,26.418109],[88.493932,26.418858],[88.498167,26.425602],[88.489398,26.430954],[88.496162,26.437195],[88.479659,26.451256],[88.485201,26.46035],[88.428386,26.473022],[88.419516,26.465904],[88.404153,26.486128],[88.387683,26.478939],[88.371143,26.488265],[88.360667,26.484851],[88.366032,26.470853],[88.35489,26.447113],[88.331163,26.484632],[88.359375,26.530286],[88.357064,26.541365],[88.370411,26.559654],[88.375912,26.594266],[88.39847,26.603725],[88.387658,26.612043],[88.410553,26.634513],[88.417981,26.62165],[88.42112,26.571095],[88.437254,26.544143],[88.448167,26.535377],[88.456431,26.536987],[88.458835,26.547228],[88.483527,26.541069],[88.489699,26.510441],[88.505564,26.516431],[88.521353,26.510592],[88.526453,26.48149],[88.55646,26.484873],[88.552317,26.475558],[88.562379,26.467472],[88.55996,26.457111],[88.592547,26.448742],[88.593954,26.470837],[88.622851,26.471157],[88.623728,26.434861],[88.649761,26.429687],[88.644403,26.418833],[88.667741,26.407307],[88.683572,26.413789],[88.687356,26.401073],[88.670295,26.397793],[88.688477,26.396029],[88.68738,26.386907],[88.702248,26.388553],[88.681031,26.380221],[88.696232,26.36204],[88.694048,26.346953],[88.703943,26.341986],[88.702916,26.334301],[88.712785,26.343729],[88.72608,26.341368],[88.73586,26.348081],[88.733197,26.353928],[88.745817,26.347175],[88.733827,26.328586],[88.748679,26.332023],[88.746452,26.322475],[88.73058,26.32375],[88.719186,26.312251],[88.71498,26.318057],[88.693206,26.314082],[88.695689,26.328821],[88.675071,26.320172],[88.684742,26.295203],[88.709387,26.288867],[88.686196,26.28212],[88.680671,26.295281],[88.667984,26.297266],[88.672145,26.268565],[88.66621,26.262739],[88.68317,26.260924],[88.695791,26.279538],[88.721947,26.282927],[88.719746,26.293098],[88.745461,26.291101],[88.746628,26.311112],[88.756559,26.310575],[88.764032,26.298981],[88.79347,26.310074],[88.819067,26.294591],[88.809964,26.277022],[88.813524,26.254676],[88.829097,26.249805],[88.827577,26.239727],[88.840263,26.231408],[88.877816,26.233495],[88.877689,26.242295],[88.861402,26.252115],[88.861272,26.272218],[88.875791,26.28665],[88.898203,26.288744],[88.926221,26.283893],[88.956774,26.240636],[89.027471,26.247726],[89.050621,26.24177],[89.051943,26.256107],[89.062874,26.255867],[89.062924,26.270239],[89.054302,26.276358],[89.06209,26.27807],[89.058592,26.293343],[89.04635,26.295734],[89.048118,26.279875],[89.03982,26.276623],[89.040726,26.285869],[89.019695,26.289899],[89.026295,26.306295],[89.021112,26.309176],[89.016834,26.289494],[89.006665,26.304433],[88.995664,26.290342],[88.997529,26.299727],[88.984868,26.300643],[88.982872,26.310183],[88.985002,26.318154],[88.994883,26.313342],[88.991482,26.322442],[89.000901,26.329858],[88.984792,26.33403],[88.987686,26.347214],[88.96135,26.352403],[88.963494,26.338561],[88.955928,26.330108],[88.952051,26.341334],[88.958986,26.343647],[88.946097,26.34398],[88.958388,26.361774],[88.950423,26.366322],[88.946722,26.355787],[88.925962,26.364847],[88.918488,26.359975],[88.921583,26.364296],[88.910453,26.371113],[88.921341,26.377305],[88.909042,26.380136],[88.91802,26.400885],[88.903939,26.408134],[88.926506,26.406892],[88.931222,26.414265],[88.922955,26.423423],[88.933607,26.426623],[88.926149,26.432164],[88.944718,26.425684],[88.951258,26.435107],[88.946131,26.448037],[88.965217,26.451983],[88.95714,26.459531],[88.983206,26.446594],[88.980687,26.425355],[88.99397,26.412897],[88.993676,26.423072],[89.005881,26.421524],[89.007166,26.412835],[89.021706,26.414171],[89.019354,26.404229],[89.02997,26.407107],[89.033506,26.395526],[89.063,26.400837],[89.073747,26.391269],[89.084413,26.398376],[89.081266,26.390283],[89.093422,26.3938],[89.088358,26.365789],[89.079661,26.362937],[89.098282,26.359029],[89.093305,26.353041],[89.101285,26.336633],[89.083638,26.323227],[89.09185,26.320416],[89.096732,26.329322],[89.112672,26.318509],[89.136245,26.320217],[89.129499,26.313137],[89.135941,26.307512],[89.125159,26.305448],[89.132408,26.298823],[89.121909,26.287595],[89.103352,26.313342],[89.099195,26.304121],[89.107075,26.291749],[89.100055,26.279566],[89.12516,26.263563],[89.119787,26.252729],[89.140879,26.235875],[89.142075,26.214642],[89.149294,26.208961],[89.134537,26.181261],[89.140963,26.169395],[89.157223,26.163289],[89.148452,26.158194],[89.155323,26.138708],[89.192915,26.123875],[89.202843,26.129358],[89.211327,26.124324],[89.229358,26.123957],[89.229182,26.116681],[89.251719,26.101316],[89.251554,26.091456],[89.266444,26.091343],[89.254352,26.064214],[89.27082,26.06002],[89.280978,26.065695],[89.275669,26.049176],[89.300372,26.050522],[89.326446,26.035978],[89.348486,26.010481],[89.392442,26.00723],[89.390808,26.02304],[89.403131,26.027669],[89.407394,26.041613],[89.42378,26.047011],[89.432629,26.038908],[89.430961,26.011145],[89.465786,25.998095],[89.481801,25.997525],[89.491204,26.006053],[89.540831,26.006009],[89.548174,26.000698],[89.535095,25.988989],[89.540878,25.969632],[89.55759,25.965459],[89.566408,25.980366],[89.568842,25.967859],[89.577829,25.969382],[89.574105,25.980385],[89.586687,25.980966],[89.578658,26.026359],[89.585277,26.026366],[89.586812,26.038423],[89.597659,26.037947],[89.592186,26.044912],[89.613216,26.053629],[89.604987,26.063291],[89.619349,26.053519],[89.650004,26.064485],[89.63399,26.080107],[89.639344,26.090969],[89.630143,26.106947],[89.613901,26.1037],[89.61724,26.094802],[89.609434,26.095479],[89.60825,26.088504],[89.593849,26.102241],[89.599992,26.103548],[89.597851,26.113069],[89.614062,26.106898],[89.630286,26.118524],[89.626303,26.128523],[89.62044,26.119835],[89.612345,26.127856],[89.604194,26.117601],[89.60694,26.125783],[89.595544,26.140001],[89.597853,26.154007],[89.591087,26.157321],[89.59983,26.160957],[89.610286,26.153948],[89.618812,26.166974],[89.611171,26.168704],[89.615092,26.175978],[89.608229,26.17644],[89.608715,26.180684],[89.623839,26.179217],[89.624716,26.171333],[89.636993,26.178913],[89.632077,26.171985],[89.649238,26.164532],[89.655442,26.181526],[89.627699,26.184057],[89.63011,26.195873],[89.642358,26.185381],[89.649942,26.190297],[89.632135,26.211976],[89.633799,26.230346],[89.6555,26.219161],[89.671841,26.219951],[89.678708,26.238331],[89.689386,26.221369],[89.678974,26.224189],[89.679654,26.214088],[89.691421,26.211761],[89.673444,26.205783],[89.691743,26.177636],[89.701986,26.174063],[89.674253,26.167046],[89.701311,26.151857],[89.714476,26.168858],[89.720362,26.156399],[89.747597,26.157444],[89.766365,26.130981],[89.755811,26.110155],[89.78412,26.105401],[89.78122,26.083554],[89.794848,26.087432],[89.79031,26.075953],[89.796528,26.076414],[89.798725,26.059663],[89.785704,26.057229],[89.787821,26.047813],[89.773575,26.037731],[89.801771,26.040353],[89.789891,26.017907],[89.809612,26.042766],[89.819221,26.025915],[89.820419,25.998037],[89.814809,25.997947],[89.820155,25.987742],[89.835892,25.982535],[89.835802,26.012668],[89.850762,25.989766],[89.870658,25.981453],[89.871758,25.974163],[89.838052,25.968144],[89.849284,25.949206],[89.82908,25.954854],[89.825349,25.945571],[89.842668,25.940115],[89.887006,25.945325],[89.87853,25.924335],[89.832506,25.870713],[89.835228,25.840828],[89.816992,25.814382],[89.827129,25.808216],[89.841272,25.759094],[89.827328,25.729953],[89.834296,25.716491],[89.851046,25.711808],[89.846575,25.695856],[89.87103,25.662647],[89.882416,25.617308],[89.86591,25.546233],[89.85122,25.538719],[89.860181,25.517724],[89.849213,25.492722],[89.852122,25.46595],[89.832666,25.438871],[89.819973,25.382598],[89.822623,25.350126],[89.84108,25.316523],[89.831158,25.29614],[89.876533,25.285445],[89.909072,25.308177],[89.938935,25.299128],[89.943839,25.304451],[89.949171,25.292826],[89.966589,25.303816],[89.976884,25.297078],[89.980704,25.280977],[90.004458,25.280524],[90.033668,25.262389],[90.054457,25.261464],[90.112266,25.225475],[90.171424,25.22317],[90.225477,25.200568],[90.233927,25.205016],[90.310357,25.188876],[90.330177,25.19389],[90.370536,25.162934],[90.404406,25.160046],[90.440981,25.144626],[90.498994,25.172279],[90.509829,25.169522],[90.509014,25.17544],[90.640866,25.174634],[90.640283,25.183706],[90.65109,25.18209],[90.647428,25.193929],[90.657976,25.185348],[90.663401,25.197998],[90.66594,25.165957],[90.674551,25.176667],[90.685458,25.174631],[90.681832,25.164931],[90.698015,25.156954],[90.709924,25.168211],[90.733194,25.155014],[90.741884,25.161365],[90.734166,25.166945],[90.75907,25.167928],[90.780282,25.186224],[90.805399,25.173724],[90.804874,25.166463],[90.861768,25.157699],[90.883909,25.1668],[90.927895,25.162337],[91.019034,25.187087],[91.067808,25.191642],[91.069574,25.198521],[91.125173,25.19412],[91.194612,25.201925],[91.250746,25.195776],[91.267947,25.207362],[91.292141,25.193437],[91.286477,25.185476],[91.353665,25.171334],[91.36444,25.178014],[91.374192,25.168673],[91.399013,25.164964],[91.410847,25.16378],[91.414569,25.171242],[91.440493,25.149755],[91.46855,25.151923],[91.464159,25.134913],[91.470551,25.133748],[91.500088,25.135778],[91.509467,25.147551],[91.557147,25.149846],[91.56299,25.160772],[91.576259,25.160034],[91.571468,25.165375],[91.57697,25.172102],[91.609357,25.177136],[91.615362,25.16977],[91.59993,25.159291],[91.602247,25.142419],[91.621413,25.143516],[91.622585,25.128916],[91.637852,25.122655],[91.652687,25.131305],[91.664949,25.128551],[91.670596,25.138051],[91.692317,25.137666],[91.70352,25.160014],[91.747573,25.140272],[91.744715,25.170387],[91.755952,25.177601],[91.75847,25.168496],[91.775736,25.163323],[91.826467,25.177781],[91.880561,25.173029],[91.930941,25.181211],[91.980507,25.171788],[92.003418,25.186241],[92.026111,25.179306],[92.061835,25.187118],[92.132834,25.160271],[92.139643,25.154675],[92.134145,25.143722],[92.1418,25.140595],[92.135761,25.138856],[92.165666,25.136022],[92.159492,25.12671],[92.178901,25.126382],[92.183824,25.118196],[92.190327,25.135928],[92.194424,25.125753],[92.219325,25.117133],[92.200339,25.12012],[92.196091,25.108165],[92.221249,25.10412],[92.227737,25.093699],[92.310226,25.069687],[92.322148,25.078269],[92.34777,25.074133],[92.348987,25.061256],[92.339416,25.050099],[92.362246,25.049947],[92.369621,25.041],[92.425766,25.028794],[92.414301,24.989782],[92.422113,24.987323],[92.419432,24.967567],[92.45739,24.97068],[92.46843,24.962302],[92.451284,24.952119],[92.448907,24.939093],[92.487639,24.946674],[92.483937,24.928605],[92.496729,24.902214],[92.490115,24.873391],[92.476181,24.868283],[92.445173,24.873096],[92.439148,24.859015],[92.427573,24.854429],[92.407206,24.860129],[92.400218,24.84969],[92.386921,24.85272],[92.375417,24.874485],[92.363191,24.872594],[92.345809,24.893683],[92.339662,24.878344],[92.298901,24.916095],[92.280032,24.905697],[92.247498,24.90945],[92.232618,24.902055],[92.247134,24.887656],[92.246263,24.868482],[92.23485,24.861505],[92.241387,24.842142],[92.254658,24.838807],[92.249005,24.829875],[92.272987,24.827571],[92.273498,24.799315],[92.288832,24.784632],[92.280154,24.766331],[92.288862,24.761162],[92.27963,24.74449],[92.295882,24.736633],[92.259636,24.687402],[92.247006,24.654919],[92.230834,24.530228],[92.212534,24.503768],[92.169397,24.531877],[92.15968,24.52944],[92.153903,24.512672],[92.158979,24.507152],[92.1504,24.495367],[92.168824,24.428176],[92.163841,24.418498],[92.136699,24.425098],[92.120545,24.381632],[92.102327,24.383056],[92.090312,24.372036],[92.045012,24.375204],[92.019991,24.386691],[92.006918,24.381681],[91.996501,24.393875],[91.984676,24.376746],[91.973321,24.384331],[91.967117,24.379041],[91.996781,24.336945],[91.995857,24.322179],[91.977043,24.327568],[91.969133,24.349851],[91.956667,24.356817],[91.941168,24.342676],[91.919897,24.337601],[91.940743,24.268239],[91.905702,24.138816],[91.884427,24.138876],[91.873968,24.174004],[91.848164,24.184913],[91.841903,24.201481],[91.855057,24.212016],[91.844076,24.226279],[91.816192,24.210114],[91.812529,24.212117],[91.811114,24.216735],[91.806013,24.220845],[91.789048,24.220951],[91.744975,24.247086],[91.759181,24.141566],[91.728329,24.143407],[91.721693,24.152618],[91.706162,24.154412],[91.703043,24.163762],[91.688172,24.162325],[91.666909,24.21066],[91.665344,24.233655],[91.64767,24.218626],[91.660069,24.189668],[91.656228,24.176283],[91.646683,24.178756],[91.646528,24.156756],[91.634359,24.138178],[91.637868,24.103066],[91.611169,24.092466],[91.594455,24.096653],[91.598432,24.084607],[91.585979,24.072752],[91.574402,24.080147],[91.545211,24.074345],[91.473108,24.101908],[91.442128,24.097448],[91.428051,24.108587],[91.374534,24.107898],[91.377075,24.079992],[91.396534,24.049754],[91.390808,24.025911],[91.37325,24.002804],[91.379463,23.975455],[91.361581,23.986399],[91.341164,23.982126],[91.329988,23.992617],[91.314882,23.990573],[91.303571,23.998037],[91.299699,23.972266],[91.287024,23.969456],[91.284621,23.982238],[91.263932,23.94437],[91.276138,23.922658],[91.23296,23.927096],[91.246142,23.913847],[91.228428,23.898779],[91.229546,23.88074],[91.254043,23.838129],[91.226365,23.791069],[91.226292,23.751263],[91.218925,23.736563],[91.210311,23.749293],[91.167597,23.749783],[91.157029,23.742153],[91.149127,23.711668],[91.154181,23.688537],[91.19548,23.692281],[91.208469,23.686573],[91.199356,23.646742],[91.156255,23.670845],[91.162731,23.595209],[91.178019,23.591884],[91.17508,23.586304],[91.1951,23.562611],[91.194382,23.547323],[91.212904,23.550554],[91.200709,23.520162],[91.207756,23.512213],[91.223507,23.514173],[91.217927,23.499646],[91.235511,23.501918],[91.236307,23.489146],[91.249262,23.490312],[91.251477,23.453777],[91.270605,23.429936],[91.263388,23.42385],[91.276377,23.414828],[91.279696,23.376777],[91.294304,23.374846],[91.284204,23.3713],[91.294837,23.361335],[91.290993,23.350791],[91.32002,23.360237],[91.310731,23.342566],[91.296112,23.340996],[91.289798,23.318658],[91.31308,23.30648],[91.314932,23.296762],[91.307149,23.299914],[91.300158,23.292577],[91.316617,23.282018],[91.309721,23.27651],[91.317957,23.253049],[91.326542,23.252437],[91.318627,23.245622],[91.323315,23.158221],[91.33305,23.153018],[91.341801,23.117958],[91.347564,23.118931],[91.346917,23.102459],[91.36972,23.070523],[91.395736,23.056297],[91.415918,23.062824],[91.410821,23.066427],[91.417417,23.082992],[91.408054,23.083582],[91.406009,23.097067],[91.400195,23.096577],[91.403369,23.113865],[91.379867,23.184613],[91.38768,23.208022],[91.380701,23.208566],[91.392084,23.220158],[91.3864,23.227685],[91.400834,23.229247],[91.392429,23.245544],[91.408673,23.247756],[91.397234,23.256374],[91.397512,23.265259],[91.411234,23.255815],[91.408835,23.285321],[91.4156,23.282901],[91.418372,23.255587],[91.421132,23.261928],[91.454144,23.260512],[91.448543,23.243888],[91.457836,23.24613],[91.470245,23.227778],[91.450502,23.219598],[91.458564,23.213448],[91.475339,23.22049],[91.484367,23.209335],[91.482373,23.198566],[91.470692,23.196559],[91.484871,23.188339],[91.503144,23.19223],[91.50103,23.185418],[91.507471,23.183837],[91.491667,23.177712],[91.498168,23.171784],[91.490887,23.157762],[91.507161,23.154405],[91.494681,23.147222],[91.499969,23.142094],[91.515263,23.145122],[91.503083,23.130635],[91.517578,23.125573],[91.520331,23.114593],[91.512237,23.113368],[91.511246,23.104343],[91.522282,23.104142],[91.51887,23.094284],[91.529756,23.09181],[91.525047,23.082966],[91.535258,23.063481],[91.524907,23.055498],[91.536208,23.054659],[91.53043,23.038437],[91.550284,23.038547],[91.538347,23.019356],[91.548132,23.019393],[91.54245,22.999653],[91.556943,22.99674],[91.557176,22.978604],[91.576705,22.965383],[91.589855,22.976768],[91.60556,22.972169],[91.613741,22.958765],[91.604786,22.96231],[91.600022,22.95508],[91.615782,22.951588],[91.620227,22.938674],[91.624384,22.96145],[91.635381,22.961055],[91.645204,22.985016],[91.651298,22.976882],[91.682432,22.97757],[91.693611,22.988447],[91.708565,22.982003],[91.721318,22.988358],[91.7715,23.033],[91.768487,23.041111],[91.773827,23.027674],[91.780002,23.028672],[91.783424,23.041888],[91.774459,23.069717],[91.789678,23.071659],[91.793855,23.062557],[91.805977,23.063162],[91.817831,23.07234],[91.817259,23.083055],[91.835107,23.092495],[91.81336,23.099433],[91.817965,23.111556],[91.811037,23.121404],[91.814574,23.133682],[91.808034,23.135788],[91.814063,23.145597],[91.806034,23.157582],[91.809827,23.165525],[91.788815,23.204597],[91.791001,23.226694],[91.78412,23.232772],[91.784705,23.233879],[91.785003,23.234617],[91.78417,23.238779],[91.78534,23.238975],[91.783379,23.243507],[91.7769,23.241697],[91.77699,23.269366],[91.761307,23.277193],[91.761934,23.300066],[91.764256,23.309375],[91.825047,23.352453],[91.827149,23.365065],[91.837619,23.370907],[91.845041,23.40477],[91.860541,23.405315],[91.899644,23.440721],[91.942734,23.435248],[91.936595,23.466512],[91.958672,23.473058],[91.958189,23.479663],[91.969105,23.476501],[91.970974,23.502661],[91.956234,23.525835],[91.964505,23.535373],[91.95678,23.551318],[91.954038,23.60977],[91.933946,23.684445],[91.940439,23.693064],[91.957309,23.693983],[91.948123,23.713919],[91.956856,23.734174],[91.97806,23.733341],[91.999956,23.671334],[92.008923,23.663478],[92.063356,23.64511],[92.079258,23.6487],[92.076303,23.668045],[92.083067,23.680126],[92.099698,23.676787],[92.107183,23.689469],[92.123777,23.695751],[92.144197,23.733217],[92.162351,23.739712],[92.171789,23.738707],[92.169593,23.72337],[92.17768,23.70767],[92.186082,23.711069],[92.206968,23.700651],[92.212507,23.652888],[92.222701,23.65301],[92.233176,23.667636],[92.241084,23.720514],[92.265994,23.724726],[92.289263,23.701977],[92.29102,23.681131],[92.272937,23.641729],[92.281712,23.638697],[92.276431,23.631603],[92.278266,23.625742],[92.287922,23.629073],[92.295846,23.621477],[92.287241,23.616841],[92.287117,23.596151],[92.296735,23.588148],[92.301831,23.592196],[92.313249,23.556697],[92.306162,23.535171],[92.317816,23.52625],[92.313531,23.51535],[92.322714,23.501034],[92.316379,23.486435],[92.326146,23.478883],[92.31702,23.471813],[92.33168,23.466353],[92.325275,23.459239],[92.333262,23.456497],[92.326993,23.448555],[92.333464,23.429001],[92.34626,23.433412],[92.347516,23.41332],[92.35717,23.410888],[92.352563,23.381198],[92.364882,23.379712],[92.356111,23.372747],[92.363902,23.366258],[92.369998,23.373738],[92.379047,23.362106],[92.380792,23.351686],[92.364434,23.32264],[92.38569,23.306261],[92.38093,23.285281],[92.404028,23.240623],[92.34671,23.235789],[92.364131,23.156557],[92.35682,23.134267],[92.368019,23.127539],[92.357863,23.10353],[92.379107,23.087113],[92.392247,23.056503],[92.382269,23.033336],[92.384736,22.986885],[92.37431,22.970105],[92.371702,22.936213],[92.376476,22.928759],[92.39783,22.92943],[92.401335,22.911999],[92.419272,22.919355],[92.434184,22.885667],[92.44939,22.894676],[92.448213,22.877027],[92.45981,22.870674],[92.452126,22.863005],[92.464341,22.854702],[92.45673,22.850583],[92.462063,22.841267],[92.453245,22.84346],[92.461805,22.83077],[92.454007,22.820184],[92.472216,22.795756],[92.46932,22.782127],[92.479356,22.753922],[92.474,22.747082],[92.512907,22.732978],[92.528565,22.665772],[92.524479,22.640733],[92.532273,22.633321],[92.527481,22.620984],[92.539167,22.589654],[92.532505,22.586712],[92.538084,22.57531],[92.527375,22.573233],[92.521772,22.560251],[92.539807,22.540859],[92.543122,22.514551],[92.551179,22.513733],[92.542609,22.49854],[92.549577,22.498339],[92.543277,22.490158],[92.556388,22.425229],[92.552052,22.409033],[92.557969,22.408886],[92.55934,22.382078],[92.581221,22.321804],[92.586532,22.280403],[92.580993,22.269282],[92.590732,22.255272],[92.595057,22.175465],[92.607512,22.172132],[92.609282,22.164211],[92.605484,22.123315],[92.594011,22.12559],[92.591882,22.139532],[92.578205,22.143605],[92.562506,22.128273],[92.575163,22.116202],[92.592257,22.065649],[92.602638,22.061859],[92.599107,22.042413],[92.592637,22.04113],[92.599147,22.008628],[92.612667,21.991382],[92.603188,21.978689],[92.617569,21.939865],[92.6103,21.929192],[92.621518,21.920906],[92.634343,21.875445],[92.631808,21.863235],[92.613892,21.851865],[92.620936,21.825003],[92.609561,21.817844],[92.60832,21.804863],[92.608735,21.731088],[92.601198,21.702596],[92.607732,21.681314],[92.601826,21.65471],[92.611028,21.622976],[92.609008,21.584656],[92.651109,21.358568],[92.680257,21.285619],[92.629469,21.26858],[92.623022,21.251003],[92.596975,21.243578],[92.557936,21.383886],[92.541823,21.376375],[92.508522,21.377295],[92.511103,21.363896],[92.499111,21.361066],[92.459613,21.369112],[92.438816,21.365178],[92.428096,21.423575],[92.380975,21.479868],[92.343471,21.466879],[92.337854,21.436015],[92.326422,21.431992],[92.328517,21.419076],[92.297236,21.420134],[92.291723,21.430478],[92.269071,21.428202],[92.269563,21.40042],[92.255797,21.389245],[92.258806,21.362178],[92.211498,21.339836],[92.19776,21.319633],[92.21974,21.257608],[92.210789,21.248228],[92.218056,21.231896],[92.172501,21.181228],[92.172584,21.170784],[92.175806,21.159979],[92.199331,21.161285],[92.200443,21.124372],[92.223718,21.1199],[92.233495,21.096763],[92.258326,21.078793],[92.265019,21.062239],[92.251233,21.025599],[92.270135,20.919487],[92.302109,20.884389],[92.335065,20.791604],[92.340329,20.746774],[92.352208,20.741994],[92.3311,20.746514],[92.311593,20.766742],[92.270783,20.846119],[92.223626,20.914327],[92.185239,21.010801],[92.046177,21.184573],[92.047988,21.286239],[92.034905,21.328597],[92.017392,21.368235],[91.948816,21.460231],[91.970392,21.476355],[91.969825,21.457902],[92.001697,21.516007],[92.007105,21.500709],[92.020343,21.497861],[92.008895,21.500927],[92.000696,21.519782],[91.992226,21.570019],[92.001596,21.593754],[92.017172,21.600543],[92.019972,21.607103],[92.010526,21.622463],[92.018584,21.606547],[92.007363,21.600709],[92.009449,21.603695],[92.009632,21.609571],[92.006127,21.618502],[91.962022,21.671501],[91.947408,21.715855],[91.961479,21.667278],[91.982982,21.643367],[91.992432,21.613051],[91.975991,21.508775],[91.938341,21.503123],[91.939416,21.491713],[91.920357,21.491649],[91.903391,21.502501],[91.919313,21.48994],[91.937476,21.488679],[91.914246,21.469496],[91.914048,21.477814],[91.892682,21.479969],[91.862277,21.506214],[91.853236,21.521874],[91.865326,21.520664],[91.850477,21.530794],[91.861437,21.543074],[91.890699,21.545326],[91.859344,21.565249],[91.86211,21.574825],[91.874364,21.574114],[91.883453,21.616092],[91.868582,21.592387],[91.868987,21.614965],[91.882636,21.630009],[91.886339,21.62588],[91.892011,21.644787],[91.879787,21.683684],[91.905317,21.698581],[91.878697,21.686421],[91.888427,21.653719],[91.882476,21.647263],[91.857006,21.670275],[91.855396,21.683672],[91.910375,21.820786],[91.916752,21.862623],[91.908456,21.930307],[91.897362,21.941475],[91.906058,21.942474],[91.890379,21.948007],[91.870351,22.002861],[91.878463,22.046782],[91.847426,22.150826],[91.85641,22.151298],[91.860074,22.129512],[91.903104,22.120369],[91.907369,22.125277],[91.904538,22.134032],[91.876826,22.150004],[91.904408,22.153729],[91.918533,22.185001],[91.920066,22.175067],[91.928054,22.168283],[91.937141,22.16919],[91.93774,22.180115],[91.955423,22.16951],[91.977857,22.175451],[91.984632,22.167006],[91.980763,22.1655],[91.975084,22.16754],[91.96987,22.16611],[91.968829,22.160448],[91.971195,22.155402],[91.979598,22.148669],[91.997445,22.143588],[91.971276,22.158865],[91.972279,22.166439],[91.980256,22.163595],[91.98695,22.165365],[91.977716,22.176887],[91.957046,22.170924],[91.938144,22.181544],[91.932168,22.168951],[91.917605,22.187521],[91.903485,22.155908],[91.879277,22.160788],[91.868557,22.159956],[91.869691,22.153551],[91.878616,22.142397],[91.904583,22.125489],[91.859176,22.1354],[91.861725,22.149756],[91.849528,22.154674],[91.841819,22.145728],[91.852929,22.116998],[91.844453,22.115947],[91.824129,22.156749],[91.812322,22.208207],[91.815734,22.229698],[91.833868,22.244548],[91.840684,22.263348],[91.832794,22.272469],[91.804277,22.278953],[91.798144,22.291256],[91.825289,22.317284],[91.859788,22.323822],[91.880858,22.33926],[91.885384,22.348705],[91.889298,22.39131],[91.911447,22.413868],[91.94462,22.422432],[91.969195,22.411084],[91.98177,22.415888],[91.953039,22.424958],[91.929357,22.424467],[91.893157,22.4059],[91.884177,22.418848],[91.891987,22.426283],[91.891139,22.429996],[91.874889,22.432874],[91.856269,22.462897],[91.867255,22.472208],[91.873809,22.467293],[91.876063,22.467625],[91.881148,22.477721],[91.874691,22.468299],[91.867239,22.473403],[91.855443,22.466072],[91.855004,22.462015],[91.860037,22.449054],[91.869917,22.435858],[91.876647,22.429867],[91.889728,22.428437],[91.882247,22.418691],[91.89085,22.406285],[91.861976,22.333859],[91.819067,22.320631],[91.794416,22.29682],[91.797078,22.280112],[91.833628,22.259632],[91.800148,22.225949],[91.765612,22.272259],[91.767985,22.301696],[91.734486,22.415838],[91.736853,22.429505],[91.708696,22.488229],[91.597674,22.611166],[91.591309,22.614885],[91.59843,22.603058],[91.584801,22.615773],[91.581593,22.634179],[91.55792,22.661294],[91.480235,22.714842],[91.462533,22.746907],[91.464513,22.758646],[91.456332,22.752555],[91.447333,22.78452],[91.417295,22.812194],[91.428259,22.821774],[91.430896,22.837236],[91.441871,22.826617],[91.452146,22.828154],[91.467606,22.851729],[91.467942,22.862276],[91.449359,22.827892],[91.434442,22.839784],[91.426619,22.838708],[91.423144,22.824401],[91.407079,22.813443],[91.406017,22.805842],[91.423477,22.796869],[91.41959,22.787441],[91.430507,22.777808],[91.421429,22.748497],[91.392628,22.781943],[91.377435,22.78566],[91.364133,22.777601],[91.333229,22.795642],[91.33916,22.840829],[91.335726,22.84559],[91.322698,22.842186],[91.332196,22.848415],[91.329305,22.853458],[91.318491,22.843009],[91.321393,22.839114],[91.336255,22.84028],[91.328672,22.788224],[91.385223,22.764515],[91.383278,22.755642],[91.298909,22.745161],[91.258853,22.69721],[91.22657,22.720619],[91.228678,22.714365],[91.2127,22.712121],[91.206792,22.725788],[91.196498,22.732963],[91.193097,22.732917],[91.21013,22.705544],[91.230536,22.706177],[91.248326,22.680163],[91.265162,22.681675],[91.283003,22.635218],[91.263806,22.634869],[91.288023,22.618617],[91.263628,22.581538],[91.258938,22.585215],[91.22843,22.52564],[91.214126,22.531413],[91.209183,22.524113],[91.16329,22.520493],[91.15509,22.539839],[91.150412,22.54035],[91.153123,22.501372],[91.112558,22.487942],[91.125402,22.48606],[91.159326,22.5001],[91.158929,22.514323],[91.171069,22.52021],[91.193144,22.519304],[91.201181,22.509834],[91.16536,22.47947],[91.160375,22.458188],[91.133952,22.442969],[91.102756,22.458027],[91.082289,22.484863],[91.089128,22.514166],[91.130835,22.543848],[91.136656,22.557034],[91.090631,22.522186],[91.077777,22.493402],[91.05769,22.534021],[91.032659,22.558514],[90.945428,22.614891],[90.892508,22.658984],[90.84791,22.672132],[90.785133,22.769106],[90.778701,22.784529],[90.781516,22.835375],[90.733993,22.902283],[90.71634,22.940317],[90.718508,22.915786],[90.725989,22.901077],[90.736147,22.890371],[90.72915,22.881665],[90.721462,22.891201],[90.724942,22.878578],[90.668952,22.964567],[90.647808,22.979569],[90.643277,23.106603],[90.650227,23.12387],[90.643741,23.116956],[90.640247,23.142877],[90.650198,23.126681],[90.638407,23.167124],[90.642976,23.184374],[90.637116,23.227619],[90.659723,23.244447],[90.665283,23.275445],[90.639069,23.333438],[90.649516,23.33698],[90.668124,23.319882],[90.678604,23.319897],[90.683258,23.325373],[90.679741,23.333455],[90.66915,23.337444],[90.673414,23.350379],[90.668517,23.33599],[90.681511,23.325381],[90.673335,23.320577],[90.654951,23.336861],[90.637407,23.33765],[90.626521,23.355576],[90.632355,23.336476],[90.61121,23.347506],[90.606328,23.340896],[90.590585,23.343205],[90.590674,23.335946],[90.534792,23.339167],[90.505838,23.333556],[90.52745,23.334892],[90.52528,23.326057],[90.489965,23.324566],[90.504176,23.315883],[90.502107,23.301869],[90.526304,23.29361],[90.541457,23.27855],[90.545642,23.283458],[90.610488,23.218117],[90.567429,23.146507],[90.50504,23.091653],[90.496374,23.039338],[90.463921,23.019408],[90.46003,23.029171],[90.458242,23.015887],[90.406756,23.000498],[90.425105,22.987814],[90.473238,22.977019],[90.484323,22.95839],[90.514517,22.944003],[90.530537,22.922678],[90.529157,22.899356],[90.48228,22.877134],[90.475327,22.865395],[90.476516,22.821891],[90.466035,22.802801],[90.451797,22.816323],[90.454796,22.865216],[90.438824,22.881266],[90.453654,22.863021],[90.437728,22.794392],[90.445117,22.807161],[90.49388,22.788805],[90.494448,22.774749],[90.479744,22.756342],[90.491333,22.739767],[90.454802,22.773385],[90.454278,22.787172],[90.452453,22.778657],[90.446341,22.78732],[90.440766,22.783773],[90.448313,22.775459],[90.444623,22.766005],[90.430427,22.781732],[90.437007,22.764678],[90.43101,22.760014],[90.464073,22.749094],[90.50346,22.710015],[90.503557,22.69999],[90.490331,22.690843],[90.478274,22.673569],[90.471823,22.651711],[90.491351,22.689318],[90.502857,22.695664],[90.503256,22.65945],[90.497818,22.664965],[90.509978,22.596902],[90.50479,22.585876],[90.477037,22.585491],[90.47748,22.578914],[90.511315,22.580679],[90.591506,22.529328],[90.590533,22.523711],[90.582339,22.534197],[90.609288,22.485985],[90.606325,22.479632],[90.599216,22.485341],[90.592596,22.500822],[90.587653,22.50819],[90.594874,22.489903],[90.604842,22.476001],[90.591172,22.454587],[90.586304,22.428408],[90.607888,22.404121],[90.615996,22.404751],[90.591782,22.424821],[90.594646,22.445271],[90.61777,22.476065],[90.634379,22.474901],[90.632349,22.462984],[90.644561,22.452154],[90.64078,22.418926],[90.622645,22.445288],[90.64088,22.412109],[90.643153,22.380972],[90.656979,22.383091],[90.65824,22.366028],[90.660944,22.382175],[90.667663,22.378992],[90.668963,22.342434],[90.660718,22.355849],[90.660569,22.31766],[90.643347,22.313921],[90.634443,22.286941],[90.617316,22.274237],[90.618086,22.295081],[90.630836,22.311993],[90.614413,22.311214],[90.615732,22.324496],[90.589837,22.261287],[90.534856,22.213481],[90.518445,22.176484],[90.503422,22.166492],[90.485066,22.205409],[90.498887,22.212],[90.501272,22.215041],[90.500153,22.217449],[90.484591,22.207084],[90.497145,22.154703],[90.43646,22.080346],[90.390833,22.089402],[90.386773,22.105666],[90.387997,22.121391],[90.405092,22.142815],[90.404204,22.169533],[90.432082,22.181536],[90.436209,22.188277],[90.435204,22.191399],[90.398208,22.171582],[90.398537,22.147564],[90.38552,22.137344],[90.374688,22.114156],[90.377683,22.082883],[90.331639,22.046888],[90.307551,21.982251],[90.297832,21.992022],[90.287019,21.993667],[90.271718,22.021254],[90.283606,21.99188],[90.264713,21.976421],[90.25724,21.953963],[90.226957,21.980338],[90.217288,21.985015],[90.173656,21.977418],[90.166052,21.983401],[90.155672,21.983364],[90.132628,21.953313],[90.144622,21.929733],[90.114899,21.926075],[90.113548,21.902506],[90.072747,21.860648],[90.046116,21.865057],[90.02399,21.883778],[90.028561,21.945211],[90.071159,21.969677],[90.090299,22.041474],[90.140289,22.084275],[90.15807,22.113709],[90.198391,22.108066],[90.216687,22.120472],[90.223853,22.14517],[90.21024,22.152781],[90.202774,22.123956],[90.176514,22.127453],[90.151249,22.120949],[90.126893,22.089927],[90.085838,22.059763],[90.06464,22.024013],[90.05594,21.978288],[90.017797,21.982859],[89.996203,21.99989],[89.987035,22.035164],[90.016803,22.042383],[90.030216,22.054859],[90.034747,22.128482],[90.065493,22.148982],[90.070733,22.160654],[90.052444,22.182267],[90.035815,22.18717],[90.042519,22.17985],[90.031431,22.177845],[90.022501,22.183105],[90.027527,22.189495],[90.019758,22.187664],[90.023337,22.173566],[90.060109,22.161223],[90.031313,22.146267],[90.016352,22.128819],[90.013487,22.103109],[90.022642,22.081069],[89.983763,22.050998],[89.971869,22.030487],[89.98659,21.956305],[89.956717,21.946723],[89.93834,21.958861],[89.935784,21.999354],[89.916545,22.023871],[89.901026,22.073104],[89.910288,22.108296],[89.90805,22.157919],[89.897606,22.178268],[89.876742,22.176495]],[[89.025761,26.242747],[89.022016,26.24267],[89.025386,26.240587],[89.025761,26.242747]]],[[[89.558414,26.050138],[89.552233,26.064562],[89.572383,26.063127],[89.570951,26.052335],[89.558414,26.050138]]],[[[89.41989,26.088683],[89.411622,26.077213],[89.394214,26.087302],[89.399409,26.095164],[89.41989,26.088683]]],[[[89.139784,26.257977],[89.150617,26.249796],[89.153985,26.26634],[89.171049,26.263808],[89.170974,26.24074],[89.157848,26.234568],[89.159647,26.250773],[89.152406,26.24471],[89.156392,26.237863],[89.143073,26.241527],[89.133427,26.262518],[89.141719,26.271483],[89.147558,26.262876],[89.139784,26.257977]]],[[[88.936796,26.315909],[88.951942,26.316384],[88.953423,26.30363],[88.963911,26.30414],[88.960835,26.295037],[88.983597,26.299584],[88.981514,26.283056],[88.954459,26.274721],[88.925393,26.293955],[88.930711,26.307418],[88.918122,26.325657],[88.921328,26.335526],[88.941684,26.330941],[88.936796,26.315909]]],[[[90.466835,21.817176],[90.476914,21.814996],[90.480428,21.801743],[90.461425,21.806769],[90.466835,21.817176]]],[[[90.457955,21.858481],[90.459844,21.840882],[90.433036,21.832062],[90.432874,21.846118],[90.457955,21.858481]]],[[[90.368759,21.83607],[90.36837,21.854142],[90.379025,21.855361],[90.383894,21.837469],[90.368759,21.83607]]],[[[89.645696,21.911468],[89.626426,21.884414],[89.625737,21.863711],[89.660702,21.8215],[89.694675,21.797279],[89.699856,21.779695],[89.691924,21.76682],[89.663088,21.753616],[89.650418,21.755311],[89.64702,21.763575],[89.636009,21.756547],[89.609552,21.764782],[89.616062,21.79941],[89.55617,21.852017],[89.554591,21.857558],[89.57745,21.862235],[89.592829,21.87036],[89.594895,21.872993],[89.593151,21.878952],[89.580691,21.890373],[89.591409,21.897874],[89.596504,21.890638],[89.59892,21.889407],[89.593641,21.897444],[89.592257,21.898768],[89.58679,21.896596],[89.579532,21.891437],[89.593579,21.874698],[89.58532,21.866529],[89.557615,21.859828],[89.548538,21.877048],[89.575318,21.931907],[89.573412,21.935249],[89.588419,21.946474],[89.620655,21.945643],[89.645696,21.911468]]],[[[90.483433,21.888744],[90.482255,21.858103],[90.467092,21.849207],[90.465219,21.863889],[90.483433,21.888744]]],[[[89.632675,21.886459],[89.646352,21.896959],[89.660606,21.869738],[89.655998,21.858637],[89.635669,21.867151],[89.632675,21.886459]]],[[[90.303717,21.966593],[90.264163,21.876733],[90.258649,21.844041],[90.216469,21.80486],[90.182136,21.797369],[90.133445,21.808273],[90.100577,21.822686],[90.083314,21.844827],[90.08956,21.865655],[90.110467,21.878526],[90.117525,21.898937],[90.147856,21.892159],[90.16054,21.910278],[90.169025,21.905957],[90.174371,21.907874],[90.181046,21.925477],[90.190041,21.928169],[90.196788,21.93481],[90.197423,21.947307],[90.193357,21.933364],[90.178513,21.925684],[90.171754,21.90891],[90.158488,21.911744],[90.147071,21.895021],[90.119056,21.903219],[90.116819,21.924209],[90.146696,21.928679],[90.136679,21.956417],[90.160847,21.981685],[90.174243,21.97517],[90.223373,21.980443],[90.254485,21.950708],[90.263722,21.957435],[90.272551,21.978122],[90.296052,21.989937],[90.303717,21.966593]]],[[[90.422601,21.89663],[90.459686,21.911495],[90.451167,21.890722],[90.417688,21.880771],[90.422601,21.89663]]],[[[89.710901,21.957117],[89.727201,21.929177],[89.711657,21.899843],[89.728454,21.889832],[89.740868,21.865948],[89.74176,21.839989],[89.721879,21.832785],[89.701413,21.837531],[89.700736,21.842645],[89.708312,21.84414],[89.707885,21.848897],[89.690509,21.854629],[89.697875,21.856408],[89.699227,21.859214],[89.696641,21.864051],[89.701289,21.862305],[89.702791,21.863932],[89.704889,21.880146],[89.711,21.881083],[89.712949,21.883427],[89.710243,21.887182],[89.703555,21.881462],[89.701302,21.864097],[89.694515,21.864965],[89.697746,21.857784],[89.688281,21.854784],[89.706305,21.845479],[89.681678,21.846577],[89.672969,21.836855],[89.66613,21.848746],[89.668586,21.872033],[89.658487,21.88669],[89.678449,21.904945],[89.693122,21.94279],[89.686479,21.992641],[89.70211,22.006917],[89.703768,21.986124],[89.711628,21.977819],[89.722323,21.973582],[89.710901,21.957117]]],[[[90.459966,21.916181],[90.408614,21.894005],[90.391421,21.86494],[90.38655,21.862895],[90.393182,21.870692],[90.371703,21.885065],[90.355079,21.915555],[90.374989,21.868348],[90.358045,21.851557],[90.34257,21.847766],[90.323468,21.847661],[90.31171,21.857197],[90.306798,21.883166],[90.356111,21.979134],[90.41914,22.032817],[90.463842,22.054712],[90.478768,22.032703],[90.483058,21.992196],[90.498377,21.960245],[90.459966,21.916181]]],[[[89.798036,22.044049],[89.799733,22.052742],[89.820599,22.05268],[89.826856,22.035424],[89.839923,22.021095],[89.8361,22.001442],[89.810244,21.995247],[89.803409,21.989119],[89.842608,21.957321],[89.813623,21.939841],[89.80843,21.933381],[89.80668,21.919944],[89.844935,21.890869],[89.836727,21.878335],[89.835863,21.850271],[89.787941,21.842041],[89.77743,21.833421],[89.770457,21.83891],[89.787926,21.875385],[89.794858,21.871755],[89.808114,21.877254],[89.812195,21.885155],[89.812622,21.890446],[89.808516,21.878722],[89.787742,21.877521],[89.783051,21.86941],[89.786756,21.898358],[89.77901,21.905137],[89.787971,21.908399],[89.781214,21.92085],[89.771697,21.910301],[89.775552,21.927608],[89.773058,21.935852],[89.770691,21.908573],[89.78209,21.91781],[89.785435,21.908348],[89.775757,21.904989],[89.784603,21.898929],[89.783616,21.886951],[89.756493,21.885474],[89.748335,21.891887],[89.75391,21.884936],[89.783778,21.885421],[89.780175,21.863401],[89.770098,21.85212],[89.749203,21.855564],[89.734181,21.891875],[89.716302,21.905423],[89.731364,21.918978],[89.726521,21.939541],[89.732438,21.948549],[89.752778,21.946734],[89.759066,21.947782],[89.768332,21.95118],[89.770182,21.956268],[89.764813,21.961037],[89.768882,21.952773],[89.733659,21.95016],[89.72496,21.941112],[89.715142,21.960353],[89.748484,21.973363],[89.748034,21.981681],[89.737355,21.990605],[89.751059,21.995598],[89.752802,22.006004],[89.742999,22.015937],[89.758343,22.025285],[89.7605,22.030578],[89.756192,22.036721],[89.745322,22.036465],[89.742344,22.052619],[89.75029,22.054209],[89.752861,22.065353],[89.771535,22.077858],[89.776119,22.088785],[89.819884,22.053706],[89.798755,22.053573],[89.798036,22.044049]]],[[[89.846749,21.895216],[89.810294,21.918843],[89.811328,21.932039],[89.843177,21.952439],[89.84481,21.959612],[89.805203,21.989307],[89.841174,22.003018],[89.842872,22.02047],[89.826539,22.043067],[89.835608,22.050248],[89.857841,22.023209],[89.86131,21.9624],[89.875588,21.897917],[89.850204,21.873226],[89.842694,21.879482],[89.846749,21.895216]]],[[[89.548612,21.96109],[89.568476,22.037535],[89.607038,22.019254],[89.597514,21.996464],[89.561573,21.975228],[89.5658,21.967543],[89.581907,21.954103],[89.573642,21.941699],[89.548612,21.96109]]],[[[90.339472,21.991589],[90.380904,22.053528],[90.390115,22.046455],[90.387973,22.036421],[90.339472,21.991589]]],[[[89.652072,22.069518],[89.659533,22.071922],[89.666402,22.055141],[89.656409,22.051893],[89.652054,22.037243],[89.659883,22.019929],[89.654751,22.004064],[89.640913,21.992417],[89.624989,22.004668],[89.619859,21.996289],[89.625159,21.979043],[89.645015,21.981764],[89.643806,21.962926],[89.62588,21.948352],[89.586671,21.950314],[89.563432,21.975018],[89.588076,21.98562],[89.605875,22.003857],[89.608425,22.018509],[89.59965,22.02875],[89.618971,22.025451],[89.636001,22.029226],[89.638718,22.033021],[89.620943,22.040154],[89.624644,22.059057],[89.632755,22.063906],[89.623795,22.060209],[89.61939,22.041564],[89.623715,22.036493],[89.637795,22.031921],[89.618,22.026555],[89.568734,22.039205],[89.57427,22.04566],[89.589553,22.038209],[89.593223,22.039245],[89.590788,22.052618],[89.601573,22.052428],[89.604432,22.054352],[89.600904,22.065359],[89.603488,22.05394],[89.590197,22.053646],[89.59226,22.039511],[89.571631,22.047219],[89.573484,22.05335],[89.596957,22.091045],[89.599676,22.085465],[89.629898,22.096383],[89.628854,22.100761],[89.633774,22.097845],[89.649032,22.098856],[89.645975,22.071067],[89.652072,22.069518]]],[[[89.65095,22.147374],[89.659193,22.148269],[89.655424,22.141143],[89.658161,22.137367],[89.672795,22.143276],[89.679664,22.134023],[89.6638,22.099677],[89.682893,22.095368],[89.667368,22.089245],[89.681207,22.065501],[89.67243,22.048572],[89.698975,22.031497],[89.676332,21.988235],[89.685655,21.956509],[89.676942,21.922692],[89.669775,21.908622],[89.65675,21.902858],[89.628465,21.944916],[89.646487,21.961832],[89.647767,21.982774],[89.626782,21.980672],[89.623682,21.999836],[89.639367,21.990549],[89.654361,22.001146],[89.661777,22.018797],[89.654325,22.038861],[89.657564,22.051477],[89.666697,22.052333],[89.667971,22.055801],[89.660407,22.073034],[89.64776,22.071016],[89.652094,22.083926],[89.649077,22.100431],[89.627394,22.101493],[89.598261,22.088772],[89.61418,22.148678],[89.614465,22.166811],[89.634073,22.164914],[89.65095,22.147374]]],[[[90.367979,22.049644],[90.342929,22.002488],[90.340157,22.022274],[90.36457,22.060535],[90.389969,22.08395],[90.426057,22.075781],[90.399277,22.055188],[90.392333,22.047436],[90.383122,22.054808],[90.367979,22.049644]]],[[[89.755053,22.132779],[89.769955,22.079433],[89.751486,22.06688],[89.738977,22.049937],[89.743029,22.03541],[89.757982,22.032277],[89.741881,22.017719],[89.74876,21.998128],[89.733523,21.990838],[89.746288,21.976085],[89.728387,21.968885],[89.723932,21.979826],[89.708183,21.986444],[89.706782,22.00719],[89.697934,22.009086],[89.70447,22.034245],[89.67819,22.052766],[89.710713,22.073922],[89.716342,22.130543],[89.755053,22.132779]]],[[[89.608514,22.269788],[89.618999,22.256512],[89.604193,22.248562],[89.604437,22.245462],[89.613146,22.241413],[89.620389,22.215392],[89.604133,22.231453],[89.600183,22.226289],[89.603518,22.209628],[89.618069,22.198456],[89.605607,22.18058],[89.61287,22.150135],[89.603522,22.128442],[89.553923,22.207975],[89.593105,22.227746],[89.5994,22.25247],[89.593656,22.275888],[89.613492,22.297592],[89.623403,22.292419],[89.613778,22.280074],[89.624171,22.276995],[89.608514,22.269788]]],[[[90.474499,22.984833],[90.425054,22.989992],[90.413058,23.001162],[90.456655,23.006061],[90.474499,22.984833]]],[[[89.605177,26.192591],[89.60369,26.173746],[89.586981,26.177648],[89.593136,26.191837],[89.605177,26.192591]]],[[[90.549384,21.855237],[90.497045,21.810607],[90.476247,21.822668],[90.481693,21.843593],[90.502234,21.85993],[90.549384,21.855237]]],[[[90.557752,21.860112],[90.503563,21.866167],[90.528964,21.886597],[90.557752,21.860112]]],[[[90.499697,21.910544],[90.511359,21.891051],[90.490407,21.875577],[90.491933,21.902536],[90.499697,21.910544]]],[[[90.603404,21.971975],[90.576314,21.882482],[90.56076,21.880289],[90.517134,21.891523],[90.507141,21.912063],[90.5194,21.944486],[90.567359,21.988071],[90.603404,21.971975]]],[[[90.58977,22.05865],[90.504052,21.958876],[90.48477,22.015586],[90.505492,22.028885],[90.487612,22.025737],[90.481128,22.049277],[90.485135,22.073742],[90.567381,22.179726],[90.599908,22.188119],[90.607776,22.107777],[90.58977,22.05865]]],[[[90.578022,22.234712],[90.587845,22.23831],[90.585992,22.212454],[90.568919,22.191931],[90.566241,22.196363],[90.575662,22.209118],[90.579354,22.225358],[90.578022,22.234712]]],[[[90.586176,22.563798],[90.607014,22.554758],[90.598192,22.552752],[90.605578,22.550162],[90.602788,22.544795],[90.56538,22.560168],[90.552523,22.586585],[90.565137,22.587357],[90.588398,22.571977],[90.568219,22.570137],[90.592699,22.56963],[90.598727,22.565186],[90.586176,22.563798]]],[[[90.550621,22.613027],[90.583969,22.584705],[90.592309,22.572915],[90.565206,22.588432],[90.548928,22.588653],[90.541879,22.602827],[90.550621,22.613027]]],[[[90.547979,22.569965],[90.528839,22.594352],[90.533754,22.57857],[90.522895,22.579083],[90.525136,22.640551],[90.534922,22.641045],[90.527406,22.614881],[90.547979,22.569965]]],[[[90.566254,22.648436],[90.558627,22.648448],[90.566194,22.657086],[90.564071,22.657273],[90.548615,22.648064],[90.552777,22.658686],[90.552816,22.668426],[90.546175,22.649806],[90.541367,22.671333],[90.53411,22.676258],[90.540831,22.666546],[90.538067,22.644518],[90.521678,22.641513],[90.521871,22.700966],[90.531518,22.705578],[90.567964,22.697566],[90.566254,22.648436]]],[[[90.518662,22.710248],[90.48494,22.753698],[90.501614,22.774822],[90.502455,22.793272],[90.51455,22.801503],[90.529286,22.785776],[90.521078,22.755639],[90.524425,22.714327],[90.518662,22.710248]]],[[[90.67241,22.812131],[90.645134,22.806842],[90.585737,22.812903],[90.539361,22.794567],[90.516969,22.804058],[90.494794,22.802838],[90.494761,22.808001],[90.506348,22.813485],[90.509076,22.818914],[90.498115,22.827015],[90.497193,22.839208],[90.496281,22.827798],[90.500677,22.822466],[90.492348,22.818608],[90.49014,22.813954],[90.49406,22.799399],[90.485655,22.799329],[90.490911,22.848692],[90.536716,22.88932],[90.622992,22.869789],[90.668745,22.832318],[90.67241,22.812131]]],[[[90.487003,22.859269],[90.508346,22.876793],[90.523247,22.882224],[90.48729,22.84574],[90.487003,22.859269]]],[[[90.596177,22.911764],[90.596912,22.88357],[90.583413,22.88337],[90.566051,22.890555],[90.56862,22.898822],[90.560974,22.896452],[90.596177,22.911764]]],[[[90.507776,23.033917],[90.592087,22.932477],[90.586664,22.919544],[90.550968,22.8973],[90.539152,22.897197],[90.537138,22.922921],[90.515172,22.955021],[90.497118,22.958234],[90.481292,22.978598],[90.476046,23.013939],[90.507776,23.033917]]],[[[90.588403,22.994229],[90.5675,23.035765],[90.573312,23.059166],[90.580409,23.057587],[90.588352,23.035749],[90.588403,22.994229]]],[[[90.565855,23.03601],[90.559893,23.046189],[90.558658,23.044341],[90.55999,23.038361],[90.565001,23.032487],[90.558823,23.03723],[90.575338,22.999822],[90.550513,23.01796],[90.568034,22.994065],[90.546158,23.011015],[90.541513,23.03756],[90.553106,23.068638],[90.56775,23.086703],[90.577257,23.086764],[90.586421,23.06718],[90.582337,23.063137],[90.582363,23.069052],[90.576829,23.073554],[90.581589,23.061825],[90.567527,23.057753],[90.565855,23.03601]]],[[[90.551979,23.3271],[90.559073,23.327792],[90.541836,23.321305],[90.529314,23.328326],[90.534283,23.335001],[90.572375,23.333719],[90.551979,23.3271]]],[[[90.684657,21.937449],[90.650714,21.898815],[90.613418,21.892265],[90.634176,21.975848],[90.699931,21.974816],[90.684657,21.937449]]],[[[90.617219,21.968909],[90.60456,21.902361],[90.608872,21.958566],[90.617219,21.968909]]],[[[90.57404,22.013861],[90.593229,22.029712],[90.622567,21.989427],[90.605724,21.977634],[90.568402,21.99123],[90.57404,22.013861]]],[[[90.592035,22.227204],[90.588959,22.240696],[90.630771,22.243455],[90.627508,22.202403],[90.577508,22.190685],[90.592035,22.227204]]],[[[90.652299,22.288065],[90.613045,22.261088],[90.635463,22.285084],[90.648492,22.304872],[90.652299,22.288065]]],[[[90.668441,22.437583],[90.671809,22.386241],[90.667754,22.398985],[90.660405,22.409473],[90.668441,22.437583]]],[[[90.616993,22.549163],[90.654612,22.544469],[90.647686,22.53346],[90.642188,22.544463],[90.644452,22.528688],[90.631042,22.540683],[90.64311,22.522587],[90.648493,22.490429],[90.627778,22.494144],[90.602282,22.534253],[90.614039,22.551513],[90.63263,22.554118],[90.640964,22.553272],[90.627365,22.552469],[90.616993,22.549163]]],[[[90.596589,23.012411],[90.591582,23.001005],[90.58959,23.030845],[90.595742,23.020365],[90.589485,23.043751],[90.594793,23.046958],[90.598873,23.035112],[90.608386,23.029239],[90.599353,23.006759],[90.596589,23.012411]]],[[[90.615365,23.093399],[90.619959,23.063993],[90.617267,23.051384],[90.612981,23.063016],[90.607271,23.033975],[90.595763,23.047193],[90.583838,23.051898],[90.588833,23.069609],[90.580281,23.08704],[90.598772,23.097343],[90.597749,23.111496],[90.615365,23.093399]]],[[[90.619422,23.265762],[90.586961,23.284146],[90.604263,23.276958],[90.58994,23.29661],[90.60505,23.290865],[90.606743,23.298936],[90.607737,23.290137],[90.603656,23.285803],[90.619422,23.265762]]],[[[90.799056,21.917285],[90.821708,21.928447],[90.804193,21.915299],[90.825513,21.905096],[90.832305,21.889769],[90.810517,21.863311],[90.769205,21.855862],[90.799056,21.917285]]],[[[90.715746,21.899075],[90.737156,21.928429],[90.757968,21.930342],[90.761585,21.911825],[90.734297,21.860366],[90.714053,21.862702],[90.715746,21.899075]]],[[[90.792562,21.936981],[90.778778,21.913431],[90.779943,21.934556],[90.8296,21.997463],[90.818047,21.94484],[90.792562,21.936981]]],[[[90.861532,21.975691],[90.860449,21.940417],[90.849628,21.938943],[90.855788,21.923518],[90.848956,21.920542],[90.838185,21.93164],[90.830828,21.961747],[90.839685,21.982067],[90.854319,21.99074],[90.868474,21.975129],[90.861532,21.975691]]],[[[90.785533,22.025114],[90.785688,22.004557],[90.770019,22.003006],[90.77527,22.021195],[90.785533,22.025114]]],[[[90.744481,22.051653],[90.757305,22.052311],[90.753138,22.039997],[90.733211,22.018957],[90.72066,22.016001],[90.744481,22.051653]]],[[[90.885914,22.091838],[90.89457,22.08572],[90.897456,22.067682],[90.890934,22.049791],[90.8783,22.06334],[90.885914,22.091838]]],[[[90.996034,22.241545],[90.977035,22.171532],[90.933385,22.108785],[90.919751,22.074922],[90.9082,22.073171],[90.898622,22.099539],[90.894436,22.094638],[90.900066,22.120947],[90.957291,22.248948],[90.971986,22.30216],[90.969777,22.343139],[90.978895,22.346334],[90.988718,22.343885],[90.999689,22.289897],[90.996034,22.241545]]],[[[90.908813,22.292766],[90.911636,22.264785],[90.898097,22.207354],[90.893747,22.246003],[90.908813,22.292766]]],[[[90.939003,22.286905],[90.935292,22.257911],[90.921356,22.231508],[90.931333,22.284416],[90.939003,22.286905]]],[[[90.929613,22.346521],[90.937141,22.335053],[90.917037,22.28574],[90.910682,22.303797],[90.929613,22.346521]]],[[[90.897658,22.355783],[90.870902,22.333988],[90.864902,22.356631],[90.886476,22.395664],[90.887953,22.356936],[90.897658,22.355783]]],[[[90.564736,22.73919],[90.560503,22.705791],[90.548658,22.703026],[90.543381,22.743984],[90.562884,22.771403],[90.545945,22.757062],[90.540574,22.734732],[90.529893,22.740567],[90.536403,22.756642],[90.528855,22.750692],[90.528464,22.757446],[90.539057,22.776041],[90.529509,22.767816],[90.545717,22.786404],[90.599428,22.8082],[90.624007,22.803542],[90.653588,22.785616],[90.680581,22.698265],[90.725864,22.619909],[90.709128,22.619625],[90.740002,22.6159],[90.753186,22.602996],[90.773098,22.51767],[90.86493,22.425233],[90.837239,22.351619],[90.841196,22.265888],[90.810547,22.124975],[90.78099,22.077506],[90.740753,22.053121],[90.705414,22.011467],[90.684588,21.9998],[90.629261,21.994069],[90.596879,22.034538],[90.623328,22.114276],[90.622953,22.168919],[90.612624,22.165946],[90.646075,22.208268],[90.672205,22.261751],[90.684358,22.331782],[90.681304,22.370288],[90.680354,22.360074],[90.674545,22.367687],[90.677971,22.392185],[90.668717,22.54223],[90.657104,22.556571],[90.621535,22.566991],[90.619647,22.588525],[90.60969,22.60045],[90.614956,22.615392],[90.617521,22.635706],[90.611275,22.65552],[90.604736,22.661783],[90.615065,22.640064],[90.608402,22.600312],[90.619363,22.582081],[90.617714,22.569993],[90.620855,22.558843],[90.602782,22.568855],[90.587013,22.588703],[90.554426,22.614442],[90.533137,22.621445],[90.536707,22.631694],[90.580213,22.654345],[90.572116,22.713673],[90.566742,22.703797],[90.561692,22.712957],[90.564736,22.73919]]],[[[90.90394,22.495076],[90.864079,22.496059],[90.852998,22.542964],[90.904965,22.502336],[90.90394,22.495076]]],[[[90.953723,22.5449],[90.982118,22.507015],[90.923947,22.493736],[90.839944,22.56628],[90.860407,22.579318],[90.889632,22.561472],[90.953723,22.5449]]],[[[90.727238,22.716077],[90.720053,22.679518],[90.694938,22.724897],[90.706468,22.752714],[90.727725,22.728828],[90.716126,22.727984],[90.727238,22.716077]]],[[[90.767665,22.833146],[90.774726,22.823881],[90.768664,22.809427],[90.751798,22.831429],[90.767665,22.833146]]],[[[90.775827,22.828745],[90.761242,22.837419],[90.75072,22.834781],[90.737433,22.860195],[90.740982,22.863685],[90.743077,22.869531],[90.755086,22.872403],[90.775827,22.828745]]],[[[91.850779,21.582213],[91.846636,21.610074],[91.865603,21.62248],[91.856043,21.58225],[91.850779,21.582213]]],[[[91.895657,21.884404],[91.894628,21.860808],[91.84523,21.740558],[91.846022,21.725333],[91.829879,21.722472],[91.851719,21.828511],[91.840845,21.858694],[91.846334,21.89935],[91.874702,21.923147],[91.895657,21.884404]]],[[[91.060795,22.033186],[91.056041,22.052433],[91.048372,22.048611],[91.04867,22.054154],[91.083125,22.063729],[91.082572,22.051687],[91.060795,22.033186]]],[[[91.03326,22.040007],[91.02014,22.033731],[91.022417,22.043851],[90.990841,22.023108],[90.979277,22.030204],[90.97309,22.071725],[90.998545,22.099656],[91.047471,22.075743],[91.03326,22.040007]]],[[[91.174993,22.383754],[91.189077,22.342429],[91.184311,22.296501],[91.191009,22.247189],[91.166038,22.170699],[91.137179,22.146286],[91.134275,22.130638],[91.113902,22.126811],[91.057761,22.079231],[91.003997,22.113605],[91.038132,22.158278],[91.068479,22.24214],[91.068809,22.339798],[91.059224,22.349228],[91.074738,22.363006],[91.069885,22.406421],[91.131594,22.383607],[91.143059,22.371132],[91.174993,22.383754]]],[[[91.01382,22.241163],[91.020045,22.28883],[91.008931,22.336223],[91.036636,22.320274],[91.02914,22.271708],[91.01382,22.241163]]],[[[90.998205,22.323574],[91.016064,22.295977],[91.010607,22.283535],[90.998205,22.323574]]],[[[91.04153,22.373827],[91.054342,22.348553],[91.034114,22.33702],[91.019598,22.351166],[91.04153,22.373827]]],[[[90.994174,22.370661],[90.962946,22.366118],[90.948933,22.391487],[90.95795,22.413327],[90.97425,22.421021],[90.984352,22.409966],[90.994174,22.370661]]],[[[91.403345,22.420478],[91.404965,22.382179],[91.398135,22.387926],[91.389533,22.373088],[91.352744,22.37383],[91.393427,22.423479],[91.403345,22.420478]]],[[[91.003845,22.370728],[90.988495,22.456673],[91.001889,22.463474],[91.034143,22.450747],[91.045075,22.437531],[91.03036,22.377111],[91.014593,22.361006],[91.003845,22.370728]]],[[[91.258581,22.435127],[91.266365,22.423165],[91.255113,22.409678],[91.245866,22.427578],[91.258581,22.435127]]],[[[90.942987,22.419422],[90.933435,22.432527],[90.937863,22.45645],[90.961955,22.470983],[90.976461,22.467741],[90.967405,22.426304],[90.942987,22.419422]]],[[[91.510206,22.387213],[91.480428,22.399819],[91.443158,22.461477],[91.419969,22.522239],[91.425854,22.569217],[91.420738,22.59727],[91.439001,22.606189],[91.45855,22.608741],[91.476164,22.595149],[91.56868,22.461644],[91.568415,22.409412],[91.560981,22.402029],[91.510206,22.387213]]],[[[91.330511,22.520981],[91.334317,22.507471],[91.326655,22.501082],[91.31167,22.507514],[91.318061,22.497926],[91.290427,22.48417],[91.265505,22.522007],[91.273832,22.55485],[91.290385,22.579381],[91.321322,22.609528],[91.334891,22.611208],[91.33628,22.599152],[91.34389,22.611491],[91.348591,22.602633],[91.353392,22.600084],[91.353838,22.586458],[91.346253,22.584515],[91.353453,22.574776],[91.348975,22.566784],[91.332589,22.564883],[91.350901,22.562394],[91.35295,22.554849],[91.345676,22.552974],[91.354343,22.551252],[91.355335,22.542139],[91.353023,22.526673],[91.342956,22.53113],[91.344046,22.544098],[91.340595,22.530361],[91.334786,22.532202],[91.343402,22.517361],[91.330511,22.520981]]],[[[91.388025,22.702543],[91.41027,22.680363],[91.39497,22.631652],[91.385343,22.626669],[91.322441,22.645385],[91.298267,22.668883],[91.286436,22.704945],[91.301873,22.72346],[91.333904,22.732516],[91.377903,22.71367],[91.384331,22.707401],[91.381029,22.698421],[91.388025,22.702543]]]]}}]}
